{
  "type": "FeatureCollection",
  "generator": "overpass-turbo",
  "copyright": "The data included in this document is from www.openstreetmap.org. The data is made available under ODbL.",
  "timestamp": "2025-09-02T22:19:31Z",
  "features": [
    {
      "type": "Feature",
      "properties": {
        "@id": "node/25869410",
        "admin_level": "2",
        "alt_name:cy": "Ancara",
        "alt_name:ga": "Ancara",
        "alt_name:gl": "Ankara",
        "capital": "yes",
        "is_capital": "country",
        "name": "Ankara",
        "name:aa": "Ankara",
        "name:ab": "ĞĞ½ĞºĞ°Ñ€Ğ°",
        "name:ace": "Ankara",
        "name:acy": "Î‘Î½ÎºÎ±ÏÎ±",
        "name:ady": "ĞĞ½ĞºĞ°Ñ€Ğ°",
        "name:ae": "ğ¬‚ğ¬¥ğ¬ğ¬‚ğ¬­ğ¬‚",
        "name:af": "Ankara",
        "name:als": "Ankara",
        "name:alt": "ĞĞ½ĞºĞ°Ñ€Ğ°",
        "name:am": "áŠ áŠ•áŠ«áˆ«",
        "name:an": "Ankara",
        "name:ang": "Ancyra",
        "name:apc": "Ø£Ù†Ù‚Ø±Ø©",
        "name:ar": "Ø£Ù†Ù‚Ø±Ø©",
        "name:arc": "ÜÜ¢Ü©ÜªÜ",
        "name:arz": "Ø§Ù†Ù‚Ø±Ù‡",
        "name:as": "à¦†à¦¨à¦•à¦¾à§°à¦¾",
        "name:ast": "Ankara",
        "name:av": "ĞĞ½ĞºĞ°Ñ€Ğ°",
        "name:azb": "Ø¢Ù†Ú©Ø§Ø±Ø§",
        "name:ba": "ĞĞ½Ò¡Ğ°Ñ€Ğ°",
        "name:bar": "Ankara",
        "name:be": "ĞĞ½ĞºĞ°Ñ€Ğ°",
        "name:be-tarask": "ĞĞ½ĞºĞ°Ñ€Ğ°",
        "name:bg": "ĞĞ½ĞºĞ°Ñ€Ğ°",
        "name:bjn": "Angkara",
        "name:bn": "à¦†à¦™à§à¦•à¦¾à¦°à¦¾",
        "name:bo": "à½¨à½“à¼‹à½à¼‹à½¢à¼",
        "name:br": "Ankara",
        "name:bs": "Ankara",
        "name:ca": "Ankara",
        "name:cdo": "Ä‚ng-kÄ-lÃ¡",
        "name:ce": "ĞĞ½ĞºĞ°Ñ€Ğ°",
        "name:chr": "á á‚á§á³",
        "name:ckb": "Ø¦Û•Ù†Ù‚Û•Ø±Û•",
        "name:cnr": "Ankara",
        "name:cnr-Cyrl": "ĞĞ½ĞºĞ°Ñ€Ğ°",
        "name:co": "Ankara",
        "name:cop": "â²â²›â²•â²â²£â²",
        "name:cpg": "Î†Î³ÎºÏ…ÏÎ±",
        "name:crh": "Ankara",
        "name:cs": "Ankara",
        "name:csb": "Ankara",
        "name:cu": "ĞĞ½ĞºÑ·Ñ€Ğ°",
        "name:cu-Glag": "â°€â°â°â°«â°“â°€",
        "name:cv": "ĞĞ½ĞºĞ°Ñ€Ğ°",
        "name:cy": "Ankara",
        "name:da": "Ankara",
        "name:de": "Ankara",
        "name:diq": "Anqara",
        "name:dsb": "Ankara",
        "name:dv": "Ş‡Ş¦Ş‚Ş°Ş†Ş§ŞƒŞ§ Ş‡Ş¬ŞˆŞ¬",
        "name:el": "Î†Î³ÎºÏ…ÏÎ±",
        "name:eml": "Ankara",
        "name:en": "Ankara",
        "name:eo": "Ankaro",
        "name:es": "Ankara",
        "name:eu": "Ankara",
        "name:ext": "Anquara",
        "name:fa": "Ø¢Ù†Ú©Ø§Ø±Ø§",
        "name:fo": "Ankara",
        "name:fr": "Ankara",
        "name:frp": "Ankara",
        "name:frr": "Ankara",
        "name:fur": "Ankara",
        "name:fy": "Ankara",
        "name:ga": "Ankara",
        "name:gag": "Ankara",
        "name:gct": "Ankara",
        "name:gd": "Ankara",
        "name:gl": "Ancara",
        "name:glk": "Ø¢Ù†Ú©Ø§Ø±Ø§",
        "name:gn": "AnkÃ¡ra",
        "name:got": "ğŒ°ğŒ½ğŒºğŒ¹ğ‚ğŒ°",
        "name:grc": "á¼ŒÎ³ÎºÏ…ÏÎ±",
        "name:gsw": "Ankara",
        "name:haw": "Ankara",
        "name:he": "×× ×§×¨×”",
        "name:hi": "à¤…à¤‚à¤•à¤¾à¤°à¤¾",
        "name:hit": "ğ’€­ğ’†ªğ’‰¿ğ’€¸",
        "name:hr": "Ankara",
        "name:hsb": "Ankara",
        "name:hu": "Ankara",
        "name:hy": "Ô±Õ¶Õ¯Õ¡Ö€Õ¡",
        "name:hyw": "Ô±Õ¶Õ£Õ¡Ö€Õ¡",
        "name:ie": "Ancara",
        "name:is": "Ankara",
        "name:it": "Ankara",
        "name:ja": "ã‚¢ãƒ³ã‚«ãƒ©",
        "name:ka": "áƒáƒœáƒ™áƒáƒ áƒ",
        "name:kaa": "Ankara",
        "name:kbd": "ĞĞ½ĞºĞ°Ñ€Ğ°",
        "name:ki": "Ankara",
        "name:kiu": "Anqara",
        "name:kk": "ĞĞ½ĞºĞ°Ñ€Ğ°",
        "name:kl": "Ankara",
        "name:km": "á¢á„áŸ‹á€á¶ášáŸ‰á¶",
        "name:kn": "à²…à²‚à²•à²¾à²°à²¾",
        "name:ko": "ì•™ì¹´ë¼",
        "name:koi": "ĞĞ½ĞºĞ°Ñ€Ğ°",
        "name:ks": "Ø§Ù†Ú©Ø§Ø±Ø§",
        "name:ks-Arab": "Ø§Ù†Ú©Ø§Ø±Ø§",
        "name:ksh": "Ankara",
        "name:ku": "Enqere",
        "name:kw": "Ankara",
        "name:ky": "ĞĞ½ĞºĞ°Ñ€Ğ°",
        "name:la": "Ancyra",
        "name:lad": "Ankara",
        "name:lad-Hebr": "×× ×§×¨×”",
        "name:lb": "Ankara",
        "name:lbe": "ĞĞ½ĞºÑŠĞ°Ñ€Ğ°",
        "name:lez": "ĞĞ½ĞºĞ°Ñ€Ğ°",
        "name:li": "Ankara",
        "name:lij": "Ankara",
        "name:lld": "Ankara",
        "name:lmo": "Ankara",
        "name:lo": "àº­àº±àº‡àºàº²àº¥àº²",
        "name:mdf": "ĞĞ½ĞºĞ°Ñ€Ğ°",
        "name:mhr": "ĞĞ½ĞºĞ°Ñ€Ğ°",
        "name:mi": "Anakara",
        "name:mk": "ĞĞ½ĞºĞ°Ñ€Ğ°",
        "name:ml": "à´…à´™àµà´•à´¾à´±",
        "name:mn": "ĞĞ½ĞºĞ°Ñ€Ğ°",
        "name:mn-Mong": "á  á ¨á »á  á ·á  ",
        "name:mnc": "á  á ¨á ‹á Šá¡´á Šá  á¡µá  ",
        "name:mr": "à¤…à¤‚à¤•à¤¾à¤°à¤¾",
        "name:mrj": "ĞĞ½ĞºĞ°Ñ€Ğ°",
        "name:mt": "Ankara",
        "name:mwl": "Ankara",
        "name:my": "á€¡á€”á€ºá€€á€¬á€›á€¬á€™á€¼á€­á€¯á€·",
        "name:mzn": "Ø¢Ù†Ú©Ø§Ø±Ø§",
        "name:nah": "Ancara",
        "name:nap": "Ankara",
        "name:nds-nl": "Ankara",
        "name:ne": "à¤…à¤™à¥à¤•à¤¾à¤°à¤¾",
        "name:nl": "Ankara",
        "name:nn": "Ankara",
        "name:no": "Ankara",
        "name:nrm": "Ankara",
        "name:nv": "TsÃ©Å‚bÃ¡Ã­ Dah YiskÊ¼id",
        "name:oc": "Ankara",
        "name:or": "à¬…à¬™à­à¬•à¬¾à¬°",
        "name:os": "ĞĞ½ĞºĞ°Ñ€Ğ°",
        "name:ota": "Ø¢Ù†Ù‚Ø±Ù‡",
        "name:pa": "à¨…à©°à¨•à¨¾à¨°à¨¾",
        "name:pcd": "Ankara",
        "name:pdc": "Ankara",
        "name:peo": "ğ ğ´ğ¤ğºğ",
        "name:pfl": "Ankara",
        "name:pgl": "ášáš…áš‰áš”ášáš",
        "name:pih": "Ankara",
        "name:pl": "Ankara",
        "name:pms": "Ankara",
        "name:pnb": "Ø§Ù†Ú©Ø±Û",
        "name:pnt": "Î†Î³ÎºÏ…ÏÎ±",
        "name:prs": "Ø§Ù†Ù‚Ø±Ù‡",
        "name:ps": "Ø§Ù†Ù‚Ø±Ù‡",
        "name:pt": "Ancara",
        "name:rm": "Ankara",
        "name:rmy": "Ankara",
        "name:ro": "Ankara",
        "name:roa-rup": "Ancara",
        "name:roa-tara": "Ankara",
        "name:ru": "ĞĞ½ĞºĞ°Ñ€Ğ°",
        "name:rue": "ĞĞ½ĞºĞ°Ñ€Ğ°",
        "name:rup": "Ancara",
        "name:ruq": "Ancara",
        "name:sah": "ĞĞ½ĞºĞ°Ñ€Ğ°",
        "name:sc": "Ankara",
        "name:scn": "Ankara",
        "name:sco": "Ankara",
        "name:sd": "Ø§Ù†Ù‚Ø±Ù‡",
        "name:se": "Ankara",
        "name:sh": "Ankara",
        "name:sk": "Ankara",
        "name:sl": "Ankara",
        "name:sm": "Ankara",
        "name:smn": "Ankara",
        "name:smp": "à €à Ÿà à ’à Ÿà “à Ÿà „",
        "name:so": "Ankara",
        "name:sq": "Ankaraja",
        "name:sqr": "Ø£Ù†ÙƒÙˆØ±ÙŠØ©",
        "name:sr": "ĞĞ½ĞºĞ°Ñ€Ğ°",
        "name:stq": "Ankara",
        "name:sv": "Ankara",
        "name:swg": "Ankara",
        "name:szl": "Ankara",
        "name:ta": "à®…à®™à¯à®•à®¾à®°à®¾",
        "name:te": "à°…à°‚à°•à°¾à°°à°¾",
        "name:tet": "Ankara",
        "name:tg": "ĞĞ½ĞºĞ°Ñ€Ğ°",
        "name:th": "à¸­à¸±à¸‡à¸à¸²à¸£à¸²",
        "name:ti": "áŠ£áŠ•áŠ«áˆ«",
        "name:tk": "Ankara",
        "name:tl": "Ankara",
        "name:tly": "Ankara",
        "name:tpi": "Ankara",
        "name:tr": "Ankara",
        "name:tr:suffix": "BÃ¼yÃ¼kÅŸehir Belediyesi",
        "name:tsd": "Î†Î³ÎºÏ…ÏÎ±",
        "name:tt": "Ó˜Ğ½ĞºĞ°Ñ€Ğ°",
        "name:ty": "Ankara",
        "name:udm": "ĞĞ½ĞºĞ°Ñ€Ğ°",
        "name:ug": "Ø¦Û•Ù†Ù‚Û•Ø±Û•",
        "name:ug-Latn": "Enqere",
        "name:uk": "ĞĞ½ĞºĞ°Ñ€Ğ°",
        "name:ur": "Ø§Ù†Ù‚Ø±Û",
        "name:uz": "Anqara",
        "name:vec": "Angora",
        "name:vep": "Ankar",
        "name:vi": "Ankara",
        "name:vlce": "Ankara",
        "name:vls": "Ankara",
        "name:wa": "Ankara",
        "name:wae": "Ankara",
        "name:wo": "Ankara",
        "name:wuu": "å®‰å¡æ‹‰",
        "name:xal": "ĞĞ½ĞºĞ°Ñ€Ğ°",
        "name:xal-Mong": "á  â€á ¨á ‹â€á¡á ‹â€á  â€á ·â€á  ",
        "name:xlc": "ğŠ€ğŠğŠŒğŠ’ğŠ•ğŠ€",
        "name:xmf": "áƒáƒœáƒ™áƒáƒ áƒ",
        "name:yi": "×× ×§××¨×",
        "name:yue": "å®‰å¡æ‹‰",
        "name:zea": "Ankara",
        "name:zh": "å®‰å¡æ‹‰",
        "name:zza": "Anqara",
        "old_name:be": "ĞĞ½Ğ³Ğ¾Ñ€Ğ°",
        "old_name:es": "Angora",
        "place": "city",
        "population": "5864049",
        "population:date": "2025",
        "salb:id": "TUR007",
        "salb:name": "Ankara",
        "source": "Wikipedia (tr)",
        "source:name:br": "same as name",
        "source:name:oc": "Lo CongrÃ¨s",
        "wikidata": "Q3640",
        "wikimedia_commons": "Category:Ankara",
        "wikipedia": "tr:Ankara"
      },
      "geometry": {
        "type": "Point",
        "coordinates": [
          32.8540497,
          39.9207759
        ]
      },
      "id": "node/25869410"
    },
    {
      "type": "Feature",
      "properties": {
        "@id": "node/25869574",
        "alt_name:ml": "à´…à´¡àµà´°à´¿à´¯à´¾à´¨àµ‹à´ªàµà´ªà´¿àµ¾",
        "name": "Edirne",
        "name:ar": "Ø£Ø¯Ø±Ù†Ø©",
        "name:bg": "ĞĞ´Ñ€Ğ¸Ğ½",
        "name:bs": "Edirne",
        "name:ce": "Ğ­Ğ´Ğ¸Ñ€Ğ½Ğµ",
        "name:ckb": "Ø¦Û•Ø¯Ø±Ù†Û•",
        "name:cs": "Drinopol",
        "name:el": "Î‘Î´ÏÎ¹Î±Î½Î¿ÏÏ€Î¿Î»Î·",
        "name:es": "Edirne",
        "name:fa": "Ø§Ø¯Ø±Ù†Ù‡",
        "name:fr": "Edirne",
        "name:he": "××“×™×¨× ×”",
        "name:hi": "à¤à¤¡à¤¿à¤°à¤¨à¥‡",
        "name:hr": "Edirne",
        "name:hu": "Edirne",
        "name:hy": "Ô±Õ¤Ö€Õ«Õ¡Õ¶Õ¡ÕºÕ¸Õ¬Õ«Õ½",
        "name:it": "Edirne",
        "name:ja": "ã‚¨ãƒ‡ã‚£ãƒ«ãƒ",
        "name:ka": "áƒ”áƒ“áƒ˜áƒ áƒœáƒ”",
        "name:ko": "ì—ë””ë¥´ë„¤",
        "name:ku": "Edirne",
        "name:lt": "EdirnÄ—",
        "name:mk": "ĞĞ´Ñ€Ğ¸Ğ½",
        "name:ml": "à´à´¦à´¿àµ¼à´¨àµ†",
        "name:my": "á€¡á€®á€’á€«á€¸á€”á€®á€™á€¼á€­á€¯á€·",
        "name:oc": "Edirne",
        "name:ru": "Ğ­Ğ´Ğ¸Ñ€Ğ½Ğµ",
        "name:sk": "Drinopol",
        "name:sr": "ĞˆĞµĞ´Ñ€ĞµĞ½Ğµ",
        "name:sr-Latn": "Jedrene",
        "name:tr:suffix": "Belediyesi",
        "name:tt": "Ó˜Ğ´Ğ¸Ñ€Ğ½Ó™",
        "name:uk": "Ğ•Ğ´Ñ–Ñ€Ğ½Ğµ",
        "name:ur": "Ø§Ø¯Ø±Ù†Û",
        "name:zh": "åŸƒè¿ªçˆ¾å…§",
        "old_name:en": "Adrianople",
        "old_name:es": "AdrianÃ³polis",
        "old_name:hr": "Drinopolje",
        "old_name:it": "Adrianopoli",
        "place": "city",
        "population": "180002",
        "population:date": "2022",
        "salb:id": "TUR028",
        "salb:name": "Edirne",
        "source": "Wikipedia",
        "source:name:oc": "ieo-bdtopoc",
        "source:population": "wikipedia",
        "wikidata": "Q43387",
        "wikimedia_commons": "Category:Edirne",
        "wikipedia": "tr:Edirne"
      },
      "geometry": {
        "type": "Point",
        "coordinates": [
          26.5587225,
          41.6759327
        ]
      },
      "id": "node/25869574"
    },
    {
      "type": "Feature",
      "properties": {
        "@id": "node/25869575",
        "alt_name:es": "ChanÃ¡cale",
        "alt_name:ml": "à´¡à´¾àµ¼à´¡à´¨àµ†à´²àµà´²à´¿à´¯",
        "name": "Ã‡anakkale",
        "name:ar": "Ø¬Ù†Ù‚ Ù‚Ù„Ø¹Ø©",
        "name:az": "Ã‡anaqqala",
        "name:bg": "Ğ§Ğ°Ğ½Ğ°ĞºĞºĞ°Ğ»Ğµ",
        "name:ce": "Ğ§Ğ°Ğ½Ğ°ĞºĞºĞ°Ğ»Ğµ",
        "name:de": "Ã‡anakkale",
        "name:el": "Î¤ÏƒÎ±Î½Î¬ÎºÎºÎ±Î»Îµ",
        "name:es": "Ã‡anakkale",
        "name:fa": "Ú†Ø§Ù†Ø§Ú© Ù‚Ù„Ø¹Ù‡",
        "name:he": "×¦'× ×§×œ×”",
        "name:hi": "à¤šà¤¾à¤£à¤•à¤²à¥‡",
        "name:hu": "Ã‡anakkale",
        "name:hy": "Õ‰Õ¡Õ¶Õ¡Ö„Ö„Õ¡Õ¬Õ¥",
        "name:ja": "ãƒãƒ£ãƒŠãƒƒã‚«ãƒ¬",
        "name:ka": "áƒ©áƒáƒœáƒáƒ¥áƒ™áƒáƒšáƒ”",
        "name:ko": "ì°¨ë‚˜ì¹¼ë ˆ",
        "name:lt": "ÄŒanakalÄ—",
        "name:lv": "ÄŒanakale",
        "name:mk": "Ğ§Ğ°Ğ½Ğ°ĞºĞºĞ°Ğ»Ğµ",
        "name:ml": "à´šà´¾à´£à´•àµà´•à´²à´¿",
        "name:nl": "Ã‡anakkale",
        "name:os": "Ğ§Ğ°Ğ½Ğ°ĞºĞºĞ°Ğ»Ğµ",
        "name:pa": "à¨šà¨¾à¨¨à¨•à¨²à©‡",
        "name:pt": "Chanacale",
        "name:ro": "Ã‡anakkale",
        "name:ru": "Ğ§Ğ°Ğ½Ğ°ĞºĞºĞ°Ğ»Ğµ",
        "name:sk": "Ã‡anakkale",
        "name:sq": "Ã‡anakalaja",
        "name:sr": "Ğ§Ğ°Ğ½Ğ°ĞºĞ°Ğ»Ğµ",
        "name:tg": "Ğ§Ğ°Ğ½Ğ¾Ò›Ò›Ğ°Ğ»ÑŠĞ°",
        "name:th": "à¸Šà¸²à¸™à¸±à¸à¸„à¸²à¹à¸¥",
        "name:tr": "Ã‡anakkale",
        "name:tr:suffix": "Belediyesi",
        "name:tt": "Ğ§Ğ°Ğ½Ğ°ĞºĞºĞ°Ğ»Ğµ",
        "name:uk": "Ğ§Ğ°Ğ½Ğ°ĞºĞºĞ°Ğ»Ğµ",
        "name:ur": "Ú†Ù†Ø§Ù‚ Ù‚Ù„Ø¹Û",
        "name:uz": "ChanoqqalÊ¼a",
        "name:zh": "æ°ç´å¡èŠ",
        "old_name": "Kale-i Sultaniye",
        "old_name:es": "Fortaleza del SultÃ¡n",
        "place": "city",
        "population": "143675",
        "population:date": "2022",
        "salb:id": "TUR022",
        "salb:name": "Canakkale",
        "source": "Wikipedia",
        "wikidata": "Q199712",
        "wikimedia_commons": "Category:Ã‡anakkale",
        "wikipedia": "en:Ã‡anakkale"
      },
      "geometry": {
        "type": "Point",
        "coordinates": [
          26.4028892,
          40.146271
        ]
      },
      "id": "node/25869575"
    },
    {
      "type": "Feature",
      "properties": {
        "@id": "node/25869577",
        "name": "KÄ±rklareli",
        "name:ar": "Ù‚Ø±Ù‚Ù„Ø± Ø§ÙŠÙ„ÙŠ",
        "name:az": "KÄ±rklareli",
        "name:bg": "Ğ›Ğ¾Ğ·ĞµĞ½Ğ³Ñ€Ğ°Ğ´",
        "name:br": "KÄ±rklareli",
        "name:ca": "KÄ±rklareli",
        "name:ce": "ĞšĞ¸Ñ€ĞºĞ»Ğ°Ñ€ĞµĞ»Ğ¸",
        "name:cs": "KÄ±rklareli",
        "name:de": "KÄ±rklareli",
        "name:el": "Î£Î±ÏÎ¬Î½Ï„Î± Î•ÎºÎºÎ»Î·ÏƒÎ¹Î­Ï‚",
        "name:en": "KÄ±rklareli",
        "name:eo": "KÄ±rklareli",
        "name:es": "KÄ±rklareli",
        "name:fa": "Ù‚Ø±Ù‚Ù„Ø±Ø§ÛŒÙ„ÛŒ",
        "name:fi": "KÄ±rklareli",
        "name:fr": "KÄ±rklareli",
        "name:hu": "KÄ±rklareli",
        "name:id": "KÄ±rklareli",
        "name:it": "KÄ±rklareli",
        "name:ja": "ã‚¯ãƒ«ã‚¯ãƒ©ãƒ¼ãƒ¬ãƒª",
        "name:ka": "áƒ¥áƒ˜áƒ áƒ¥áƒšáƒáƒ áƒ”áƒšáƒ˜",
        "name:ko": "í‚¤ë¥´í´ë¼ë ë¦¬",
        "name:lt": "Kirklarelis",
        "name:min": "KÄ±rklareli",
        "name:mk": "Ğ›Ğ¾Ğ·ĞµĞ½Ğ³Ñ€Ğ°Ğ´",
        "name:ml": "à´•à´¿àµ¼à´•àµà´²à´±àµ‡à´²à´¿",
        "name:mr": "ĞšÑ‹Ñ€ĞºĞ»Ğ°Ñ€ĞµĞ»Ğ¸",
        "name:ms": "KÄ±rklareli",
        "name:na": "KÄ±rklareli",
        "name:nl": "KÄ±rklareli",
        "name:nn": "KÄ±rklareli",
        "name:no": "KÄ±rklareli",
        "name:os": "ĞšÑ‹Ñ€ĞºĞ»Ğ°Ñ€ĞµĞ»Ğ¸",
        "name:pa": "à¨•à¨¿à¨°à¨•à¨²à¨¾à¨²à©‡à¨°à©€",
        "name:pan": "Ú©Ø±Ú©Ù„Ø§Ø±ÛŒÙ„ÛŒ",
        "name:pl": "KÄ±rklareli",
        "name:pt": "KÄ±rklareli",
        "name:rn": "KÄ±rklareli",
        "name:ro": "KÄ±rklareli",
        "name:ru": "ĞšÑ‹Ñ€ĞºĞ»Ğ°Ñ€ĞµĞ»Ğ¸",
        "name:rw": "KÄ±rklareli",
        "name:sco": "KÄ±rklareli",
        "name:sh": "KÄ±rklareli",
        "name:sk": "KÄ±rklareli",
        "name:sq": "KÃ«rklareli",
        "name:sr": "ĞšĞ¸Ñ€ĞºĞ»Ğ°Ñ€ĞµĞ»Ğ¸",
        "name:sw": "KÄ±rklareli",
        "name:tg": "ÒšĞ¸Ñ€Ò›Ğ»Ğ°Ñ€ÑĞ»Ó£",
        "name:tr": "KÄ±rklareli",
        "name:tr:suffix": "Belediyesi",
        "name:tt": "ĞšÑ‹Ñ€ĞºĞ»Ğ°Ñ€ĞµĞ»Ğ¸",
        "name:udm": "ĞšÑ‹Ñ€ĞºĞ»Ğ°Ñ€ĞµĞ»Ğ¸",
        "name:uk": "ĞšĞ¸Ñ€ĞºĞ»Ğ°Ñ€ĞµĞ»Ñ–",
        "name:ur": "Ù‚Ø±Ù‚Ù„Ø±Ø§ÛŒÙ„ÛŒ",
        "name:vi": "KÄ±rklareli",
        "name:war": "KÄ±rklareli",
        "name:zh": "å…‹çˆ¾å…‹æ‹‰é›·åˆ©",
        "name:zza": "QÄ±rxlareli",
        "old_name": "KÄ±rkkilise",
        "place": "city",
        "population": "277984",
        "salb:id": "TUR051",
        "salb:name": "Kirklareli",
        "source": "Wikipedia",
        "wikidata": "Q206903",
        "wikimedia_commons": "Category:KÄ±rklareli",
        "wikipedia": "tr:KÄ±rklareli"
      },
      "geometry": {
        "type": "Point",
        "coordinates": [
          27.2235523,
          41.7370223
        ]
      },
      "id": "node/25869577"
    },
    {
      "type": "Feature",
      "properties": {
        "@id": "node/25869582",
        "name": "BalÄ±kesir",
        "name:ab": "Ğ‘Ğ°Ğ»Ñ‹Ò›ĞµÑĞ¸Ñ€",
        "name:ar": "Ø¨Ø§Ù„Ù‚ Ø£Ø³ÙŠØ±",
        "name:az": "BalÄ±kÉ™sir",
        "name:be": "Ğ‘Ğ°Ğ»Ñ‹ĞºĞµÑÑ–Ñ€",
        "name:bg": "Ğ‘Ğ°Ğ»ÑŠĞºĞµÑĞ¸Ñ€",
        "name:ce": "Ğ‘Ğ°Ğ»Ğ¸ĞºĞµÑĞ¸Ñ€",
        "name:de": "BalÄ±kesir",
        "name:el": "ÎœÏ€Î±Î»Î¹ÎºÎµÏƒÎ¯Ï",
        "name:en": "BalÄ±kesir",
        "name:es": "BalÄ±kesir",
        "name:fa": "Ø¨Ø§Ù„ÛŒÚ©Ø³ÛŒØ±",
        "name:fr": "BalÄ±kesir",
        "name:hi": "à¤¬à¤¾à¤²à¤¿à¤•à¥‡à¤¸à¤¿à¤°",
        "name:hu": "BalÄ±kesir",
        "name:hy": "Ô²Õ¡Õ¬Õ¨Ö„Õ¥Õ½Õ«Ö€",
        "name:it": "BalÄ±kesir",
        "name:ja": "ãƒãƒ«ã‚±ã‚¹ã‚£ãƒ«",
        "name:ka": "áƒ‘áƒáƒšáƒ˜áƒ¥áƒ”áƒ¡áƒ˜áƒ áƒ˜",
        "name:ko": "ë°œë¦¬ì¼€ì‹œë¥´",
        "name:lt": "Balikesyras",
        "name:lv": "Balikesira",
        "name:mk": "Ğ‘Ğ°Ğ»Ğ¸ĞºĞµÑĞ¸Ñ€",
        "name:ml": "à´¬à´¾à´²à´¿à´–à´¸à´¿àµ¼",
        "name:nl": "BalÄ±kesir",
        "name:no": "BalÄ±kesir",
        "name:os": "Ğ‘Ğ°Ğ»Ñ‹ĞºĞµÑĞ¸Ñ€",
        "name:pt": "BalÄ±kesir",
        "name:ro": "BalÄ±kesir",
        "name:ru": "Ğ‘Ğ°Ğ»Ñ‹ĞºĞµÑĞ¸Ñ€",
        "name:sq": "BallÃ«kesir",
        "name:sr": "Ğ‘Ğ°Ğ»Ğ¸ĞºĞµÑĞ¸Ñ€",
        "name:sv": "BalÄ±kesir",
        "name:tg": "Ğ‘Ğ¾Ğ»Ğ¸ĞºĞµÑĞ¸Ñ€",
        "name:tr": "BalÄ±kesir",
        "name:tr:suffix": "BÃ¼yÃ¼kÅŸehir Belediyesi",
        "name:tt": "Ğ‘Ğ°Ğ»Ñ‹ĞºĞµÑĞ¸Ñ€",
        "name:uk": "Ğ‘Ğ°Ğ»Ğ¸ĞºĞµÑÑ–Ñ€",
        "name:ur": "Ø¨Ø§Ù„Ù‚ Ø§Ø³ÛŒØ±",
        "name:uz": "Baliqesir",
        "name:zh": "å·´å‹’å…‹åŸƒè¥¿çˆ¾",
        "place": "city",
        "population": "1196170",
        "salb:id": "TUR012",
        "salb:name": "Balikesir",
        "source": "Wikipedia",
        "website": "http://www.balikesir.gov.tr/",
        "wikidata": "Q199723",
        "wikimedia_commons": "Category:BalÄ±kesir",
        "wikipedia": "tr:BalÄ±kesir"
      },
      "geometry": {
        "type": "Point",
        "coordinates": [
          27.8879787,
          39.6473917
        ]
      },
      "id": "node/25869582"
    },
    {
      "type": "Feature",
      "properties": {
        "@id": "node/25869694",
        "alt_name:ur": "Ù…ÙˆØºÙ„Ø§",
        "name": "MuÄŸla",
        "name:ar": "Ù…ÙˆØºÙ„Ø§",
        "name:de": "MuÄŸla",
        "name:el": "ÎœÎ¿Ï…Î³Î»Î¬",
        "name:es": "MuÄŸla",
        "name:fr": "MuÄŸla",
        "name:hi": "à¤®à¥à¤¯à¥‚à¤—à¥à¤²à¤¾",
        "name:it": "MuÄŸla",
        "name:ml": "à´®àµ‚à´—àµà´²",
        "name:nl": "MuÄŸla",
        "name:pl": "MuÄŸla",
        "name:pt": "MuÄŸla",
        "name:ru": "ĞœÑƒĞ³Ğ»Ğ°",
        "name:sr": "ĞœÑƒĞ³Ğ»Ğ°",
        "name:sv": "MuÄŸla",
        "name:tr": "MuÄŸla",
        "name:tr:suffix": "BÃ¼yÃ¼kÅŸehir Belediyesi",
        "name:uk": "ĞœÑƒĞ³Ğ»Ğ°",
        "name:ur": "Ù…ÙˆØºÙ„Û",
        "place": "city",
        "population": "82717",
        "population:date": "2022",
        "salb:adm1name": "Mugla",
        "salb:adm2name": "Mugla Merkez Ilcesi",
        "salb:id": "TUR059012",
        "salb:name": "Mugla",
        "source": "Wikipedia (tr)",
        "wikidata": "Q216912",
        "wikimedia_commons": "Category:MuÄŸla",
        "wikipedia": "tr:MuÄŸla"
      },
      "geometry": {
        "type": "Point",
        "coordinates": [
          28.363733,
          37.2151784
        ]
      },
      "id": "node/25869694"
    },
    {
      "type": "Feature",
      "properties": {
        "@id": "node/25869720",
        "admin_level": "4",
        "alt_name": "Afyon",
        "alt_name:ar": "Ø£ÙÙŠÙˆÙ†",
        "name": "Afyonkarahisar",
        "name:ar": "Ø£ÙÙŠÙˆÙ† Ù‚Ø±Ù‡ Ø­ØµØ§Ø±",
        "name:bg": "ĞÑ„Ğ¸Ğ¾Ğ½ĞºĞ°Ñ€Ğ°Ñ…Ğ¸ÑĞ°Ñ€",
        "name:de": "Afyonkarahisar",
        "name:el": "Î‘Ï†Î¹ÏŒÎ½ ÎšÎ±ÏÎ±Ï‡Î¹ÏƒÎ¬Ï",
        "name:en": "Afyonkarahisar",
        "name:es": "Afyonkarahisar",
        "name:fa": "Ø§ÙÛŒÙˆÙ† Ù‚Ø±Ù‡â€ŒØ­ØµØ§Ø±",
        "name:fr": "Afyonkarahisar",
        "name:hi": "à¤…à¤«à¤¯à¥‹à¤‚à¤•à¤°à¤¹à¤¿à¤¸à¤¾à¤°",
        "name:hu": "Afyonkarahisar",
        "name:it": "Afyonkarahisar",
        "name:ja": "ã‚¢ãƒ•ã‚£ãƒ¨ãƒ³ã‚«ãƒ©ãƒ’ã‚µãƒ¼ãƒ«",
        "name:lt": "Afjonkarahisaras",
        "name:ml": "à´…à´«àµà´¯àµ‹àµºà´•àµà´•à´±à´¹à´¿à´¸à´¾àµ¼",
        "name:no": "Afyonkarahisar",
        "name:pl": "Afyonkarahisar",
        "name:pt": "Afioncaraquissar",
        "name:ru": "ĞÑ„ÑŒĞ¾Ğ½ĞºĞ°Ñ€Ğ°Ñ…Ğ¸ÑĞ°Ñ€",
        "name:sr": "ĞÑ„Ñ˜Ğ¾Ğ½ĞºĞ°Ñ€Ğ°Ñ…Ğ¸ÑĞ°Ñ€",
        "name:sv": "Afyonkarahisar",
        "name:tr": "Afyonkarahisar",
        "name:tr:suffix": "Belediyesi",
        "name:uk": "ĞÑ„Ğ¹Ğ¾Ğ½ĞºĞ°Ñ€Ğ°Ñ…Ñ–ÑĞ°Ñ€",
        "name:ur": "Ø§ÙÛŒÙˆÙ† Ù‚Ø±Û Ø­ØµØ§Ø±",
        "name:zh": "é˜¿è²æ°¸å¡æ‹‰å¸Œè¨å°”",
        "place": "city",
        "population": "747555",
        "population:date": "2022",
        "salb:id": "TUR003",
        "salb:name": "Afyon",
        "source": "Wikipedia (tr)",
        "wikidata": "Q166824",
        "wikimedia_commons": "Category:Afyonkarahisar",
        "wikipedia": "tr:Afyonkarahisar"
      },
      "geometry": {
        "type": "Point",
        "coordinates": [
          30.5387044,
          38.7568597
        ]
      },
      "id": "node/25869720"
    },
    {
      "type": "Feature",
      "properties": {
        "@id": "node/25869729",
        "name": "Bilecik",
        "name:ar": "Ø¨ÙŠÙ„Ø¬ÙŠÙƒ",
        "name:arc": "Ü’ÜÜ Ü“ÜÜŸ",
        "name:az": "BilÉ™cik",
        "name:be": "Ğ‘Ñ–Ğ»ĞµĞ´Ğ¶Ñ‹Ğº",
        "name:bg": "Ğ‘Ğ¸Ğ»ĞµĞ´Ğ¶Ğ¸Ğº",
        "name:el": "ÎœÏ€Î¹Î»ÎµÏ„Î¶Î¯Îº",
        "name:fa": "Ø§Ø³ØªØ§Ù† Ø¨ÛŒÙ„Ù‡â€ŒØ¬Ú©",
        "name:hu": "Bilecik",
        "name:hy": "Ô²Õ«Õ¬Õ¥Õ»Õ«Ö„Õ« Õ´Õ¡Ö€Õ¦",
        "name:ka": "áƒ‘áƒ˜áƒšáƒ”áƒ¯áƒ˜áƒ¥áƒ˜áƒ¡ áƒáƒ áƒáƒ•áƒ˜áƒœáƒªáƒ˜áƒ",
        "name:ml": "à´¬à´¿à´²àµ†à´œà´¿à´•àµ",
        "name:ru": "Ğ‘Ğ¸Ğ»ĞµĞ´Ğ¶Ğ¸Ğº",
        "name:sr": "Ğ‘Ğ¸Ğ»ĞµÑŸĞ¸Ğº",
        "name:tr": "Bilecik",
        "name:tr:suffix": "Belediyesi",
        "name:uk": "Ğ‘Ñ–Ğ»ĞµĞ´Ğ¶Ğ¸Ğº",
        "name:zh": "æ¯”è±å‰å…‹çœ",
        "old_name": "ErtuÄŸrul",
        "place": "city",
        "population": "51260",
        "salb:id": "TUR016",
        "salb:name": "Bilecik",
        "source": "Wikipedia (tr)",
        "wikidata": "Q208006",
        "wikimedia_commons": "Category:Bilecik",
        "wikipedia": "tr:Bilecik"
      },
      "geometry": {
        "type": "Point",
        "coordinates": [
          29.9752911,
          40.1435101
        ]
      },
      "id": "node/25869729"
    },
    {
      "type": "Feature",
      "properties": {
        "@id": "node/25869752",
        "name": "Burdur",
        "name:ar": "Ø¨ÙˆØ±Ø¯ÙˆØ±",
        "name:ce": "Ğ‘ÑƒÑ€Ğ´ÑƒÑ€",
        "name:el": "ÎœÏ€Î¿Ï…ÏÎ½Ï„Î¿ÏÏ",
        "name:fa": "Ø¨ÙˆØ±Ø¯ÙˆØ±",
        "name:hu": "Burdur",
        "name:hy": "Ô²Õ¸Ö‚Ö€Õ¤Õ¸Ö‚Ö€",
        "name:ja": "ãƒ–ãƒ«ãƒ‰ã‚¥ãƒ«",
        "name:ka": "áƒ‘áƒ£áƒ áƒ“áƒ£áƒ áƒ˜",
        "name:ko": "ë¶€ë¥´ë‘ë¥´",
        "name:ru": "Ğ‘ÑƒÑ€Ğ´ÑƒÑ€",
        "name:sr": "Ğ‘ÑƒÑ€Ğ´ÑƒÑ€",
        "name:tg": "Ğ‘ÑƒÑ€Ğ´ÑƒÑ€",
        "name:tr": "Burdur",
        "name:tr:suffix": "Belediyesi",
        "name:uk": "Ğ‘ÑƒÑ€Ğ´ÑƒÑ€",
        "name:zh": "å¸ƒçˆ¾æœçˆ¾",
        "place": "city",
        "population": "261401",
        "salb:adm1name": "Burdur",
        "salb:adm2name": "Burdur Merkez Ilcesi",
        "salb:id": "TUR020011",
        "salb:name": "Burdur",
        "source": "Wikipedia (tr)",
        "wikidata": "Q211811",
        "wikimedia_commons": "Category:Burdur",
        "wikipedia": "tr:Burdur"
      },
      "geometry": {
        "type": "Point",
        "coordinates": [
          30.2887286,
          37.7248394
        ]
      },
      "id": "node/25869752"
    },
    {
      "type": "Feature",
      "properties": {
        "@id": "node/25869768",
        "name": "DÃ¼zce",
        "name:ar": "Ø¯ÙˆØ²Ø¬Ø©",
        "name:az": "DÃ¼zcÉ™",
        "name:be": "Ğ”Ğ·ÑĞ·Ğ´Ğ¶Ñ",
        "name:ce": "Ğ”ÑƒÑŒĞ·Ğ´Ğ¶Ğµ",
        "name:de": "DÃ¼zce",
        "name:el": "ÎÏ„Î¿ÏÎ¶Ï„Î¶Îµ",
        "name:en": "DÃ¼zce",
        "name:es": "DÃ¼zce",
        "name:fa": "Ø¯ÙˆØ²Ø¬Ù‡",
        "name:fr": "DÃ¼zce",
        "name:hu": "DÃ¼zce",
        "name:hy": "Ô´ÕµÕ¸Ö‚Õ¦Õ»Õ¥",
        "name:it": "DÃ¼zce",
        "name:ja": "ãƒ‡ãƒ¥ã‚ºã‚¸ã‚§",
        "name:ka": "áƒ“áƒ£áƒ–áƒ¯áƒ”",
        "name:ko": "ë’¤ì¦ˆì œ",
        "name:ky": "Ğ”Ò¯Ğ·Ğ¶Ğµ",
        "name:lv": "DizdÅ¾e",
        "name:ml": "à´¦àµ‚à´¸àµà´œ",
        "name:nl": "DÃ¼zce",
        "name:no": "DÃ¼zce",
        "name:os": "Ğ”ÑĞ·Ğ´Ğ¶Ğµ",
        "name:pl": "DÃ¼zce",
        "name:pt": "DÃ¼zce",
        "name:ru": "Ğ”ÑĞ·Ğ´Ğ¶Ğµ",
        "name:sq": "Dyzxhe",
        "name:sr": "Ğ”ÑƒĞ·ÑŸĞµ",
        "name:tg": "Ğ”ÑƒĞ·Ò·Ğµ",
        "name:tr": "DÃ¼zce",
        "name:tr:suffix": "Belediyesi",
        "name:tt": "Ğ”Ò¯Ğ·Ò—Ğµ",
        "name:uk": "Ğ”ÑĞ·Ğ´Ğ¶Ğµ",
        "name:ur": "Ø¯ÙˆØ²Ø¬Û",
        "name:zh": "è¿ªèŒ²å‚‘",
        "name:zza": "Duzca",
        "place": "city",
        "population": "370371",
        "salb:id": "TUR027",
        "source": "Wikipedia (tr)",
        "wikidata": "Q206885",
        "wikimedia_commons": "Category:DÃ¼zce",
        "wikipedia": "tr:DÃ¼zce"
      },
      "geometry": {
        "type": "Point",
        "coordinates": [
          31.1595361,
          40.8391531
        ]
      },
      "id": "node/25869768"
    },
    {
      "type": "Feature",
      "properties": {
        "@id": "node/25869769",
        "alt_name:ml": "à´‡à´¸àµà´•à´¿à´·à´¹àµ¼",
        "name": "EskiÅŸehir",
        "name:ar": "Ø¥Ø³ÙƒÙŠ Ø´Ù‡Ø±",
        "name:az": "ÆskiÅŸÉ™hÉ™r",
        "name:azb": "Ø§Ø³Ú©ÛŒâ€ŒØ´Ù‡Ø±",
        "name:be": "Ğ­ÑĞºÑ–ÑˆÑÑ…Ñ–Ñ€",
        "name:bg": "Ğ•ÑĞºĞ¸ÑˆĞµÑ…Ğ¸Ñ€",
        "name:br": "EskiÅŸehir",
        "name:ca": "EskiÅŸehir",
        "name:ce": "Ğ­ÑĞºĞ¸ÑˆĞµÑ…Ó€Ğ¸Ñ€",
        "name:ckb": "Ø¦Û•Ø³Ú©ÛŒØ´Û•Ú¾Ø±",
        "name:crh": "EskiÅŸehir",
        "name:cs": "EskiÅ¡ehir",
        "name:da": "EskiÅŸehir",
        "name:de": "EskiÅŸehir",
        "name:el": "Î•ÏƒÎºÎ¹ÏƒÎµÏ‡Î¯Ï",
        "name:en": "Eskisehir",
        "name:eo": "EskiÅŸehir",
        "name:es": "EskiÅŸehir",
        "name:et": "EskiÅŸehir",
        "name:eu": "EskiÅŸehir",
        "name:fa": "Ø§Ø³Ú©ÛŒâ€ŒØ´Ù‡Ø±",
        "name:fi": "EskiÅŸehir",
        "name:fr": "EskiÅŸehir",
        "name:grc": "Î”Î¿ÏÏÎ»Î±Î¹Î¿Î½",
        "name:he": "××¡×§×™×©×”×™×¨",
        "name:hr": "EskiÅŸehir",
        "name:hu": "EskiÅŸehir",
        "name:it": "EskiÅŸehir",
        "name:ja": "ã‚¨ã‚¹ã‚­ã‚·ã‚§ãƒ’ãƒ«",
        "name:ka": "áƒ”áƒ¡áƒ¥áƒ˜áƒ¨áƒ”áƒ°áƒ˜áƒ áƒ˜",
        "name:kk": "Ğ•ÑĞºĞ¸ÑˆĞµÑ…Ğ¸Ñ€",
        "name:ko": "ì—ìŠ¤í‚¤ì…°íˆë¥´",
        "name:ku": "EskÃ®ÅŸehÃ®r",
        "name:la": "Dorylaeum",
        "name:lt": "EskiÅ¡echiras",
        "name:lv": "EskiÅ¡ehira",
        "name:min": "EskiÅŸehir",
        "name:mk": "Ğ•ÑĞºĞ¸ÑˆĞµÑ…Ğ¸Ñ€",
        "name:ml": "à´à´¸àµà´•à´¿à´·àµ†à´¹à´¿àµ¼",
        "name:mn": "Ğ­ÑĞºĞ¸ÑˆÑÑ…Ğ¸Ñ€",
        "name:ms": "EskiÅŸehir",
        "name:na": "EskiÅŸehir",
        "name:nl": "EskiÅŸehir",
        "name:no": "EskiÅŸehir",
        "name:os": "Ğ­ÑĞºĞ¸ÑˆĞµÑ…Ğ¸Ñ€",
        "name:pa": "à¨‡à¨¸à¨•à©€ à¨¸à¨¼à¨¹à¨¿à¨°",
        "name:pl": "EskiÅŸehir",
        "name:ps": "Ø§Ø³Ú©ÙŠ ÚšØ§Ø±",
        "name:pt": "Esquiceir",
        "name:rn": "EskiÅŸehir",
        "name:ro": "EskiÅŸehir",
        "name:ru": "Ğ­ÑĞºĞ¸ÑˆĞµÑ…Ğ¸Ñ€",
        "name:rw": "EskiÅŸehir",
        "name:sco": "EskiÅŸehir",
        "name:sk": "EskiÅŸehir",
        "name:so": "EskiÅŸehir",
        "name:sq": "Eskishehri",
        "name:sr": "Ğ•ÑĞºĞ¸ÑˆĞµÑ…Ğ¸Ñ€",
        "name:sv": "EskiÅŸehir",
        "name:sw": "EskiÅŸehir",
        "name:szl": "EskiÅŸehir",
        "name:tg": "Ğ­ÑĞºĞ¸ÑˆĞ°Ò³Ñ€",
        "name:tr": "EskiÅŸehir",
        "name:tr:suffix": "BÃ¼yÃ¼kÅŸehir Belediyesi",
        "name:tt": "Ä°skeÅŸÃ¤hÃ¤r",
        "name:tw": "EskiÅŸehir",
        "name:udm": "Ğ­ÑĞºĞ¸ÑˆĞµÑ…Ğ¸Ñ€",
        "name:uk": "Ğ•ÑĞºÑ–ÑˆĞµÑ…Ñ–Ñ€",
        "name:ur": "Ø§Ø³Ú©ÛŒ Ø´ÛØ±",
        "name:uz": "Eskishehir",
        "name:vep": "EskiÅ¡ehir",
        "name:vi": "EskiÅŸehir",
        "name:war": "EskiÅŸehir",
        "name:zh": "åŸƒæ–¯åŸºè°¢å¸Œå°”",
        "place": "city",
        "population": "888828",
        "population:date": "2021",
        "salb:id": "TUR032",
        "salb:name": "Eskisehir",
        "source": "Wikipedia (tr)",
        "website": "https://eskisehir.bel.tr/",
        "wikidata": "Q168866",
        "wikimedia_commons": "Category:EskiÅŸehir",
        "wikipedia": "tr:EskiÅŸehir"
      },
      "geometry": {
        "type": "Point",
        "coordinates": [
          30.519116,
          39.7743941
        ]
      },
      "id": "node/25869769"
    },
    {
      "type": "Feature",
      "properties": {
        "@id": "node/25869814",
        "alt_name": "Konyah;Konia",
        "int_name": "Konya",
        "name": "Konya",
        "name:ar": "Ù‚ÙˆÙ†ÙŠØ§",
        "name:bn": "à¦•à§‹à¦¨à¦¿à§Ÿà¦¾",
        "name:ckb": "Ù‚Û†Ù†ÛŒÛ•",
        "name:de": "Konya",
        "name:el": "Î™ÎºÏŒÎ½Î¹Î¿",
        "name:en": "Konya",
        "name:es": "Konya",
        "name:fa": "Ù‚ÙˆÙ†ÛŒÙ‡",
        "name:fr": "Konya",
        "name:he": "×§×•× ×™×”",
        "name:hi": "à¤•à¥‹à¤¨à¥à¤¯à¤¾",
        "name:hu": "Konya",
        "name:it": "Konya",
        "name:ja": "ã‚³ãƒ³ãƒ¤",
        "name:ko": "ì½”ë‹ˆì•„",
        "name:ku": "Qonye",
        "name:lt": "Konija",
        "name:ml": "à´•àµ‹à´¨àµà´¯",
        "name:nl": "Konya",
        "name:no": "Konya",
        "name:pl": "Konya",
        "name:ru": "ĞšĞ¾Ğ½ÑŒÑ",
        "name:sr": "ĞšĞ¾Ğ½Ğ¸Ñ˜Ğ°",
        "name:sv": "Konya",
        "name:tr": "Konya",
        "name:tr:suffix": "BÃ¼yÃ¼kÅŸehir Belediyesi",
        "name:uk": "ĞšĞ¾Ğ½ÑŒÑ",
        "name:ur": "Ù‚ÙˆÙ†ÛŒÛ",
        "name:zh": "ç§‘å°¼äº",
        "name:zza": "Qonya",
        "old_name": "Iconium;Ä°konium",
        "place": "city",
        "population": "2161303",
        "source": "Wikipedia (tr)",
        "wikidata": "Q79857",
        "wikimedia_commons": "Category:Konya",
        "wikipedia": "tr:Konya"
      },
      "geometry": {
        "type": "Point",
        "coordinates": [
          32.4924376,
          37.872734
        ]
      },
      "id": "node/25869814"
    },
    {
      "type": "Feature",
      "properties": {
        "@id": "node/25869815",
        "name": "KÃ¼tahya",
        "name:ar": "ÙƒÙˆØªØ§Ù‡ÙŠØ©",
        "name:ast": "KÃ¼tahya",
        "name:az": "KÃ¼tahya",
        "name:ba": "ĞšÑÑ‚Ğ°Ñ…ÑŒÑ",
        "name:be": "ĞšÑÑ‚Ğ°Ñ…â€™Ñ",
        "name:bg": "ĞšÑÑ‚Ğ°Ñ…Ğ¸Ñ",
        "name:br": "KÃ¼tahya",
        "name:ca": "KÃ¼tahya",
        "name:ce": "ĞšÑƒÑŒÑ‚Ğ°Ñ…Ó€Ğ¸",
        "name:ceb": "KÃ¼tahya",
        "name:ckb": "Ú©ÙˆØªØ§Ú¾ÛŒØ§",
        "name:cs": "KÃ¼tahya",
        "name:cv": "ĞšÓ³Ñ‚Ğ°Ñ…ÑŒÑ",
        "name:da": "KÃ¼tahya",
        "name:de": "KÃ¼tahya",
        "name:el": "ÎšÎ¹Î¿Ï…Ï„Î¬Ï‡ÎµÎ¹Î±",
        "name:eo": "KÃ¼tahya",
        "name:es": "KÃ¼tahya",
        "name:et": "KÃ¼tahya",
        "name:fa": "Ú©ÙˆØªØ§Ù‡ÛŒÙ‡",
        "name:fi": "KÃ¼tahya",
        "name:fr": "KÃ¼tahya",
        "name:gag": "KÃ¼tahya",
        "name:gl": "KÃ¼tahya",
        "name:grc": "ÎšÎ¿Ï„Ï…Î¬ÎµÎ¹Î¿Î½",
        "name:hu": "KÃ¼tahya",
        "name:hy": "Õ”ÕµÕ¸Ö‚Õ©Õ¡Õ°ÕµÕ¡",
        "name:it": "KÃ¼tahya",
        "name:ja": "ã‚­ãƒ¥ã‚¿ãƒ’ãƒ¤",
        "name:ka": "áƒ¥áƒ£áƒ—áƒáƒ°áƒ˜áƒ",
        "name:kaa": "KÃ¼tahya",
        "name:ko": "í€´íƒ€íˆì•„",
        "name:la": "Cotyaeum",
        "name:lt": "Kiutahija",
        "name:lv": "Kitahja",
        "name:min": "KÃ¼tahya",
        "name:mk": "ĞŒÑƒÑ‚Ğ°Ñ…Ğ¸Ñ˜Ğ°",
        "name:ml": "à´•àµ‚à´¤àµà´¤à´¾à´¹àµà´¯",
        "name:ms": "KÃ¼tahya",
        "name:na": "KÃ¼tahya",
        "name:nl": "KÃ¼tahya",
        "name:no": "KÃ¼tahya",
        "name:os": "ĞšÑÑ‚Ğ°Ñ…ÑŒÑ",
        "name:pl": "KÃ¼tahya",
        "name:pt": "KÃ¼tahya",
        "name:ro": "KÃ¼tahya",
        "name:ru": "ĞšÑÑ‚Ğ°Ñ…ÑŒÑ",
        "name:rw": "KÃ¼tahya",
        "name:sq": "Kytahia",
        "name:sr": "ĞšÑƒÑ‚Ğ°Ñ…Ñ˜Ğ°",
        "name:sv": "KÃ¼tahya",
        "name:sw": "KÃ¼tahya",
        "name:tg": "ĞšÑƒÑ‚Ğ¾Ò³Ğ¸Ñ‘",
        "name:tr": "KÃ¼tahya",
        "name:tr:suffix": "Belediyesi",
        "name:tt": "ĞšÑÑ‚Ğ°Ñ…ÑŒÑ",
        "name:udm": "ĞšÑÑ‚Ğ°Ñ…ÑŒÑ",
        "name:uk": "ĞšÑÑ‚Ğ°Ğ³'Ñ",
        "name:ur": "Ú©ÙˆØªØ§ÛÛŒÛ",
        "name:vep": "KÃ¼tahj",
        "name:vi": "KÃ¼tahya",
        "name:zh": "å±ˆå¡”å¸Œäº",
        "old_name:uk": "ĞšÑÑ‚Ğ°Ñ…'Ñ",
        "place": "city",
        "population": "573642",
        "salb:id": "TUR055",
        "salb:name": "Kutahya",
        "source": "Wikipedia (tr)",
        "wikidata": "Q188894",
        "wikimedia_commons": "Category:KÃ¼tahya",
        "wikipedia": "tr:KÃ¼tahya"
      },
      "geometry": {
        "type": "Point",
        "coordinates": [
          29.9857886,
          39.4199106
        ]
      },
      "id": "node/25869815"
    },
    {
      "type": "Feature",
      "properties": {
        "@id": "node/25869819",
        "name": "Manisa",
        "name:ar": "Ù…Ø§Ù†ÙŠØ³Ø§",
        "name:ast": "Manisa",
        "name:az": "Manisa",
        "name:bar": "Manisa",
        "name:be": "ĞœĞ°Ğ½Ñ–ÑĞ°",
        "name:bg": "ĞœĞ°Ğ½Ğ¸ÑĞ°",
        "name:br": "Manisa",
        "name:bs": "Manisa",
        "name:ca": "Manisa",
        "name:ceb": "Manisa",
        "name:ckb": "Ù…Ø§Ù†ÛŒØ³Ø§",
        "name:crh": "Manisa",
        "name:cs": "Manisa",
        "name:cv": "ĞœĞ°Ğ½Ğ¸ÑĞ°",
        "name:de": "Manisa",
        "name:el": "ÎœÎ±Î½Î¯ÏƒÎ±",
        "name:en": "Manisa",
        "name:eo": "Manisa",
        "name:es": "Manisa",
        "name:et": "Manisa",
        "name:fa": "Ù…Ø§Ù†ÛŒØ³Ø§",
        "name:fi": "Manisan",
        "name:fr": "Manisa",
        "name:gd": "Manisa",
        "name:grc": "ÎœÎ±Î³Î½Î·ÏƒÎ¯Î± á¼Ï€á½¶ Î£Î¹Ï€ÏÎ»á¿³",
        "name:hi": "à¤®à¤¨à¤¿à¤¸à¤¾",
        "name:hu": "Manisa",
        "name:hy": "Õ„Õ¡Õ¶Õ«Õ½Õ¡",
        "name:id": "Manisa",
        "name:ik": "Manisa",
        "name:it": "Magnesia",
        "name:ja": "ãƒãƒ‹ã‚µ",
        "name:ka": "áƒ›áƒáƒœáƒ˜áƒ¡áƒ",
        "name:ko": "ë§ˆë‹ˆì‚¬",
        "name:la": "Magnesia ad Sipylum",
        "name:lv": "Manisas",
        "name:mk": "ĞœĞ°Ğ½Ğ¸ÑĞ°",
        "name:ml": "à´®à´¾à´¨àµ€à´¸",
        "name:mr": "à¤®à¤¨à¤¿à¤¸à¤¾ à¤ªà¥à¤°à¤¾à¤‚à¤¤",
        "name:mrj": "ĞœĞ°Ğ½Ğ¸ÑĞ°",
        "name:ms": "Manisa",
        "name:nl": "Manisa",
        "name:no": "Manisa",
        "name:os": "ĞœĞ°Ğ½Ğ¸ÑĞ°",
        "name:pl": "Manisa",
        "name:pt": "Manisa",
        "name:ro": "Manisa",
        "name:ru": "ĞœĞ°Ğ½Ğ¸ÑĞ°",
        "name:sco": "Manisa",
        "name:sh": "Manisa",
        "name:sl": "Manisa",
        "name:sr": "ĞœĞ°Ğ½Ğ¸ÑĞ°",
        "name:sv": "Manisa",
        "name:sw": "Manisa",
        "name:tg": "ĞœĞ°Ğ½Ğ¸ÑĞ¾",
        "name:th": "à¸ˆà¸±à¸‡à¸«à¸§à¸±à¸”à¸¡à¸²à¸™à¸µà¸‹à¸²",
        "name:tk": "Manisa",
        "name:tr:suffix": "BÃ¼yÃ¼kÅŸehir Belediyesi",
        "name:ug": "Ù…Ø§Ù†Ù‰Ø³Ø§ Û‹Ù‰Ù„Ø§ÙŠÙ‰ØªÙ‰",
        "name:uk": "ĞœĞ°Ğ½Ñ–ÑĞ°",
        "name:ur": "ØµÙˆØ¨Û Ù…Ø§Ù†ÛŒØ³Ø§",
        "name:uz": "Manisa",
        "name:war": "Manisa",
        "name:zh": "é©¬å°¼è¨çœ",
        "name:zza": "Manisa",
        "place": "city",
        "population": "1475353",
        "population:date": "2024-12-31",
        "salb:id": "TUR057",
        "salb:name": "Manisa",
        "source": "Wikipedia",
        "source:population": "TÃœÄ°K",
        "wikidata": "Q147089",
        "wikimedia_commons": "Category:Manisa",
        "wikipedia": "en:Manisa"
      },
      "geometry": {
        "type": "Point",
        "coordinates": [
          27.4333969,
          38.6125793
        ]
      },
      "id": "node/25869819"
    },
    {
      "type": "Feature",
      "properties": {
        "@id": "node/25869820",
        "country": "TR",
        "name": "UÅŸak",
        "name:ar": "Ø£ÙˆØ´Ø§Ùƒ",
        "name:az": "UÅŸak ili",
        "name:bg": "Ğ£ÑˆĞ°Ğº",
        "name:cs": "UÅŸak",
        "name:el": "Î•Ï€Î±ÏÏ‡Î¯Î± ÎŸÏ…ÏƒÎ¬Îº",
        "name:en": "UÅŸak",
        "name:hu": "UÅŸak",
        "name:hy": "ÕˆÖ‚Õ·Õ¡Ö„Õ« Õ´Õ¡Ö€Õ¦",
        "name:ja": "ã‚¦ã‚·ãƒ£ã‚¯",
        "name:ka": "áƒ£áƒ¨áƒáƒ¥áƒ˜áƒ¡ áƒáƒ áƒáƒ•áƒ˜áƒœáƒªáƒ˜áƒ",
        "name:ko": "ìš°ìƒ¤í¬ì£¼",
        "name:ml": "à´Šà´·à´¾à´•àµà´•àµ",
        "name:ru": "Ğ£ÑˆĞ°Ğº",
        "name:sr": "Ğ£ÑˆĞ°Ğº",
        "name:tg": "Ğ’Ğ¸Ğ»Ğ¾ÑÑ‚Ğ¸ Ğ£ÑˆĞ¾Ğº",
        "name:tr": "UÅŸak",
        "name:tr:suffix": "Belediyesi",
        "name:uk": "Ğ£ÑˆĞ°Ğº",
        "name:ur": "ØµÙˆØ¨Û Ø¹Ø´Ø§Ù‚",
        "name:zh": "ä¹Œæ²™å…‹çœ",
        "place": "city",
        "population": "377001",
        "salb:id": "TUR077",
        "salb:name": "Usak",
        "source": "Wikipedia (tr)",
        "wikidata": "Q189134",
        "wikimedia_commons": "Category:UÅŸak",
        "wikipedia": "tr:UÅŸak"
      },
      "geometry": {
        "type": "Point",
        "coordinates": [
          29.4058419,
          38.6740401
        ]
      },
      "id": "node/25869820"
    },
    {
      "type": "Feature",
      "properties": {
        "@id": "node/25869857",
        "geonames:id": "738025",
        "name": "Yalova",
        "name:ar": "ÙŠØ§Ù„ÙˆÙØ§",
        "name:el": "Î“Î¹Î¬Î»Î¿Î²Î±",
        "name:hi": "à¤¯à¤¾à¤²à¥‹à¤µà¤¾",
        "name:hu": "Yalova",
        "name:ml": "à´¯à´¾à´²àµ‹à´µ",
        "name:ru": "Ğ¯Ğ»Ğ¾Ğ²Ğ°",
        "name:sr": "ĞˆĞ°Ğ»Ğ¾Ğ²Ğ°",
        "name:tr": "Yalova",
        "name:tr:suffix": "Belediyesi",
        "name:uk": "Ğ¯Ğ»Ğ¾Ğ²Ğ°",
        "name:zh": "äºæ´›ç“¦",
        "old_name": "Yalakova;Yalakabad",
        "place": "city",
        "population": "241665",
        "salb:id": "TUR079",
        "source": "Wikipedia (tr)",
        "wikidata": "Q205942",
        "wikimedia_commons": "Category:Yalova",
        "wikipedia": "tr:Yalova"
      },
      "geometry": {
        "type": "Point",
        "coordinates": [
          29.2699916,
          40.6582529
        ]
      },
      "id": "node/25869857"
    },
    {
      "type": "Feature",
      "properties": {
        "@id": "node/26480399",
        "admin_level": "4",
        "alt_name:ur": "Ø§Ø¯Ø§Ù†Ø§",
        "name": "Adana",
        "name:ar": "Ø£Ø¶Ù†Ø©",
        "name:ckb": "Ø¦Ø§Ø¯Ø§Ù†Ø§",
        "name:de": "Adana",
        "name:diq": "Edene",
        "name:el": "Î†Î´Î±Î½Î±",
        "name:en": "Adana",
        "name:es": "Adana",
        "name:fa": "Ø¢Ø¯Ø§Ù†Ø§",
        "name:hi": "à¤…à¤¦à¤¾à¤¨à¤¾",
        "name:hu": "Adana",
        "name:hy": "Ô±Õ¤Õ¡Õ¶Õ¡",
        "name:ja": "ã‚¢ãƒ€ãƒŠ",
        "name:ka": "áƒáƒ“áƒáƒœáƒ",
        "name:ko": "ì•„ë‹¤ë‚˜",
        "name:ku": "Edene",
        "name:ml": "à´…à´¦à´¾à´¨",
        "name:nl": "Adana",
        "name:pl": "Adana",
        "name:pt": "Adana",
        "name:ru": "ĞĞ´Ğ°Ğ½Ğ°",
        "name:sr": "ĞĞ´Ğ°Ğ½Ğ°",
        "name:sv": "Adana",
        "name:tr": "Adana",
        "name:tr:suffix": "BÃ¼yÃ¼kÅŸehir Belediyesi",
        "name:uk": "ĞĞ´Ğ°Ğ½Ğ°",
        "name:ur": "Ø¢Ø·Ù†Û",
        "name:zh": "é˜¿è¾¾çº³",
        "place": "city",
        "population": "2258718",
        "population:date": "2021",
        "salb:adm1name": "Adana",
        "salb:id": "TUR001010",
        "salb:name": "Adana",
        "wikidata": "Q38545",
        "wikimedia_commons": "Category:Adana",
        "wikipedia": "tr:Adana"
      },
      "geometry": {
        "type": "Point",
        "coordinates": [
          35.3252861,
          36.9863599
        ]
      },
      "id": "node/26480399"
    },
    {
      "type": "Feature",
      "properties": {
        "@id": "node/26480484",
        "name": "HakkÃ¢ri",
        "name:ar": "Ù‡ÙƒØ§Ø±ÙŠ",
        "name:arc": "Ü—ÜŸÜÜªÜ",
        "name:azb": "Ø­Ú©Ø§Ø±ÛŒ",
        "name:ckb": "Ø¬Û†Ù„Û•Ù…ÛØ±Ú¯",
        "name:de": "HakkÃ¢ri",
        "name:en": "HakkÃ¢ri",
        "name:fa": "Ø­Ú©Ø§Ø±ÛŒ",
        "name:fr": "HakkÃ¢ri",
        "name:hu": "Hakkari",
        "name:hy": "Õ€Õ¡Ö„ÕµÕ¡Ö€Õ«",
        "name:ja": "ãƒãƒƒã‚­ãƒ£ãƒª",
        "name:ka": "áƒ°áƒáƒ¥áƒ˜áƒáƒ áƒ˜",
        "name:ku": "ColemÃªrg",
        "name:ml": "à´¹à´•àµà´•à´¾à´±à´¿",
        "name:ota": "Ø­Ú©Ø§Ø±ÛŒ",
        "name:pa": "à¨¹à©±à¨•à¨¾à¨°à©€",
        "name:pnb": "Ø­Ú©Ø§Ø±ÛŒ",
        "name:ru": "Ğ¥Ğ°ĞºĞºÑÑ€Ğ¸",
        "name:sr": "Ğ¥Ğ°ĞºĞ°Ñ€Ğ¸",
        "name:syc": "Ü—ÜŸÜÜªÜ",
        "name:tr:suffix": "Belediyesi",
        "name:uk": "Ğ¥Ğ°ĞºĞºÑÑ€Ñ–",
        "name:ur": "Ø­Ú©Ø§Ø±ÛŒ",
        "old_name": "Ã‡Ã¶lemerik",
        "place": "city",
        "population": "267813",
        "salb:name": "Hakkari",
        "source": "Wikipedia (tr)",
        "wikidata": "Q206895",
        "wikimedia_commons": "Category:HakkÃ¢ri",
        "wikipedia": "tr:HakkÃ¢ri"
      },
      "geometry": {
        "type": "Point",
        "coordinates": [
          43.7377862,
          37.5766959
        ]
      },
      "id": "node/26480484"
    },
    {
      "type": "Feature",
      "properties": {
        "@id": "node/26480571",
        "alt_name:grc": "Î¤ÏŒÏƒÏ€Î¹Î±;Î¤Î¿ÏÏƒÏ€Î±",
        "name": "Van",
        "name:ar": "ÙˆØ§Ù†",
        "name:azb": "ÙˆØ§Ù†",
        "name:ckb": "ÙˆØ§Ù†",
        "name:de": "Van",
        "name:el": "Î’Î±Î½",
        "name:fa": "ÙˆØ§Ù†",
        "name:fr": "Van",
        "name:grc": "Î•á½”Î±",
        "name:hi": "à¤µà¤¾à¤¨",
        "name:hu": "Van",
        "name:hy": "ÕÕ¡Õ¶",
        "name:hyw": "ÕÕ¡Õ¶",
        "name:ja": "ãƒ´ã‚¡ãƒ³",
        "name:ku": "Wan",
        "name:ml": "à´µà´¾àµ»",
        "name:pt": "Van",
        "name:ru": "Ğ’Ğ°Ğ½",
        "name:sr": "Ğ’Ğ°Ğ½",
        "name:tr": "Van",
        "name:tr:suffix": "BÃ¼yÃ¼kÅŸehir Belediyesi",
        "name:uk": "Ğ’Ğ°Ğ½",
        "name:ur": "ÙˆØ§Ù†",
        "place": "city",
        "population": "1141015",
        "population:date": "2021",
        "salb:id": "TUR078",
        "salb:name": "Van",
        "wikidata": "Q83061",
        "wikimedia_commons": "Category:Van, Turkey",
        "wikipedia": "ku:Wan"
      },
      "geometry": {
        "type": "Point",
        "coordinates": [
          43.3946051,
          38.500875
        ]
      },
      "id": "node/26480571"
    },
    {
      "type": "Feature",
      "properties": {
        "@id": "node/26480597",
        "alt_name:ml": "à´¸àµ‹à´³à´•àµ‡àµ¼à´Ÿàµà´Ÿàµ",
        "name": "IÄŸdÄ±r",
        "name:ar": "Ø¥ØºØ¯ÙŠØ±",
        "name:az": "Ä°ÄŸdÄ±r",
        "name:bg": "ĞªĞ³Ğ´ÑŠÑ€",
        "name:ca": "Tsolakert",
        "name:ce": "Ğ˜Ğ³Ó€Ğ´Ğ¸Ñ€",
        "name:ckb": "Ø¦ÛŒØ¯Ø±",
        "name:el": "Î™Î³ÎºÎ½Ï„Î¯Ï",
        "name:es": "Igdir",
        "name:eu": "Igdir",
        "name:fa": "Ø§ÛŒØºØ¯ÛŒØ±",
        "name:he": "××™×“×™×¨",
        "name:hi": "à¤‡à¤—à¥à¤¦à¤¿à¤°",
        "name:hu": "IÄŸdÄ±r",
        "name:hy": "Ô»Õ£Õ¤Õ«Ö€",
        "name:ja": "ã‚¦ãƒ¼ãƒ‰ã‚¥ãƒ«",
        "name:ka": "áƒ˜áƒ¦áƒ“áƒ˜áƒ áƒ˜",
        "name:kk": "Ğ«Ğ³Ğ´Ñ‹Ñ€",
        "name:ko": "ì´ë””ë¥´",
        "name:ku": "Ãdir",
        "name:lt": "Igdyras",
        "name:lv": "Äªgdira",
        "name:ml": "à´‡à´—àµà´¦à´¿àµ¼",
        "name:nl": "IÄŸdÄ±r",
        "name:os": "Ğ«Ğ³Ğ´Ñ‹Ñ€",
        "name:pt": "Eder",
        "name:ru": "Ğ«Ğ³Ğ´Ñ‹Ñ€",
        "name:sr": "Ğ˜Ğ³Ğ´Ğ¸Ñ€",
        "name:tg": "Ğ˜Ò“Ğ´Ğ¸Ñ€",
        "name:th": "à¸­à¸·à¸­à¸”à¸·à¸­à¸£à¹Œ",
        "name:tr": "IÄŸdÄ±r",
        "name:tr:suffix": "Belediyesi",
        "name:tt": "Ğ«Ğ³Ğ´Ñ‹Ñ€",
        "name:uk": "Ğ˜Ğ³Ğ´Ğ¸Ñ€",
        "name:ur": "Ø§ØºØ¯ÛŒØ±",
        "name:zh": "å„å¾·å°”",
        "name:zza": "IÄŸdÄ±r",
        "place": "city",
        "population": "192785",
        "salb:id": "TUR039",
        "salb:name": "Igdir",
        "source": "Wikipedia (tr)",
        "wikidata": "Q483331",
        "wikimedia_commons": "Category:IÄŸdÄ±r",
        "wikipedia": "tr:IÄŸdÄ±r"
      },
      "geometry": {
        "type": "Point",
        "coordinates": [
          44.0467957,
          39.9218784
        ]
      },
      "id": "node/26480597"
    },
    {
      "type": "Feature",
      "properties": {
        "@id": "node/26480875",
        "alt_name": "MaraÅŸ",
        "alt_name:ml": "à´®à´±à´¾à´·àµ",
        "ele": "1164",
        "name": "KahramanmaraÅŸ",
        "name:ar": "Ù…Ø±Ø¹Ø´",
        "name:el": "ÎšÎ±Ï‡ÏÎ±Î¼Î¬Î½Î¼Î±ÏÎ±Ï‚",
        "name:fa": "Ù‚Ù‡Ø±Ù…Ø§Ù† Ù…Ø§Ø±Ø§Ø´",
        "name:hi": "à¤•à¤¹à¤°à¤¾à¤®à¤¨à¤®à¤¾à¤°à¤¸",
        "name:hu": "KahramanmaraÅŸ",
        "name:hy": "Õ„Õ¡Ö€Õ¡Õ·",
        "name:ja": "ã‚«ãƒ•ãƒ©ãƒãƒ³ãƒãƒ©ã‚·ãƒ¥",
        "name:ku": "Gurgum",
        "name:ml": "à´•à´¹àµà´°à´¾à´®àµ»à´®à´±à´¾à´·àµ",
        "name:pt": "KahramanmaraÅŸ",
        "name:ru": "ĞšĞ°Ñ…Ñ€Ğ°Ğ¼Ğ°Ğ½Ğ¼Ğ°Ñ€Ğ°Ñˆ",
        "name:sr": "ĞšĞ°Ñ…Ñ€Ğ°Ğ¼Ğ°Ğ½Ğ¼Ğ°Ñ€Ğ°Ñˆ",
        "name:tr": "KahramanmaraÅŸ",
        "name:tr:suffix": "BÃ¼yÃ¼kÅŸehir Belediyesi",
        "name:uk": "ĞšĞ°Ñ…Ñ€Ğ°Ğ¼Ğ°Ğ½Ğ¼Ğ°Ñ€Ğ°Ñˆ",
        "place": "city",
        "population": "1112634",
        "wikidata": "Q134703",
        "wikimedia_commons": "Category:KahramanmaraÅŸ",
        "wikipedia": "en:KahramanmaraÅŸ"
      },
      "geometry": {
        "type": "Point",
        "coordinates": [
          36.927509,
          37.5812744
        ]
      },
      "id": "node/26480875"
    },
    {
      "type": "Feature",
      "properties": {
        "@id": "node/26481523",
        "alt_name": "Ä°Ã§el",
        "name": "Mersin",
        "name:ar": "Ù…Ø±Ø³ÙŠÙ†",
        "name:ckb": "Ù…ÛØ±Ø³ÛŒÙ†",
        "name:el": "ÎœÎµÏÏƒÎ¯Î½Î±",
        "name:en": "Mersin",
        "name:es": "MersÃ­n",
        "name:fa": "Ù…Ø±Ø³ÛŒÙ†",
        "name:hi": "à¤®à¥‡à¤°à¥à¤¸à¥€à¤¨",
        "name:hu": "Mersin",
        "name:hy": "Õ„Õ¥Ö€Õ½Õ«Õ¶",
        "name:ka": "áƒ›áƒ”áƒ áƒ¡áƒ˜áƒœáƒ˜",
        "name:ku": "MÃªrsÃ®n",
        "name:ml": "à´®àµ†àµ¼à´¸àµ€àµ»",
        "name:ru": "ĞœĞµÑ€ÑĞ¸Ğ½",
        "name:sr": "ĞœĞµÑ€ÑĞ¸Ğ½",
        "name:tr:suffix": "BÃ¼yÃ¼kÅŸehir Belediyesi",
        "name:tt": "ĞœÓ™Ñ€ÑĞ¸Ğ½",
        "name:uk": "ĞœĞµÑ€ÑÑ–Ğ½",
        "old_name:es": "Cefirio",
        "place": "city",
        "population": "1773852",
        "salb:id": "TUR038010",
        "wikidata": "Q134291",
        "wikimedia_commons": "Category:Mersin",
        "wikipedia": "tr:Mersin"
      },
      "geometry": {
        "type": "Point",
        "coordinates": [
          34.6298391,
          36.7978381
        ]
      },
      "id": "node/26481523"
    },
    {
      "type": "Feature",
      "properties": {
        "@id": "node/26481742",
        "name": "Osmaniye",
        "name:ar": "Ø¹Ø«Ù…Ø§Ù†ÙŠØ©",
        "name:bn": "à¦“à¦¸à¦®à¦¾à¦¨à¦¿à¦¯à¦¼à§‡",
        "name:ckb": "Ú©Ù†Ú©Ø§Ù†",
        "name:el": "Î•Ï€Î±ÏÏ‡Î¯Î± ÎŸÏƒÎ¼Î±Î½Î¯Î³Î¹Îµ",
        "name:en": "Osmaniye",
        "name:es": "Osmaniye",
        "name:fa": "Ø¹Ø«Ù…Ø§Ù†ÛŒÙ‡",
        "name:he": "××•×¡×× ×™×”",
        "name:hi": "à¤‰à¤¸à¥à¤®à¤¾à¤¨à¤¿à¤¯à¤¾",
        "name:hu": "Osmaniye",
        "name:hy": "Õ•Õ½Õ´Õ¡Õ¶Õ«Õ¥Õ« Õ´Õ¡Ö€Õ¦",
        "name:ja": "ã‚ªã‚¹ãƒãƒ‹ã‚¨",
        "name:ka": "áƒáƒ¡áƒ›áƒáƒœáƒ˜áƒ”",
        "name:ku": "Kinikan",
        "name:ml": "à´‰à´¸àµà´®à´¾à´¨à´¿à´¯àµ†",
        "name:ru": "ĞÑĞ¼Ğ°Ğ½Ğ¸Ğµ",
        "name:sr": "ĞÑĞ¼Ğ°Ğ½Ğ¸Ñ˜Ğµ",
        "name:tr:suffix": "Belediyesi",
        "name:tt": "Ğ“Ğ¾ÑĞ¼Ğ°Ğ½Ğ¸Ñ",
        "name:uk": "ĞÑĞ¼Ğ°Ğ½Ñ–Ñ”",
        "name:zh": "å¥§æ–¯æ›¼å°¼è€¶",
        "old_name": "Cebel-i Bereket",
        "place": "city",
        "population": "246720",
        "population:date": "2024",
        "population:note": "Urban, only Osmaniye city",
        "salb:adm1name": "Osmaniye",
        "salb:adm2name": "Osmaniye Merkez Ilcesi",
        "salb:id": "TUR064007",
        "salb:name": "Osmaniye",
        "source": "Wikipedia (tr)",
        "source:population": "TÃœÄ°K",
        "wikidata": "Q281206",
        "wikimedia_commons": "Category:Osmaniye Province",
        "wikipedia": "tr:Osmaniye (il)"
      },
      "geometry": {
        "type": "Point",
        "coordinates": [
          36.2507673,
          37.0733588
        ]
      },
      "id": "node/26481742"
    },
    {
      "type": "Feature",
      "properties": {
        "@id": "node/26482228",
        "admin_level": "4",
        "name": "Aksaray",
        "name:ar": "Ø¢Ù‚ Ø³Ø±Ø§ÙŠ",
        "name:bg": "ĞĞºÑĞ°Ñ€Ğ°Ğ¹",
        "name:ce": "ĞĞºÑĞ°Ñ€Ğ°Ğ¹",
        "name:el": "Î†ÎºÏƒÎµÏÎ¬Î¹",
        "name:es": "Aksaray",
        "name:fa": "Ø¢Ù‚â€ŒØ³Ø±Ø§ÛŒ",
        "name:hi": "à¤…à¤•à¥à¤¸à¤°à¤¾à¤¯",
        "name:hu": "Aksaray",
        "name:hy": "Ô±Ö„Õ½Õ¡Ö€Õ¡Õµ",
        "name:ja": "ã‚¢ã‚¯ã‚µãƒ©ã‚¤",
        "name:ka": "áƒáƒ¥áƒ¡áƒáƒ áƒáƒ˜",
        "name:kk": "ĞÒ›ÑĞ°Ñ€Ğ°Ğ¹",
        "name:ko": "ì•…ì‚¬ë¼ì´",
        "name:ml": "à´†à´•àµà´¸à´±à´¾à´¯àµ",
        "name:pa": "à¨…à¨•à¨¸à¨¾à¨°à¨¾à¨",
        "name:ru": "ĞĞºÑĞ°Ñ€Ğ°Ğ¹",
        "name:sr": "ĞĞºÑĞ°Ñ€Ğ°Ñ˜",
        "name:tg": "ĞÒ›ÑĞ°Ñ€Ğ¾Ğ¹",
        "name:tr:suffix": "Belediyesi",
        "name:tt": "ĞĞºÑĞ°Ñ€Ğ°Ğ¹",
        "name:uk": "ĞĞºÑĞ°Ñ€Ğ°Ğ¹",
        "name:ur": "Ø¢Ù‚ Ø³Ø±Ø§Ø¦Û’",
        "name:zh": "é˜¿å…‹è¨èµ–",
        "old_name": "GarsaÃºra;Garsaura;Gausaura;Arkhelais;Archaleis;Akserai;Taxara",
        "place": "city",
        "population": "423011",
        "population:date": "2021",
        "wikidata": "Q182025",
        "wikimedia_commons": "Category:Aksaray (District)",
        "wikipedia": "tr:Aksaray"
      },
      "geometry": {
        "type": "Point",
        "coordinates": [
          34.026907,
          38.3705416
        ]
      },
      "id": "node/26482228"
    },
    {
      "type": "Feature",
      "properties": {
        "@id": "node/26482281",
        "name": "Karaman",
        "name:ar": "ÙƒØ§Ø±Ø§Ù…Ø§Ù†",
        "name:bn": "à¦•à¦¾à¦°à¦¾à¦®à¦¾à¦¨",
        "name:de": "Karaman",
        "name:el": "ÎšÎ±ÏÎ±Î¼Î¬Î½",
        "name:en": "Karaman",
        "name:es": "Karaman",
        "name:hu": "Karaman",
        "name:ko": "ì¹´ë¼ë§Œ",
        "name:ml": "à´•à´±à´¾à´®à´¾àµ»",
        "name:nl": "Karaman",
        "name:no": "Karaman",
        "name:pt": "CaramÃ¢nia",
        "name:ru": "ĞšĞ°Ñ€Ğ°Ğ¼Ğ°Ğ½",
        "name:sr": "ĞšĞ°Ñ€Ğ°Ğ¼Ğ°Ğ½",
        "name:sv": "Karaman",
        "name:tr": "Karaman",
        "name:tr:suffix": "Belediyesi",
        "name:uk": "ĞšĞ°Ñ€Ğ°Ğ¼Ğ°Ğ½",
        "old_name": "Laranda;Larende;Larawanda",
        "old_name:el": "Î›Î±ÏÎ­Î½Ï„Îµ",
        "place": "city",
        "population": "245610",
        "salb:adm1name": "Karaman",
        "salb:adm2name": "Karaman Merkez Ilcesi",
        "salb:id": "TUR045006",
        "salb:name": "Karaman",
        "source": "Wikipedia (tr)",
        "wikidata": "Q262579",
        "wikimedia_commons": "Category:Karaman",
        "wikipedia": "en:Karaman"
      },
      "geometry": {
        "type": "Point",
        "coordinates": [
          33.2194554,
          37.1808502
        ]
      },
      "id": "node/26482281"
    },
    {
      "type": "Feature",
      "properties": {
        "@id": "node/26482287",
        "ISO3166-2": "TR-38",
        "alt_name:ml": "à´•àµˆà´¸à´°àµà´¯",
        "ele": "1054",
        "name": "Kayseri",
        "name:af": "Kayseri",
        "name:ar": "Ù‚ÙŠØµØ±ÙŠØ©",
        "name:ast": "Kayseri",
        "name:az": "Kayseri",
        "name:be": "ĞšĞ°Ğ¹ÑĞµÑ€Ñ‹",
        "name:bg": "ĞšĞ°Ğ¹ÑĞµÑ€Ğ¸",
        "name:bn": "à¦•à¦¾à§Ÿà¦¸à§‡à¦°à¦¿",
        "name:br": "Kayseri",
        "name:bs": "Kayseri",
        "name:ca": "Kayseri",
        "name:ce": "ĞšĞ°Ğ¹ÑĞµÑ€Ğ¸",
        "name:ceb": "Kayseri",
        "name:ckb": "Ù‚Û•ÛŒØ³Û•Ø±ÛŒ",
        "name:cs": "Kayseri",
        "name:da": "Kayseri",
        "name:de": "Kayseri",
        "name:diq": "Qeyseriye",
        "name:el": "ÎšÎ±Î¹ÏƒÎ¬ÏÎµÎ¹Î±",
        "name:en": "Kayseri",
        "name:eo": "Kayseri",
        "name:es": "Kayseri",
        "name:et": "Kayseri",
        "name:eu": "Kayseri",
        "name:fa": "Ù‚ÛŒØµØ±ÛŒÙ‡",
        "name:fr": "Kayseri",
        "name:frr": "Kayseri",
        "name:fur": "Kayseri",
        "name:gag": "Kayseri",
        "name:gl": "Kayseri",
        "name:ha": "Kayseri",
        "name:he": "×§×™×™×¡×¨×™",
        "name:hi": "à¤•à¤¾à¤¯à¤¸à¥‡à¤°à¥€",
        "name:hr": "Kayseri",
        "name:hu": "Kayseri",
        "name:hy": "Ô¿ÔµÕÔ±ÕÔ»Ô±",
        "name:id": "Kayseri",
        "name:ie": "Kayseri",
        "name:it": "Kayseri",
        "name:ja": "ã‚«ã‚¤ã‚»ãƒª",
        "name:ka": "áƒ™áƒáƒ˜áƒ¡áƒ”áƒ áƒ˜",
        "name:kk": "ÒšĞ°Ğ¹ÑĞµÑ€Ñ–",
        "name:ko": "ì¹´ì´ì„¸ë¦¬",
        "name:ku": "QeyserÃ®",
        "name:ky": "ĞšĞ°Ğ¹ÑĞµÑ€Ğ¸",
        "name:la": "Caesarea",
        "name:lmo": "Cesarea de Capadocia",
        "name:lt": "Kaiseris",
        "name:lv": "Kajseri",
        "name:mhr": "ĞšĞ°Ğ¹ÑĞµÑ€Ğ¸",
        "name:min": "Kayseri",
        "name:mk": "ĞšĞ°Ñ˜ÑĞµÑ€Ğ¸",
        "name:ml": "à´•àµˆà´¸àµ†à´±à´¿",
        "name:mrj": "ĞšĞ°Ğ¹ÑĞµÑ€Ğ¸",
        "name:ms": "Kayseri",
        "name:na": "Kayseri",
        "name:nl": "Kayseri",
        "name:no": "Kayseri",
        "name:os": "Ğ¥ÑŠĞ°Ğ¹ÑĞµÑ€Ğ¸",
        "name:ota": "Ù‚ÛŒØµØ±ÛŒÙ‡",
        "name:pl": "Kayseri",
        "name:pms": "Kayseri",
        "name:pnb": "Ú©ÛŒØ³Ø±ÛŒ Ø´ÛØ±",
        "name:pt": "Kayseri",
        "name:ro": "Kayseri",
        "name:ru": "ĞšĞ°Ğ¹ÑĞµÑ€Ğ¸",
        "name:rw": "Kayseri",
        "name:sc": "Cesarea",
        "name:sco": "Kayseri",
        "name:sh": "Kayseri",
        "name:sk": "Kayseri",
        "name:sl": "Kayseri",
        "name:so": "Kayseri",
        "name:sq": "Kajseriu",
        "name:sr": "ĞšĞ°Ñ˜ÑĞµÑ€Ğ¸",
        "name:sv": "Kayseri",
        "name:sw": "Kayseri",
        "name:ta": "à®•à¯†à®¯à¯à®šà¯‡à®°à®¿",
        "name:tg": "ĞšĞ°Ğ¹ÑĞ°Ñ€Ğ¸",
        "name:th": "à¸„à¸±à¸¢à¹€à¸‹à¸£à¸µ",
        "name:tr": "Kayseri",
        "name:tr:suffix": "BÃ¼yÃ¼kÅŸehir Belediyesi",
        "name:tt": "ĞšĞ°Ğ¹ÑÓ™Ñ€Ğ¸",
        "name:tw": "Kayseri",
        "name:tyv": "ĞšaĞ¹ÑĞµÑ€Ğ¸",
        "name:udm": "ĞšĞ°Ğ¹ÑĞµÑ€Ğ¸",
        "name:uk": "ĞšĞ°Ğ¹ÑĞµÑ€Ñ–",
        "name:ur": "Ù‚ÛŒØµØ±ÛŒ",
        "name:uz": "Qayseri",
        "name:vep": "Kaiseri",
        "name:vi": "Kaiseri",
        "name:war": "Kaiseri",
        "name:wuu": "å¼€å¡åˆ©",
        "name:xmf": "áƒ™áƒáƒ˜áƒ¡áƒ”áƒ áƒ˜",
        "name:zh": "é–‹å¡åˆ©",
        "place": "city",
        "population": "1389680",
        "population:date": "2018",
        "salb:id": "TUR048",
        "salb:name": "Kayseri",
        "source": "Wikipedia (tr)",
        "source:population": "http://citypopulation.de/Turkey-C20.html",
        "wikidata": "Q48338",
        "wikimedia_commons": "Category:Kayseri",
        "wikipedia": "tr:Kayseri"
      },
      "geometry": {
        "type": "Point",
        "coordinates": [
          35.4873214,
          38.7219011
        ]
      },
      "id": "node/26482287"
    },
    {
      "type": "Feature",
      "properties": {
        "@id": "node/26482294",
        "name": "KÄ±rÄ±kkale",
        "name:ar": "ÙƒÙŠØ±ÙƒØ§Ù„ÙŠ",
        "name:ce": "ĞšĞ¸Ñ€Ğ¸ĞºĞºĞ°Ğ»Ğµ",
        "name:el": "ÎšÎ¹ÏÎ¯ÎºÎ±Î»Îµ",
        "name:en": "KÄ±rÄ±kkale",
        "name:fa": "Ù‚ÛŒØ±ÛŒÙ‚â€ŒÙ‚Ù„Ø¹Ù‡",
        "name:hi": "à¤•à¤¿à¤°à¤¿à¤•à¥à¤•à¤²à¥€",
        "name:hu": "KÄ±rÄ±kkale",
        "name:hy": "Õ”Õ¨Ö€Õ¨Ö„Ö„Õ¡Õ¬Õ¥Õ« Õ´Õ¡Ö€Õ¦",
        "name:ja": "ã‚¯ãƒ«ãƒƒã‚«ãƒ¬",
        "name:ka": "áƒ¥áƒ˜áƒ áƒ˜áƒ¥áƒ™áƒáƒšáƒ”",
        "name:ko": "í¬ë¥´ì¹¼ë ˆ",
        "name:ku": "Kirikkale",
        "name:ml": "à´•à´¿à´±à´¿à´•àµà´•à´²à´¿",
        "name:ru": "ĞšÑ‹Ñ€Ñ‹ĞºĞºĞ°Ğ»Ğµ",
        "name:sr": "ĞšĞ¸Ñ€Ğ¸ĞºĞ°Ğ»Ğµ",
        "name:tg": "ÒšĞ¸Ñ€Ğ¸Ò›Ò›Ğ°Ğ»ÑŠĞ°",
        "name:tr": "KÄ±rÄ±kkale",
        "name:tr:suffix": "Belediyesi",
        "name:uk": "ĞšĞ¸Ñ€Ğ¸ĞºĞºĞ°Ğ»Ğµ",
        "name:ur": "Ù‚ÛŒØ±ÛŒÙ‚ Ù‚Ù„Ø¹Û",
        "name:uz": "QirqqalÊ¼a",
        "name:zh": "å…‹å‹’å…‹å¡èŠ",
        "name:zza": "QÄ±rÄ±xqele",
        "place": "city",
        "population": "351684",
        "salb:id": "TUR050",
        "salb:name": "Kirikkale",
        "source": "Wikipedia (tr)",
        "wikidata": "Q206891",
        "wikimedia_commons": "Category:KÄ±rÄ±kkale",
        "wikipedia": "tr:KÄ±rÄ±kkale"
      },
      "geometry": {
        "type": "Point",
        "coordinates": [
          33.5058536,
          39.8410483
        ]
      },
      "id": "node/26482294"
    },
    {
      "type": "Feature",
      "properties": {
        "@id": "node/26482519",
        "alt_name:ml": "à´œà´¸àµà´±àµà´±à´¿à´¨à´¿à´¯à´¾à´¨àµ‹à´ªàµ‹à´³à´¿à´¸àµ",
        "name": "KÄ±rÅŸehir",
        "name:ar": "Ù‚Ø±Ø´Ù‡Ø±",
        "name:bg": "ĞšÑŠÑ€ÑˆĞµÑ…Ğ¸Ñ€",
        "name:ce": "ĞšĞ¸Ñ€ÑˆĞµÑ…Ó€Ğ¸Ñ€",
        "name:de": "KÄ±rÅŸehir",
        "name:el": "ÎšÎ¯ÏÏƒÎµÏ‡Î¹Ï",
        "name:en": "KÄ±rÅŸehir",
        "name:es": "KÄ±rÅŸehir",
        "name:fa": "Ù‚Ø± Ø´Ù‡Ø±",
        "name:fr": "KÄ±rÅŸehir",
        "name:hi": "à¤•à¤¿à¤°à¤¶à¤¹à¤°",
        "name:hy": "Õ”Õ¨Ö€Õ·Õ¥Õ°Õ«Ö€",
        "name:it": "KÄ±rÅŸehir",
        "name:ja": "ã‚¯ãƒ«ã‚·ã‚§ãƒ’ãƒ«",
        "name:ka": "áƒ¥áƒ˜áƒ áƒ¨áƒ”áƒ°áƒ˜áƒ áƒ˜",
        "name:ko": "í‚¤ë¥´ì…°íˆë¥´",
        "name:ku": "QÃ®rÅŸehir",
        "name:la": "Macissus",
        "name:mk": "ĞšÑ€ÑˆĞµÑ…Ğ¸Ñ€",
        "name:ml": "à´•à´¿àµ¼à´·àµ†à´¹à´¿àµ¼",
        "name:mr": "à¤•à¤¿à¤°à¥à¤¶à¥‡à¤¹à¤¿à¤° à¤ªà¥à¤°à¤¾à¤‚à¤¤",
        "name:no": "KÄ±rÅŸehir",
        "name:pa": "à¨•à¨¿à¨°à¨¸à©‡à¨¹à¨°",
        "name:pl": "KÄ±rÅŸehir",
        "name:pt": "KÄ±rÅŸehir",
        "name:ru": "ĞšÑ‹Ñ€ÑˆĞµÑ…Ğ¸Ñ€",
        "name:sr": "ĞšĞ¸Ñ€ÑˆĞµÑ…Ğ¸Ñ€",
        "name:tg": "ÒšĞ¸Ñ€ÑˆĞ°Ò³Ñ€",
        "name:th": "à¸ˆà¸±à¸‡à¸«à¸§à¸±à¸”à¸„à¸·à¸­à¸£à¹Œà¹€à¸Šà¸®à¸µà¸£à¹Œ",
        "name:tr": "KÄ±rÅŸehir",
        "name:tr:suffix": "Belediyesi",
        "name:uk": "ĞšĞ¸Ñ€ÑˆĞµÑ…Ñ–Ñ€",
        "name:ur": "Ù‚Ø± Ø´ÛØ±",
        "name:zh": "å…‹çˆ¾è¬å¸Œçˆ¾",
        "name:zza": "QÄ±rÅŸeher",
        "old_name:el": "ÎœÏ‰ÎºÎ·ÏƒÏƒÏŒÏ‚",
        "old_name:en": "Mocissus",
        "place": "city",
        "population": "229975",
        "salb:adm1name": "Kirsehir",
        "salb:adm2name": "Kirsehir Merkez Ilcesi",
        "salb:id": "TUR052007",
        "wikidata": "Q208005",
        "wikimedia_commons": "Category:KÄ±rÅŸehir",
        "wikipedia": "tr:KÄ±rÅŸehir"
      },
      "geometry": {
        "type": "Point",
        "coordinates": [
          34.1605587,
          39.1461142
        ]
      },
      "id": "node/26482519"
    },
    {
      "type": "Feature",
      "properties": {
        "@id": "node/26482523",
        "alt_name": "ÎÎµÎ¬Ï€Î¿Î»Î·",
        "alt_name:ml": "à´¨àµ—à´·à´¹àµ¼",
        "name": "NevÅŸehir",
        "name:ar": "Ù†ÙˆØ´Ù‡Ø±",
        "name:az": "NevÅŸÉ™hÉ™r",
        "name:bg": "ĞĞµĞ²ÑˆĞµÑ…Ğ¸Ñ€",
        "name:de": "NevÅŸehir",
        "name:el": "ÎÎµÎ²ÏƒÎµÏ‡Î¯Ï",
        "name:en": "NevÅŸehir",
        "name:es": "NevÅŸehir",
        "name:fa": "Ù†ÙˆØ´Ù‡Ø±",
        "name:hi": "à¤¨à¤µà¤¶à¤¹à¤°",
        "name:hu": "NevÅŸehir",
        "name:hy": "Õ†Ö‡Õ·Õ¥Õ°Õ«Ö€",
        "name:ja": "ãƒãƒ´ã‚·ã‚§ãƒ’ãƒ«",
        "name:ka": "áƒœáƒ”áƒ•áƒ¨áƒ”áƒ°áƒ˜áƒ áƒ˜",
        "name:ko": "ë„¤ë¸Œì…°íˆë¥´",
        "name:ml": "à´¨àµ†à´µàµà´·àµ†à´¹à´¿àµ¼",
        "name:nl": "NevÅŸehir",
        "name:no": "NevÅŸehir",
        "name:pl": "NevÅŸehir",
        "name:pt": "NevÅŸehir",
        "name:ru": "ĞĞµĞ²ÑˆĞµÑ…Ğ¸Ñ€",
        "name:sr": "ĞĞµĞ²ÑˆĞµÑ…Ğ¸Ñ€",
        "name:sv": "NevÅŸehir",
        "name:tr": "NevÅŸehir",
        "name:tr:suffix": "Belediyesi",
        "name:uk": "ĞĞµĞ²ÑˆĞµÑ…Ñ–Ñ€",
        "name:ur": "Ù†Ùˆ Ø´ÛØ±",
        "name:zh": "å…§å¤«è¬å¸Œçˆ¾",
        "old_name": "Newschehr;MuÅŸkara",
        "place": "city",
        "population": "290895",
        "salb:id": "TUR061",
        "salb:name": "Nevsehir",
        "source": "Wikipedia (tr)",
        "wikidata": "Q206879",
        "wikimedia_commons": "Category:NevÅŸehir",
        "wikipedia": "tr:NevÅŸehir"
      },
      "geometry": {
        "type": "Point",
        "coordinates": [
          34.7150685,
          38.6250389
        ]
      },
      "id": "node/26482523"
    },
    {
      "type": "Feature",
      "properties": {
        "@id": "node/26482716",
        "name": "NiÄŸde",
        "name:ar": "Ù†ÙŠØ¯Ø§",
        "name:de": "NiÄŸde",
        "name:el": "ÎÎ¯Î³Î´Î·",
        "name:en": "NiÄŸde",
        "name:es": "NiÄŸde",
        "name:hu": "NiÄŸde",
        "name:hy": "Õ†Õ«Õ£Õ¤Õ¥",
        "name:it": "NiÄŸde",
        "name:ko": "ë‹ˆë°",
        "name:ml": "à´¨àµ€à´—àµà´¦àµ†",
        "name:nl": "NiÄŸde",
        "name:no": "NiÄŸde",
        "name:pl": "NiÄŸde",
        "name:pt": "NiÄŸde",
        "name:ru": "ĞĞ¸Ğ³Ğ´Ğµ",
        "name:sr": "ĞĞ¸Ğ³Ğ´Ğµ",
        "name:tr": "NiÄŸde",
        "name:tr:suffix": "Belediyesi",
        "name:uk": "ĞÑ–Ğ¹Ğ´Ğµ",
        "old_name": "Naqda;ÎÎ¯Î³Î´Î·Ï‚;Nagida;Naxita",
        "place": "city",
        "population": "351468",
        "salb:id": "TUR062",
        "salb:name": "Nigde",
        "source": "Wikipedia (tr)",
        "wikidata": "Q194146",
        "wikimedia_commons": "Category:NiÄŸde",
        "wikipedia": "tr:NiÄŸde"
      },
      "geometry": {
        "type": "Point",
        "coordinates": [
          34.6764495,
          37.969849
        ]
      },
      "id": "node/26482716"
    },
    {
      "type": "Feature",
      "properties": {
        "@id": "node/26482940",
        "ele": "1285",
        "name": "Sivas",
        "name:ar": "Ø³ÙŠÙˆØ§Ø³",
        "name:ckb": "Ø³ÛÙˆØ§Ø³",
        "name:el": "Î£ÎµÎ²Î¬ÏƒÏ„ÎµÎ¹Î±",
        "name:hi": "à¤¸à¤¿à¤µà¤¾à¤¸",
        "name:hu": "Sivas",
        "name:hy": "ÕÕ¥Õ¢Õ¡Õ½Õ¿Õ«Õ¡",
        "name:ja": "ã‚¹ã‚£ãƒ´ã‚¡ã‚¹",
        "name:ku": "SÃªwas",
        "name:ml": "à´¸à´¿à´µà´¾à´¸àµ",
        "name:ru": "Ğ¡Ğ¸Ğ²Ğ°Ñ",
        "name:sr": "Ğ¡Ğ¸Ğ²Ğ°Ñ",
        "name:tr:suffix": "Belediyesi",
        "name:uk": "Ğ¡Ñ–Ğ²Ğ°Ñ",
        "place": "city",
        "population": "621224",
        "salb:id": "TUR072",
        "salb:name": "Sivas",
        "source": "Wikipedia (tr)",
        "website": "http://www.sivas.gov.tr/",
        "wikidata": "Q107401",
        "wikimedia_commons": "Category:Sivas",
        "wikipedia": "en:Sivas"
      },
      "geometry": {
        "type": "Point",
        "coordinates": [
          37.0145173,
          39.7503574
        ]
      },
      "id": "node/26482940"
    },
    {
      "type": "Feature",
      "properties": {
        "@id": "node/26482958",
        "name": "Yozgat",
        "name:ar": "ÙŠÙˆØ²ØºØ§Øª",
        "name:az": "Yozqat",
        "name:bg": "Ğ™Ğ¾Ğ·Ğ³Ğ°Ñ‚",
        "name:ce": "Ğ™Ğ¾Ğ·Ğ³Ğ°Ñ‚",
        "name:de": "Yozgat",
        "name:el": "Î“Î¹Î¿Î¶Î³ÎºÎ¬Ï„",
        "name:en": "Yozgat",
        "name:es": "Yozgat",
        "name:fr": "Yozgat",
        "name:hi": "à¤¯à¥‹à¤œà¤—à¤¤",
        "name:hu": "Yozgat",
        "name:hy": "Õ…Õ¸Õ¦Õ£Õ¡Õ©Õ« Õ´Õ¡Ö€Õ¦",
        "name:it": "Yozgat",
        "name:ka": "áƒ˜áƒáƒ–áƒ’áƒáƒ—áƒ˜",
        "name:ko": "ìš”ì¦ˆê°€íŠ¸",
        "name:lt": "Jozgatas",
        "name:ml": "à´¯àµ‹à´¸àµà´—à´¾à´¤àµà´¤àµ",
        "name:nl": "Yozgat",
        "name:no": "Yozgat",
        "name:pl": "Yozgat",
        "name:pt": "Yozgat",
        "name:ru": "Ğ™Ğ¾Ğ·Ğ³Ğ°Ñ‚",
        "name:sr": "ĞˆĞ¾Ğ·Ğ³Ğ°Ñ‚",
        "name:sv": "Yozgat",
        "name:tg": "Ğ™Ğ¾Ğ·Ğ³Ğ°Ñ‚",
        "name:tr": "Yozgat",
        "name:tr:suffix": "Belediyesi",
        "name:tt": "Ğ™Ğ¾Ğ·Ğ³Ğ°Ñ‚",
        "name:uk": "Ğ™Ğ¾Ğ·Ò‘Ğ°Ñ‚",
        "name:ur": "ÛŒÙˆØ²Ú¯Øª",
        "name:zh": "ç´„èŒ²åŠ ç‰¹",
        "old_name": "Bozok",
        "place": "city",
        "population": "79611",
        "salb:id": "TUR080",
        "salb:name": "Yozgat",
        "source": "Wikipedia (tr)",
        "source:population": "Turkish Wikipedia",
        "wikidata": "Q75445",
        "wikimedia_commons": "Category:Yozgat Province",
        "wikipedia": "tr:Yozgat (il)"
      },
      "geometry": {
        "type": "Point",
        "coordinates": [
          34.8080972,
          39.8221974
        ]
      },
      "id": "node/26482958"
    },
    {
      "type": "Feature",
      "properties": {
        "@id": "node/26482974",
        "admin_level": "4",
        "name": "Amasya",
        "name:ar": "Ø£Ù…Ø§ØµÙŠØ§",
        "name:bg": "ĞĞ¼Ğ°ÑĞ¸Ñ",
        "name:ce": "ĞĞ¼Ğ°ÑĞ¸",
        "name:de": "Amasya",
        "name:el": "Î‘Î¼Î¬ÏƒÎµÎ¹Î±",
        "name:en": "Amasya",
        "name:fa": "Ø¢Ù…Ø§Ø³ÛŒÙ‡",
        "name:fr": "Amasya",
        "name:grc": "Î†Î¼Î¬ÏƒÎµÎ¹Î±",
        "name:he": "×××¡×™×”",
        "name:hu": "Amasya",
        "name:hy": "Ô±Õ´Õ¡Õ½Õ«Õ¡",
        "name:it": "Amasya",
        "name:ja": "ã‚¢ãƒã‚¹ã‚£ãƒ¤",
        "name:ka": "áƒáƒ›áƒáƒ¡áƒ˜áƒ",
        "name:ko": "ì•„ë§ˆì‹œì•„",
        "name:la": "Amasea",
        "name:lt": "Amasija",
        "name:lv": "Amasja",
        "name:mk": "ĞĞ¼Ğ°ÑĞ¸Ñ˜Ğ°",
        "name:ml": "à´…à´®à´¾à´¸àµà´¯",
        "name:no": "Amasya",
        "name:os": "ĞĞ¼Ğ°ÑÑŒÑ",
        "name:pa": "à¨…à¨®à¨¾à¨¸à¨¿à¨†",
        "name:pl": "Amasya",
        "name:pnt": "Î‘Î¼Î¬ÏƒÎµÎ¹Î±",
        "name:pt": "Amasia",
        "name:ru": "ĞĞ¼Ğ°ÑÑŒÑ",
        "name:so": "Amaasiya",
        "name:sq": "Amasia",
        "name:sr": "ĞĞ¼Ğ°ÑĞ¸Ñ˜Ğ°",
        "name:sv": "Amasya",
        "name:tg": "ĞĞ¼Ğ¾ÑĞ¸Ñ",
        "name:tr": "Amasya",
        "name:tr:suffix": "Belediyesi",
        "name:tt": "ĞĞ¼Ğ°ÑÑŒÑ",
        "name:uk": "ĞĞ¼Ğ°ÑÑŒÑ",
        "name:ur": "Ø§Ù…Ø§Ø³ÛŒØ§",
        "name:zh": "é˜¿é¦¬è¥¿äº",
        "place": "city",
        "population": "114921",
        "population:date": "31-12-2021",
        "salb:id": "TUR006",
        "salb:name": "Amasya",
        "source": "Wikipedia (tr)",
        "wikidata": "Q80036",
        "wikimedia_commons": "Category:Amasya Province",
        "wikipedia": "tr:Amasya (il)"
      },
      "geometry": {
        "type": "Point",
        "coordinates": [
          35.8329148,
          40.6503248
        ]
      },
      "id": "node/26482974"
    },
    {
      "type": "Feature",
      "properties": {
        "@id": "node/26482975",
        "admin_level": "4",
        "name": "Artvin",
        "name:ab": "ĞÑ€Ò­Ğ²Ğ¸Ğ½",
        "name:ar": "Ø£Ø±ØªÙˆÙŠÙ†",
        "name:av": "ĞÑ€Ñ‚Ğ²Ğ¸Ğ½",
        "name:bg": "ĞÑ€Ñ‚Ğ²Ğ¸Ğ½",
        "name:ce": "ĞÑ€Ñ‚Ğ²Ğ¸Ğ½",
        "name:de": "Artvin",
        "name:el": "Î‘ÏÏ„Î²Î¯Î½",
        "name:en": "Artvin",
        "name:es": "Artvin",
        "name:fa": "Ø¢Ø±ØªÙˆÛŒÙ†",
        "name:fr": "Artvin",
        "name:hu": "Artvin",
        "name:hy": "Ô±Ö€Õ¤Õ¾Õ«Õ¶",
        "name:ja": "ã‚¢ãƒ«ãƒˆãƒ´ã‚£ãƒ³",
        "name:ka": "áƒáƒ áƒ—áƒ•áƒ˜áƒœáƒ˜",
        "name:ko": "ì•„ë¥´íŠ¸ë¹ˆ",
        "name:ku": "Artvin",
        "name:lzz": "áƒáƒ áƒ—áƒ•áƒ˜áƒœáƒ˜",
        "name:ml": "à´†àµ¼à´¤àµà´µàµ€àµ»",
        "name:os": "ĞÑ€Ñ‚Ğ²Ğ¸Ğ½",
        "name:ota": "Ø¢Ø±ØªÙˆÙ†ÛŒ",
        "name:ru": "ĞÑ€Ñ‚Ğ²Ğ¸Ğ½",
        "name:sr": "ĞÑ€Ñ‚Ğ²Ğ¸Ğ½",
        "name:tg": "ĞÑ€Ñ‚Ğ²Ğ¸Ğ½",
        "name:tr:suffix": "Belediyesi",
        "name:tt": "ĞÑ€Ñ‚Ğ²Ğ¸Ğ½",
        "name:uk": "ĞÑ€Ñ‚Ğ²Ñ–Ğ½",
        "name:ur": "Ø¢Ø±ØªÙˆÛŒÙ†",
        "name:zh": "é˜¿çˆ¾ç‰¹æº«",
        "place": "city",
        "population": "25841",
        "population:date": "31-12-2021",
        "salb:id": "TUR010",
        "salb:name": "Artvin",
        "source": "Wikipedia (tr)",
        "wikidata": "Q193445",
        "wikimedia_commons": "Category:Artvin",
        "wikipedia": "tr:Artvin"
      },
      "geometry": {
        "type": "Point",
        "coordinates": [
          41.8287448,
          41.1830811
        ]
      },
      "id": "node/26482975"
    },
    {
      "type": "Feature",
      "properties": {
        "@id": "node/26483113",
        "name": "BartÄ±n",
        "name:ar": "Ø¨Ø§Ø±ØªÙŠÙ†",
        "name:arz": "Ø¨Ø§Ø±ØªÙŠÙ†",
        "name:az": "BartÄ±n",
        "name:ce": "Ğ‘Ğ°Ñ€Ñ‚Ğ¸Ğ½",
        "name:ceb": "BartÄ±n",
        "name:crh": "BartÄ±n",
        "name:de": "BartÄ±n",
        "name:el": "Î Î±ÏÎ¸Î­Î½Î¹Î¿Î½;Î Î±ÏÎ¸ÎµÎ½Î¯Î¿Ï…",
        "name:en": "BartÄ±n",
        "name:es": "BartÄ±n",
        "name:fa": "Ø¨Ø§Ø±ØªÛŒÙ†",
        "name:fr": "BartÄ±n",
        "name:frr": "BartÄ±n",
        "name:gag": "BartÄ±n",
        "name:hu": "BartÄ±n",
        "name:hy": "Ô²Õ¡Ö€Õ©Õ¨Õ¶",
        "name:it": "BartÄ±n",
        "name:ja": "ãƒãƒ«ãƒˆã‚¥ãƒ³",
        "name:ka": "áƒ‘áƒáƒ áƒ—áƒ˜áƒœáƒ˜",
        "name:ko": "ë°”ë¥´í‹´",
        "name:min": "BartÄ±n",
        "name:ml": "à´¬à´¾àµ¼à´Ÿàµà´Ÿà´¿àµ»",
        "name:mrj": "Ğ‘Ğ°Ñ€Ñ‚Ñ‹Ğ½",
        "name:ms": "BartÄ±n",
        "name:na": "BartÄ±n",
        "name:no": "BartÄ±n",
        "name:os": "Ğ‘Ğ°Ñ€Ñ‚Ñ‹Ğ½",
        "name:pl": "BartÄ±n",
        "name:pt": "BartÄ±n",
        "name:ro": "BartÄ±n",
        "name:ru": "Ğ‘Ğ°Ñ€Ñ‚Ñ‹Ğ½",
        "name:rw": "BartÄ±n",
        "name:sco": "BartÄ±n",
        "name:sh": "BartÄ±n",
        "name:sr": "Ğ‘Ğ°Ñ€Ñ‚Ğ¸Ğ½",
        "name:sw": "BartÄ±n Merkez",
        "name:tg": "Ğ‘Ğ°Ñ€Ñ‚Ğ¸Ğ½",
        "name:tr": "BartÄ±n",
        "name:tr:suffix": "Belediyesi",
        "name:tt": "Ğ‘Ğ°Ñ€Ñ‚Ñ‹Ğ½",
        "name:udm": "Ğ‘Ğ°Ñ€Ñ‚Ñ‹Ğ½",
        "name:uk": "Ğ‘Ğ°Ñ€Ñ‚Ğ¸Ğ½",
        "name:ur": "Ø¨Ø§Ø±ØªÛŒÙ†",
        "name:vi": "BartÄ±n",
        "name:vo": "BartÄ±n",
        "name:war": "BartÄ±n",
        "name:zh": "å·´çˆ¾æ»•",
        "place": "city",
        "population": "207634",
        "population:date": "2025",
        "salb:id": "TUR013",
        "salb:name": "Bartin",
        "source": "Wikipedia (tr)",
        "source:population": "https://www.nufusu.com/il/bartin-nufusu",
        "wikidata": "Q211805",
        "wikimedia_commons": "Category:BartÄ±n",
        "wikipedia": "tr:BartÄ±n"
      },
      "geometry": {
        "type": "Point",
        "coordinates": [
          32.3366205,
          41.6350461
        ]
      },
      "id": "node/26483113"
    },
    {
      "type": "Feature",
      "properties": {
        "@id": "node/26483234",
        "alt_name": "Papert;Baberc;Baybert",
        "alt_name:hy": "Ô²Õ¡ÕµÕ¢Õ¥Ö€Õ¤;Ô²Õ¡Õ¢Õ¥Ö€Õ±",
        "alt_name:ml": "à´¬à´¾à´¯àµà´¬àµ‚àµ¼à´¦àµ",
        "name": "Bayburt",
        "name:ar": "Ø¨Ø§ÙŠØ¨ÙˆØ±Øª",
        "name:ast": "Bayburt",
        "name:az": "Bayburt",
        "name:azb": "Ø¨Ø§ÛŒØ¨ÙˆØ±Øª",
        "name:ca": "Bayburt",
        "name:ce": "Ğ‘Ğ°Ğ¹Ğ±ÑƒÑ€Ñ‚",
        "name:ceb": "Bayburt",
        "name:crh": "Bayburt",
        "name:cs": "Bayburt",
        "name:de": "Bayburt",
        "name:diq": "Bayburt",
        "name:el": "ÎœÏ€Î±ÏŠÎ¼Ï€Î¿ÏÏÏ„",
        "name:en": "Bayburt",
        "name:eo": "Bayburt",
        "name:es": "Bayburt",
        "name:fa": "Ø¨Ø§ÛŒØ¨ÙˆØ±Ø¯",
        "name:fr": "Bayburt",
        "name:gag": "Bayburt",
        "name:hi": "à¤¬à¥‡à¤¬à¤°à¥à¤Ÿ",
        "name:hu": "Bayburt",
        "name:hy": "Ô²Õ¡Õ¢Õ¥Ö€Õ¤",
        "name:it": "Bayburt",
        "name:ja": "ãƒã‚¤ãƒ–ãƒ«ãƒˆ",
        "name:ka": "áƒ‘áƒáƒ˜áƒ‘áƒ£áƒ áƒ—áƒ˜",
        "name:ko": "ë°”ì´ë¶€ë¥´íŠ¸",
        "name:ku": "BaybÃ»rd",
        "name:min": "Bayburt",
        "name:ml": "à´¬à´¾à´¯àµà´¬àµ‚àµ¼à´¤àµà´¤àµ",
        "name:mrj": "Ğ‘Ğ°Ğ¹Ğ±ÑƒÑ€Ñ‚",
        "name:ms": "Bayburt",
        "name:na": "Bayburt",
        "name:nl": "Bayburt",
        "name:no": "Bayburt",
        "name:pa": "à¨¬à©‡à¨¬à©à¨°à¨¤",
        "name:pl": "Bayburt",
        "name:pnb": "Ø¨ÛŒØ¨ÙˆØ±Øª",
        "name:pnt": "Î Î±ÏŠÏ€Î¿ÏÏÏ„",
        "name:pt": "Bayburt",
        "name:ro": "Bayburt",
        "name:ru": "Ğ‘Ğ°Ğ¹Ğ±ÑƒÑ€Ñ‚",
        "name:rw": "Bayburt",
        "name:sco": "Bayburt",
        "name:sh": "Bayburt",
        "name:sr": "Ğ‘Ğ°Ñ˜Ğ±ÑƒÑ€Ñ‚",
        "name:sv": "Bayburt",
        "name:sw": "Bayburt",
        "name:tg": "Ğ‘Ğ°Ğ¹Ğ±ÑƒÑ€Ñ‚",
        "name:tr": "Bayburt",
        "name:tr:suffix": "Belediyesi",
        "name:tt": "Ğ‘Ğ°Ğ¹Ğ±ÑƒÑ€Ñ‚",
        "name:udm": "Ğ‘Ğ°Ğ¹Ğ±ÑƒÑ€Ñ‚",
        "name:uk": "Ğ‘Ğ°Ğ¹Ğ±ÑƒÑ€Ñ‚",
        "name:ur": "Ø¨Ø§ÛŒØ¨ÙˆØ±Øª",
        "name:vep": "Baiburt",
        "name:vi": "Bayburt",
        "name:vo": "Bayburt",
        "name:war": "Bayburt",
        "name:zh": "å·´ä¼Šå¸ƒçˆ¾ç‰¹",
        "name:zza": "Bayburt",
        "place": "city",
        "population": "90154",
        "wikidata": "Q211828",
        "wikimedia_commons": "Category:Bayburt",
        "wikipedia": "tr:Bayburt"
      },
      "geometry": {
        "type": "Point",
        "coordinates": [
          40.2205036,
          40.2551608
        ]
      },
      "id": "node/26483234"
    },
    {
      "type": "Feature",
      "properties": {
        "@id": "node/26483306",
        "name": "Ã‡orum",
        "name:ar": "Ø¬ÙˆØ±ÙˆÙ…",
        "name:el": "Î¤ÏƒÎ¿ÏÎ¿ÏÎ¼",
        "name:en": "Ã‡orum",
        "name:grc": "Î•á½Ï‡Î¬Î½ÎµÎ¹Î±",
        "name:hi": "à¤›à¥‹à¤°à¥à¤®",
        "name:hu": "Corum",
        "name:hy": "Õ‰Õ¸Ö€Õ¸Ö‚Õ´",
        "name:ja": "ãƒãƒ§ãƒ«ãƒ ",
        "name:ka": "áƒ©áƒáƒ áƒ£áƒ›áƒ˜",
        "name:ml": "à´›àµ‹à´±àµà´‚",
        "name:ru": "Ğ§Ğ¾Ñ€ÑƒĞ¼",
        "name:sr": "Ğ§Ğ¾Ñ€ÑƒĞ¼",
        "name:tr": "Ã‡orum",
        "name:tr:suffix": "Belediyesi",
        "name:uk": "Ğ§Ğ¾Ñ€ÑƒĞ¼",
        "place": "city",
        "population": "527863",
        "salb:id": "TUR024",
        "salb:name": "Corum",
        "wikidata": "Q206900",
        "wikimedia_commons": "Category:Ã‡orum",
        "wikipedia": "tr:Ã‡orum"
      },
      "geometry": {
        "type": "Point",
        "coordinates": [
          34.9537362,
          40.5498762
        ]
      },
      "id": "node/26483306"
    },
    {
      "type": "Feature",
      "properties": {
        "@id": "node/26483307",
        "name": "Giresun",
        "name:ar": "ØºÙŠØ±Ø³ÙˆÙ†",
        "name:arz": "Ø¬ÙŠØ±Ø³ÙˆÙ†",
        "name:ast": "Giresun",
        "name:az": "Giresun",
        "name:azb": "Ú¯ÛŒØ±Ù‡â€ŒØ³ÙˆÙ†",
        "name:bg": "Ğ“Ğ¸Ñ€ĞµÑÑƒĞ½",
        "name:ca": "Giresun",
        "name:ce": "Ğ“Ğ¸Ñ€ĞµÑÑƒĞ½",
        "name:ceb": "Giresun",
        "name:cs": "Giresun",
        "name:de": "Giresun",
        "name:diq": "Giresun",
        "name:el": "ÎšÎµÏÎ±ÏƒÎ¿ÏÎ½Ï„Î±",
        "name:en": "Giresun",
        "name:eo": "Giresun",
        "name:es": "Giresun",
        "name:fa": "Ú¯Ø±Ù‡â€ŒØ³ÙˆÙ†",
        "name:fi": "Giresun",
        "name:fr": "Giresun",
        "name:gag": "Giresun",
        "name:hi": "à¤˜à¤¿à¤°à¤¸à¥à¤¨",
        "name:hu": "Giresun",
        "name:hy": "Ô³Õ«Ö€Õ¥Õ½Õ¸Ö‚Õ¶Õ« Õ´Õ¡Ö€Õ¦",
        "name:hyw": "Ô¿Õ«Ö€Õ¥Õ½Õ¸Ö‚Õ¶",
        "name:it": "Giresun",
        "name:ja": "ã‚®ãƒ¬ã‚¹ãƒ³",
        "name:ka": "áƒ’áƒ˜áƒ áƒ”áƒ¡áƒ£áƒœáƒ˜áƒ¡ áƒáƒ áƒáƒ•áƒ˜áƒœáƒªáƒ˜áƒ",
        "name:ko": "ê¸°ë ˆìˆœ",
        "name:la": "Cerasus",
        "name:lt": "Giresunas",
        "name:min": "Giresun",
        "name:ml": "à´—à´¿à´±àµ†à´¸àµ‚àµº",
        "name:mrj": "Ğ“Ğ¸Ñ€ĞµÑÑƒĞ½",
        "name:ms": "Giresun",
        "name:nan": "Giresun",
        "name:nl": "Giresun",
        "name:nn": "Giresun",
        "name:no": "Giresun",
        "name:os": "Ğ“Ğ¸Ñ€ĞµÑÑƒĞ½",
        "name:pl": "Giresun",
        "name:pnb": "Ú¯Ø±ÛŒØ³Ù†",
        "name:pnt": "ÎšÎµÏÎ±ÏƒÎ¿ÏÎ½Ï„Î±",
        "name:pt": "Giresun",
        "name:ro": "Giresun",
        "name:ru": "Ğ“Ğ¸Ñ€ĞµÑÑƒĞ½",
        "name:rw": "Giresun",
        "name:sh": "Giresun",
        "name:simple": "Giresun",
        "name:sr": "Ğ“Ğ¸Ñ€ĞµÑÑƒĞ½",
        "name:sv": "Giresun",
        "name:sw": "Giresun",
        "name:tg": "Ğ“Ğ¸Ñ€ĞµÑÑƒĞ½",
        "name:tr": "Giresun",
        "name:tr:suffix": "Belediyesi",
        "name:tt": "Ğ“Ğ¸Ñ€ĞµÑÑƒĞ½",
        "name:udm": "Ğ“Ğ¸Ñ€ĞµÑÑƒĞ½",
        "name:uk": "ÒÑ–Ñ€ĞµÑÑƒĞ½",
        "name:ur": "Ú¯Ø±ÛŒØ³ÙˆÙ†",
        "name:vi": "Giresun",
        "name:vo": "Giresun",
        "name:war": "Giresun",
        "name:zh": "å‰é›·æ¾",
        "place": "city",
        "population": "125682",
        "population:date": "2022",
        "salb:id": "TUR034",
        "salb:name": "Giresun",
        "source": "Wikipedia (tr)",
        "source:population": "wikipedia",
        "wikidata": "Q201095",
        "wikimedia_commons": "Category:Giresun",
        "wikipedia": "tr:Giresun"
      },
      "geometry": {
        "type": "Point",
        "coordinates": [
          38.3847864,
          40.9174453
        ]
      },
      "id": "node/26483307"
    },
    {
      "type": "Feature",
      "properties": {
        "@id": "node/26483350",
        "name": "GÃ¼mÃ¼ÅŸhane",
        "name:ar": "ÙƒÙˆÙ…ÙˆØ´ Ø®Ø§Ù†Ø©",
        "name:az": "GÃ¼mÃ¼ÅŸxanÉ™",
        "name:azb": "Ú¯ÙˆÙ…ÙˆØ´Ø®Ø§Ù†Ø§",
        "name:bg": "Ğ“ÑĞ¼ÑÑˆÑ…Ğ°Ğ½Ğµ",
        "name:ca": "GÃ¼mÃ¼ÅŸhane",
        "name:ce": "Ğ“ÑƒÑŒĞ¼ÑƒÑŒÑˆÑ…Ó€Ğ°Ğ½Ğµ",
        "name:ceb": "Gumushkhane",
        "name:cs": "GÃ¼mÃ¼ÅŸhane",
        "name:de": "GÃ¼mÃ¼ÅŸhane",
        "name:diq": "GumuÅŸxane",
        "name:el": "Î‘ÏÎ³Ï…ÏÎ¿ÏÏ€Î¿Î»Î·",
        "name:en": "GÃ¼mÃ¼ÅŸhane",
        "name:eo": "GÃ¼mÃ¼ÅŸhane",
        "name:es": "GÃ¼mÃ¼ÅŸhane",
        "name:fa": "Ú¯ÙˆÙ…ÙˆØ´â€ŒØ®Ø§Ù†Ù‡",
        "name:fr": "GÃ¼mÃ¼ÅŸhane",
        "name:gag": "GÃ¼mÃ¼ÅŸhane",
        "name:hu": "GÃ¼mÃ¼ÅŸhane",
        "name:hy": "Ô³ÕµÕ¸Ö‚Õ´Õ¸Ö‚Õ·Õ­Õ¡Õ¶Õ¥",
        "name:it": "GÃ¼mÃ¼ÅŸhane",
        "name:ja": "ã‚®ãƒ¥ãƒŸãƒ¥ã‚·ãƒ¥ãƒãƒ¼ãƒ",
        "name:ka": "áƒ’áƒ£áƒ›áƒ£áƒ¨áƒ°áƒáƒœáƒ”",
        "name:ko": "ê·€ë®ˆìƒ¤ë„¤",
        "name:ku": "Canca",
        "name:lt": "GiumiuÅ¡chanÄ—",
        "name:min": "GÃ¼mÃ¼ÅŸhane",
        "name:ml": "à´—àµà´®àµà´·à´¾à´¨àµ†",
        "name:mrj": "Ğ“Ó±Ğ¼Ó±ÑˆÑ…Ğ°Ğ½Ğµ",
        "name:ms": "GÃ¼mÃ¼ÅŸhane",
        "name:na": "GÃ¼mÃ¼ÅŸhan",
        "name:nl": "GÃ¼mÃ¼ÅŸhane",
        "name:no": "GÃ¼mÃ¼ÅŸhane",
        "name:pl": "GÃ¼mÃ¼ÅŸhane",
        "name:pnb": "Ú¯ÙˆÙ…ÙˆØ´Ø®Ø§Ù†Û’",
        "name:pt": "GÃ¼mÃ¼ÅŸhane",
        "name:ro": "GÃ¼mÃ¼ÅŸhane",
        "name:ru": "Ğ“ÑĞ¼ÑÑˆÑ…Ğ°Ğ½Ğµ",
        "name:rw": "GÃ¼mÃ¼ÅŸhane",
        "name:sco": "GÃ¼mÃ¼ÅŸhane",
        "name:sh": "GÃ¼mÃ¼ÅŸhane",
        "name:sr": "Ğ“ÑƒĞ¼ÑƒÑˆÑ…Ğ°Ğ½Ğµ",
        "name:sw": "GÃ¼mÃ¼ÅŸhane",
        "name:tg": "Ğ“ÑƒĞ¼ÑƒÑˆÑ…Ğ¾Ğ½Ğ°",
        "name:tr": "GÃ¼mÃ¼ÅŸhane",
        "name:tr:suffix": "Belediyesi",
        "name:tt": "Ğ“Ò¯Ğ¼Ò¯ÑˆÑ…Ğ°Ğ½Ğµ",
        "name:udm": "Ğ“ÑĞ¼ÑÑˆÑ…Ğ°Ğ½Ğµ",
        "name:uk": "ÒÑĞ¼ÑÑˆĞ³Ğ°Ğ½Ğµ",
        "name:ur": "Ú¯ÙˆÙ…ÙˆØ´Ø®Ø§Ù†Û’",
        "name:vi": "GÃ¼mÃ¼ÅŸhane",
        "name:vo": "GÃ¼mÃ¼ÅŸhane",
        "name:war": "GÃ¼mÃ¼ÅŸhane",
        "name:zh": "å±…ç±³ä»€å“ˆå…§",
        "old_name": "ArgyroupÃ³lis",
        "place": "city",
        "population": "172034",
        "source": "Wikipedia (tr)",
        "wikidata": "Q214303",
        "wikimedia_commons": "Category:GÃ¼mÃ¼ÅŸhane",
        "wikipedia": "tr:GÃ¼mÃ¼ÅŸhane"
      },
      "geometry": {
        "type": "Point",
        "coordinates": [
          39.4757339,
          40.4617844
        ]
      },
      "id": "node/26483350"
    },
    {
      "type": "Feature",
      "properties": {
        "@id": "node/26485694",
        "name": "KarabÃ¼k",
        "name:ar": "ÙƒØ§Ø±Ø§Ø¨ÙˆÙƒ",
        "name:az": "KarabÃ¼k",
        "name:be": "ĞšĞ°Ñ€Ğ°Ğ±ÑĞº",
        "name:bg": "ĞšĞ°Ñ€Ğ°Ğ±ÑĞº",
        "name:br": "KarabÃ¼k",
        "name:bs": "KarabÃ¼k",
        "name:ceb": "KarabÃ¼k",
        "name:crh": "KarabÃ¼k",
        "name:cs": "KarabÃ¼k",
        "name:cv": "ĞšĞ°Ñ€Ğ°Ğ±ÑĞº",
        "name:cy": "KarabÃ¼k",
        "name:de": "KarabÃ¼k",
        "name:el": "ÎšÎ±ÏÎ±Î¼Ï€Î¿ÏÎº",
        "name:en": "KarabÃ¼k",
        "name:fr": "KarabÃ¼k",
        "name:frr": "KarabÃ¼k",
        "name:hi": "à¤•à¤¾à¤°à¤¾à¤¬à¥à¤•",
        "name:hu": "KarabÃ¼k",
        "name:ku": "KarabÃ¼k",
        "name:la": "KarabÃ¼k",
        "name:mk": "ĞšĞ°Ñ€Ğ°Ğ±ÑƒĞº",
        "name:ml": "à´•à´±à´¬àµ‚à´•àµà´•àµ",
        "name:mrj": "ĞšĞ°Ñ€Ğ°Ğ±Ó±Ğº",
        "name:nl": "KarabÃ¼k",
        "name:no": "KarabÃ¼k",
        "name:os": "ĞšĞ°Ñ€Ğ°Ğ±ÑĞº",
        "name:pl": "KarabÃ¼k",
        "name:pt": "KarabÃ¼k",
        "name:ru": "ĞšĞ°Ñ€Ğ°Ğ±ÑĞº",
        "name:sh": "KarabÃ¼k",
        "name:sr": "ĞšĞ°Ñ€Ğ°Ğ±Ğ¸Ğº",
        "name:sv": "KarabÃ¼k",
        "name:tk": "KarabÃ¼k",
        "name:tr": "KarabÃ¼k",
        "name:tr:suffix": "Belediyesi",
        "name:uk": "ĞšĞ°Ñ€Ğ°Ğ±ÑĞº",
        "name:uz": "KarabÃ¼k",
        "name:vi": "KarabÃ¼k",
        "name:war": "KarabÃ¼k",
        "place": "city",
        "population": "123309",
        "population:date": "31-12-2021",
        "salb:id": "TUR044",
        "salb:name": "Karabuk",
        "source": "Wikipedia (tr)",
        "wikidata": "Q189697",
        "wikimedia_commons": "Category:KarabÃ¼k",
        "wikipedia": "tr:KarabÃ¼k"
      },
      "geometry": {
        "type": "Point",
        "coordinates": [
          32.6231154,
          41.1955402
        ]
      },
      "id": "node/26485694"
    },
    {
      "type": "Feature",
      "properties": {
        "@id": "node/26485876",
        "name": "Kastamonu",
        "name:ab": "ĞšĞ°ÑÒ­Ğ°Ğ¼Ğ¾Ğ½Ñƒ",
        "name:ar": "Ù‚Ø³Ø·Ù…ÙˆÙ†ÙŠ",
        "name:bg": "ĞšĞ°ÑÑ‚Ğ°Ğ¼Ğ¾Ğ½Ñƒ",
        "name:ce": "ĞšĞ°ÑÑ‚Ğ°Ğ¼Ğ¾Ğ½Ñƒ",
        "name:cv": "ĞšĞ°ÑÑ‚Ğ°Ğ¼Ğ¾Ğ½Ñƒ",
        "name:diq": "Qestamonu",
        "name:el": "ÎšÎ±ÏƒÏ„Î±Î¼Î¿Î½Î®",
        "name:en": "Kastamonu",
        "name:fa": "Ù‚Ø³Ø·Ù…ÙˆÙ†ÛŒ",
        "name:hi": "à¤•à¤¸à¥à¤¤à¤®à¥‹à¤¨à¥",
        "name:hy": "Õ”Õ¡Õ½Õ©Õ¡Õ´Õ¸Õ¶Õ¸Ö‚",
        "name:ja": "ã‚«ã‚¹ã‚¿ãƒ¢ãƒŒ",
        "name:ka": "áƒ™áƒáƒ¡áƒ—áƒáƒ›áƒáƒœáƒ£",
        "name:ko": "ì¹´ìŠ¤íƒ€ëª¨ëˆ„",
        "name:ml": "à´•à´¸àµà´¤à´®àµ‹à´¨àµ",
        "name:os": "ĞšĞ°ÑÑ‚Ğ°Ğ¼Ğ¾Ğ½Ñƒ",
        "name:pt": "Castamonu",
        "name:ru": "ĞšĞ°ÑÑ‚Ğ°Ğ¼Ğ¾Ğ½Ñƒ",
        "name:sr": "ĞšĞ°ÑÑ‚Ğ°Ğ¼Ğ¾Ğ½Ñƒ",
        "name:tg": "ĞšĞ°ÑÑ‚Ğ°Ğ¼Ğ¾Ğ½Ñƒ",
        "name:tr": "Kastamonu",
        "name:tr:suffix": "Belediyesi",
        "name:tt": "ĞšĞ°ÑÑ‚Ğ°Ğ¼Ğ¾Ğ½Ñƒ",
        "name:uk": "ĞšĞ°ÑÑ‚Ğ°Ğ¼Ğ¾Ğ½Ñƒ",
        "name:ur": "Ú©Ø§Ø³ØªØ§Ù…ÙˆÙ†Ùˆ",
        "name:zh": "å¡æ–¯å¡”è«åŠª",
        "name:zza": "Qestamonu",
        "old_name": "Tumana",
        "place": "city",
        "population": "125622",
        "population:date": "31-12-2021",
        "salb:name": "Kastamonu",
        "wikidata": "Q155915",
        "wikimedia_commons": "Category:Kastamonu",
        "wikipedia": "tr:Kastamonu"
      },
      "geometry": {
        "type": "Point",
        "coordinates": [
          33.7770087,
          41.3765359
        ]
      },
      "id": "node/26485876"
    },
    {
      "type": "Feature",
      "properties": {
        "@id": "node/26486071",
        "name": "Ordu",
        "name:ar": "Ø£Ø±Ø¯Ùˆ",
        "name:ast": "Ordu",
        "name:az": "Ordu",
        "name:azb": "Ø§ÙˆØ±Ø¯Ùˆ",
        "name:be": "ĞÑ€Ğ´Ñƒ",
        "name:be-tarask": "ĞÑ€Ğ´Ñƒ",
        "name:bg": "ĞÑ€Ğ´Ñƒ",
        "name:ca": "Ordu",
        "name:ce": "ĞÑ€Ğ´Ñƒ",
        "name:ceb": "Ordu",
        "name:crh": "Ordu",
        "name:cs": "Ordu",
        "name:de": "Ordu",
        "name:diq": "Ordu",
        "name:el": "ÎšÎ¿Ï„ÏÏ‰ÏÎ±",
        "name:en": "Ordu",
        "name:eo": "Ordu",
        "name:es": "Ordu",
        "name:fa": "Ø§Ø±Ø¯Ùˆ",
        "name:fi": "Ordu",
        "name:fr": "Ordu",
        "name:gag": "Ordu",
        "name:hi": "à¤‘à¤°à¥à¤¦à¥",
        "name:hu": "Ordu",
        "name:hy": "Õ•Ö€Õ¤Õ¸Ö‚",
        "name:id": "Ordu",
        "name:it": "Ordu",
        "name:ja": "ã‚ªãƒ«ãƒ‰ã‚¥",
        "name:ka": "áƒáƒ áƒ“áƒ£",
        "name:kaa": "Ordu",
        "name:kk": "ĞÑ€Ğ´Ñƒ",
        "name:ko": "ì˜¤ë¥´ë‘",
        "name:lt": "Ordu",
        "name:min": "Ordu",
        "name:ml": "à´’àµ¼à´¦àµ",
        "name:mrj": "ĞÑ€Ğ´Ñƒ",
        "name:ms": "Ordu",
        "name:na": "Ordu",
        "name:nl": "Ordu",
        "name:nn": "Ordu",
        "name:no": "Ordu",
        "name:os": "ĞÑ€Ğ´Ñƒ",
        "name:pl": "Ordu",
        "name:pnb": "Ø§ÙˆØ±ÚˆÙˆ",
        "name:pt": "Ordu",
        "name:ro": "Ordu",
        "name:ru": "ĞÑ€Ğ´Ñƒ",
        "name:rw": "Ordu",
        "name:sco": "Ordu",
        "name:sh": "Ordu",
        "name:simple": "Ordu",
        "name:sq": "Ordu",
        "name:sr": "ĞÑ€Ğ´Ñƒ",
        "name:sw": "Ordu",
        "name:ta": "à®’à®°à¯à®¤à¯",
        "name:tg": "ĞÑ€Ğ´Ñƒ",
        "name:tr": "Ordu",
        "name:tr:suffix": "BÃ¼yÃ¼kÅŸehir Belediyesi",
        "name:udm": "ĞÑ€Ğ´Ñƒ",
        "name:uk": "ĞÑ€Ğ´Ñƒ",
        "name:ur": "Ø§ÙˆØ±Ø¯Ùˆ",
        "name:vi": "Ordu",
        "name:war": "Ordu",
        "name:wuu": "å¥¥å°”æœ",
        "name:zh": "å¥§çˆ¾æœ",
        "place": "city",
        "population": "750588",
        "salb:id": "TUR063",
        "salb:name": "Ordu",
        "source": "Wikipedia (tr)",
        "wikidata": "Q184539",
        "wikimedia_commons": "Category:Ordu",
        "wikipedia": "en:Ordu"
      },
      "geometry": {
        "type": "Point",
        "coordinates": [
          37.8797732,
          40.9852301
        ]
      },
      "id": "node/26486071"
    },
    {
      "type": "Feature",
      "properties": {
        "@id": "node/26486097",
        "name": "Rize",
        "name:el": "Î•Ï€Î±ÏÏ‡Î¯Î± Î¡Î¹Î¶Î¿ÏÎ½Ï„Î±Ï‚",
        "name:en": "Rize",
        "name:fa": "Ø±ÛŒØ²Ù‡",
        "name:hy": "ÕŒÕ«Õ¦Õ¥Õ« Õ´Õ¡Ö€Õ¦",
        "name:ka": "áƒ áƒ˜áƒ–áƒ”",
        "name:lzz": "áƒ áƒ˜áƒ–áƒ˜áƒœáƒ˜",
        "name:ml": "à´±àµ€à´¸àµ†",
        "name:ota": "Ø±ÙŠØ²Ù‡",
        "name:ru": "Ğ Ğ¸Ğ·Ğµ",
        "name:sr": "Ğ Ğ¸Ğ·Ğµ",
        "name:tr": "Rize",
        "name:tr:suffix": "Belediyesi",
        "name:uk": "Ğ Ñ–Ğ·Ğµ",
        "place": "city",
        "population": "119828",
        "population:date": "31-12-2021",
        "ref": "53",
        "salb:id": "TUR065",
        "salb:name": "Rize",
        "source": "Wikipedia (tr)",
        "wikidata": "Q483481",
        "wikimedia_commons": "Category:Rize Province",
        "wikipedia": "tr:Rize (il)"
      },
      "geometry": {
        "type": "Point",
        "coordinates": [
          40.5199142,
          41.0248249
        ]
      },
      "id": "node/26486097"
    },
    {
      "type": "Feature",
      "properties": {
        "@id": "node/26486105",
        "alt_name:ar": "ØµØ§Ù…Ø³ÙˆÙ†",
        "alt_name:azb": "ØµØ§Ù…Ø³ÙˆÙ†",
        "alt_name:grc": "Î£Î±Î¼ÏˆÎ¿ÏÎ½Ï„Î±",
        "alt_name:ur": "Ø³Ø§Ù…Ø³ÙˆÙ†",
        "name": "Samsun",
        "name:ar": "Ø³Ø§Ù…Ø³ÙˆÙ†",
        "name:arz": "Ø³Ø§Ù…Ø³ÙˆÙ†",
        "name:ast": "Samsun",
        "name:az": "Samsun",
        "name:azb": "Ø³Ø§Ù…Ø³ÙˆÙ†",
        "name:be": "Ğ¡Ğ°Ğ¼ÑÑƒĞ½",
        "name:be-tarask": "Ğ¡Ğ°Ğ¼ÑÑƒĞ½",
        "name:bg": "Ğ¡Ğ°Ğ¼ÑÑƒĞ½",
        "name:br": "Samsun",
        "name:bs": "Samsun",
        "name:ca": "Samsun",
        "name:ce": "Ğ¡Ğ°Ğ¼ÑÑƒĞ½",
        "name:ceb": "Samsun",
        "name:ckb": "Ø³Ø§Ù…Ø³ÙˆÙ†",
        "name:cs": "Samsun",
        "name:da": "Samsun",
        "name:de": "Samsun",
        "name:diq": "Samsun",
        "name:el": "Î£Î±Î¼ÏˆÎ¿ÏÎ½Ï„Î±",
        "name:en": "Samsun",
        "name:eo": "Samsun",
        "name:es": "Samsun",
        "name:et": "Samsun",
        "name:eu": "Samsun",
        "name:fa": "ØµØ§Ù…Ø³ÙˆÙ†",
        "name:fi": "Samsun",
        "name:fr": "Samsun",
        "name:frr": "Samsun",
        "name:gag": "Samsun",
        "name:gl": "Samsun",
        "name:grc": "á¼ˆÎ¼Î¹ÏƒÏŒÏ‚",
        "name:he": "×¡××¡×•×Ÿ",
        "name:hi": "à¤¸à¥ˆà¤®à¤¸à¥‚à¤¨",
        "name:hr": "Samsun",
        "name:hu": "Samsun",
        "name:hy": "ÕÕ¡Õ´Õ½Õ¸Ö‚Õ¶",
        "name:id": "Samsun",
        "name:it": "Samsun",
        "name:ja": "ã‚µãƒ ã‚¹ãƒ³",
        "name:ka": "áƒ¡áƒáƒ›áƒ¡áƒ£áƒœáƒ˜",
        "name:kk": "Ğ¡Ğ°Ğ¼ÑÑƒĞ½",
        "name:ko": "ì‚¼ìˆœ",
        "name:lt": "Samsunas",
        "name:lv": "Samsuna",
        "name:min": "Samsun",
        "name:mk": "Ğ¡Ğ°Ğ¼ÑÑƒĞ½",
        "name:ml": "à´¸à´¾à´‚à´¸àµ‚àµº",
        "name:mrj": "Ğ¡Ğ°Ğ¼ÑÑƒĞ½",
        "name:ms": "Samsun",
        "name:na": "Samsun",
        "name:nl": "Samsun",
        "name:nn": "Samsun",
        "name:no": "Samsun",
        "name:os": "Ğ¡Ğ°Ğ¼ÑÑƒĞ½",
        "name:ota": "ØµØ§Ù…Ø³ÙˆÙ†",
        "name:pa": "à¨¸à©ˆà¨®à¨¸à¨¨",
        "name:pl": "Samsun",
        "name:pnb": "Ø³ÛŒÙ…Ø³Ù†",
        "name:ps": "Ø³Ø§Ù…Ø³ÙˆÙ†",
        "name:pt": "Samsun",
        "name:ro": "Samsun",
        "name:ru": "Ğ¡Ğ°Ğ¼ÑÑƒĞ½",
        "name:rw": "Samsun",
        "name:sh": "Samsun",
        "name:simple": "Samsun",
        "name:so": "Samsun",
        "name:sr": "Ğ¡Ğ°Ğ¼ÑÑƒĞ½",
        "name:sv": "Samsun",
        "name:sw": "Samsun",
        "name:tg": "Ğ¡Ğ°Ğ¼ÑÑƒĞ½",
        "name:th": "à¸‹à¸±à¸¡à¸‹à¸¸à¸™",
        "name:tr": "Samsun",
        "name:tr:suffix": "BÃ¼yÃ¼kÅŸehir Belediyesi",
        "name:tt": "Ğ¡Ğ°Ğ¼ÑÑƒĞ½",
        "name:tw": "Samsun",
        "name:udm": "Ğ¡Ğ°Ğ¼ÑÑƒĞ½",
        "name:uk": "Ğ¡Ğ°Ğ¼ÑÑƒĞ½",
        "name:ur": "ØµØ§Ù…Ø³ÙˆÙ†",
        "name:uz": "Samsun",
        "name:vi": "Samsun",
        "name:war": "Samsun",
        "name:wuu": "è¨å§†æ¾",
        "name:xmf": "áƒ¡áƒáƒ›áƒ¡áƒ£áƒœáƒ˜ (áƒœáƒáƒ¦áƒ)",
        "name:yue": "æ£®æ¾",
        "name:zh": "è–©å§†æ¾",
        "old_name:de": "Amisos",
        "old_name:es": "AmisÃ³s",
        "old_name:fr": "Amisos",
        "old_name:grc": "Î•á¼°Ï‚ á¼ˆÎ¼Î¹ÏƒÏŒÎ½",
        "place": "city",
        "population": "1295927",
        "salb:id": "TUR067",
        "salb:name": "Samsun",
        "wikidata": "Q160450",
        "wikimedia_commons": "Category:Samsun",
        "wikipedia": "tr:Samsun"
      },
      "geometry": {
        "type": "Point",
        "coordinates": [
          36.3320596,
          41.2946149
        ]
      },
      "id": "node/26486105"
    },
    {
      "type": "Feature",
      "properties": {
        "@id": "node/26486164",
        "name": "Sinop",
        "name:ar": "Ø³ÙŠÙ†ÙˆØ¨",
        "name:be": "Ğ¡Ñ–Ğ½Ğ¾Ğ¿",
        "name:bg": "Ğ¡Ğ¸Ğ½Ğ¾Ğ¿",
        "name:bo": "à½¦à½²à¼‹à½“à½¼à¼‹à½”à½ºà¼",
        "name:ca": "Sinope",
        "name:ce": "Ğ¡Ğ¸Ğ½Ğ¾Ğ¿",
        "name:de": "Sinope",
        "name:el": "Î£Î¹Î½ÏÏ€Î·",
        "name:en": "Sinop",
        "name:es": "Sinope",
        "name:fa": "Ø³ÛŒÙ†ÙˆØ¨",
        "name:gl": "Sinope",
        "name:he": "×¡×™× ×•×¤",
        "name:hi": "à¤¸à¤¾à¤‡à¤¨à¥‰à¤ª",
        "name:hy": "ÕÕ«Õ¶Õ¸Õº",
        "name:it": "Sinope",
        "name:ja": "ã‚¹ã‚£ãƒãƒ—",
        "name:ka": "áƒ¡áƒ˜áƒœáƒáƒáƒ˜",
        "name:ko": "ì‹œë…¸í”„",
        "name:ku": "SÃ®nob",
        "name:la": "Sinope",
        "name:ml": "à´¸àµˆà´¨àµ‹à´ªàµà´ªàµ",
        "name:os": "Ğ¡Ğ¸Ğ½Ğ¾Ğ¿",
        "name:pl": "Synopa",
        "name:pnt": "Î£Î¹Î½ÏÏ€Î·",
        "name:pt": "Sinope",
        "name:ru": "Ğ¡Ğ¸Ğ½Ğ¾Ğ¿",
        "name:sr": "Ğ¡Ğ¸Ğ½Ğ¾Ğ¿",
        "name:tg": "Ğ¡Ğ¸Ğ½Ğ¾Ğ¿",
        "name:tr:suffix": "Belediyesi",
        "name:tt": "Ğ¡Ğ¸Ğ½Ğ¾Ğ¿",
        "name:uk": "Ğ¡Ñ–Ğ½Ğ¾Ğ¿",
        "name:ur": "Ø³ÛŒÙ†ÙˆÙ¾",
        "name:zh": "é”¡è¯ºæ™®",
        "place": "city",
        "population": "56479",
        "population:date": "31-12-2021",
        "salb:id": "TUR070",
        "salb:name": "Sinop",
        "source": "Wikipedia (tr)",
        "wikidata": "Q599416",
        "wikimedia_commons": "Category:Sinop, Turkey",
        "wikipedia": "tr:Sinop"
      },
      "geometry": {
        "type": "Point",
        "coordinates": [
          35.1511512,
          42.0265798
        ]
      },
      "id": "node/26486164"
    },
    {
      "type": "Feature",
      "properties": {
        "@id": "node/26486186",
        "alt_name:el": "Î•Ï…Î´Î¿ÎºÎ¹Î¬Î´Î±",
        "name": "Tokat",
        "name:ar": "ØªÙˆÙ‚Ø§Ø¯",
        "name:el": "Î¤Î¿ÎºÎ¬Ï„Î·",
        "name:es": "Tokat",
        "name:fr": "Tokat",
        "name:hi": "à¤Ÿà¥‹à¤•à¤¾à¤Ÿ",
        "name:hy": "ÔµÕ¾Õ¤Õ¸Õ¯Õ«Õ¡",
        "name:it": "Tokat",
        "name:ka": "áƒ—áƒáƒ¥áƒáƒ—áƒ˜",
        "name:ko": "í† ì¹´íŠ¸",
        "name:ml": "à´¤àµ‹à´•àµà´•à´¾à´¦àµ",
        "name:nl": "Tokat",
        "name:no": "Tokat",
        "name:pt": "Tocate",
        "name:ru": "Ğ¢Ğ¾ĞºĞ°Ñ‚",
        "name:sr": "Ğ¢Ğ¾ĞºĞ°Ñ‚",
        "name:sv": "Tokat",
        "name:tr": "Tokat",
        "name:tr:suffix": "Belediyesi",
        "name:uk": "Ğ¢Ğ¾ĞºĞ°Ñ‚",
        "name:zh": "æ‰˜å¡ç‰¹",
        "place": "city",
        "population": "164405",
        "population:date": "2022",
        "salb:id": "TUR074",
        "salb:name": "Tokat",
        "source": "Wikipedia (tr)",
        "wikidata": "Q183651",
        "wikimedia_commons": "Category:Tokat",
        "wikipedia": "tr:Tokat (ÅŸehir)"
      },
      "geometry": {
        "type": "Point",
        "coordinates": [
          36.552162,
          40.3233534
        ]
      },
      "id": "node/26486186"
    },
    {
      "type": "Feature",
      "properties": {
        "@id": "node/26486267",
        "name": "Zonguldak",
        "name:ar": "Ø²ÙˆÙ†ØºÙˆÙ„Ø¯Ø§Ù‚",
        "name:az": "Zonquldak",
        "name:be": "Ğ—Ğ°Ğ½Ğ³ÑƒĞ»Ğ´Ğ°Ğº",
        "name:bg": "Ğ—Ğ¾Ğ½Ğ³ÑƒĞ»Ğ´Ğ°Ğº",
        "name:ce": "Ğ—Ğ¾Ğ½Ğ³ÑƒĞ»Ğ´Ğ°Ğº",
        "name:el": "Î–Î¿Î½Î³ÎºÎ¿Ï…Î»Î½Ï„Î¬Îº",
        "name:fa": "Ø²ÙˆÙ†Ú¯ÙˆÙ„Ø¯Ø§Øº",
        "name:hu": "Zonguldak",
        "name:hy": "Ô¶Õ¸Õ¶Õ£Õ¸Ö‚Õ¬Õ¤Õ¡Ö„",
        "name:ja": "ã‚¾ãƒ³ã‚°ãƒ«ãƒ€ã‚¯",
        "name:ka": "áƒ–áƒáƒœáƒ’áƒ£áƒšáƒ“áƒáƒ¥áƒ˜",
        "name:kk": "Ğ—Ğ¾Ğ½Ğ³ÑƒĞ»Ğ´Ğ°Ğº",
        "name:ko": "ì¢…êµ´ë‹¤í¬",
        "name:lt": "Zonguldakas",
        "name:ml": "à´¸àµ‹à´‚à´—àµàµ½à´¡à´¾à´•àµà´•àµ",
        "name:os": "Ğ—Ğ¾Ğ½Ğ³ÑƒĞ»Ğ´Ğ°Ğº",
        "name:pt": "Zonguldaque",
        "name:ru": "Ğ—Ğ¾Ğ½Ğ³ÑƒĞ»Ğ´Ğ°Ğº",
        "name:sr": "Ğ—Ğ¾Ğ½Ğ³ÑƒĞ»Ğ´Ğ°Ğº",
        "name:tg": "Ğ—Ğ¾Ğ½Ğ³ÑƒĞ»Ğ´Ğ°Ğº",
        "name:tr:suffix": "Belediyesi",
        "name:tt": "Ğ—Ğ¾Ğ½Ğ³ÑƒĞ»Ğ´Ğ°Ğº",
        "name:uk": "Ğ—Ğ¾Ğ½Ğ³ÑƒĞ»Ğ´Ğ°Ğº",
        "name:ur": "Ø²Ø§Ù†Ú¯ÙˆÙ„Ø¯Ø§Ú©",
        "name:zh": "å®—å¤çˆ¾é”å…‹",
        "place": "city",
        "population": "103079",
        "population:date": "2021-12-31",
        "salb:id": "TUR081",
        "source": "Wikipedia (tr)",
        "wikidata": "Q187895",
        "wikimedia_commons": "Category:Zonguldak",
        "wikipedia": "tr:Zonguldak"
      },
      "geometry": {
        "type": "Point",
        "coordinates": [
          31.7919867,
          41.4506981
        ]
      },
      "id": "node/26486267"
    },
    {
      "type": "Feature",
      "properties": {
        "@id": "node/26486334",
        "admin_level": "4",
        "name": "AÄŸrÄ±",
        "name:ar": "Ø£ØºØ±ÙŠ",
        "name:arc": "ÜÜ“ÜªÜ",
        "name:azb": "Ø¢ØºØ±ÛŒ",
        "name:ckb": "Ù‚Û•Ø±Û•Ú©Û†Ø³Û•",
        "name:es": "Agri",
        "name:fa": "Ø¢ØºØ±ÛŒ",
        "name:fr": "Agri",
        "name:grc": "á¼ŒÎ³ÏÎ¹",
        "name:hi": "à¤…à¤—à¥à¤°à¤¿",
        "name:hy": "Ô±Õ²Ö€Õ«",
        "name:ku": "AgirÃ®",
        "name:mk": "ĞĞ³Ñ€Ğ¸",
        "name:ml": "à´…à´—à´±à´¿",
        "name:ota": "Ù‚Ø±Ù‡â€ŒÚ©Ù„ÛŒØ³Ø§",
        "name:pa": "à¨†à¨—à¨°à©€",
        "name:ru": "ĞĞ³Ñ€Ñ‹",
        "name:sr": "ĞĞ³Ñ€Ğ¸",
        "name:syc": "ÜÜ“ÜªÜ",
        "name:tg": "ĞÒ“Ñ€Ğ¸",
        "name:tr": "AÄŸrÄ±",
        "name:tr:suffix": "Belediyesi",
        "name:tt": "ĞĞ³Ñ€Ñ‹",
        "name:ug": "Ø¦Ø§ØºØ±Ù‰",
        "name:uk": "ĞĞ³Ñ€Ğ¸",
        "name:ur": "Ø¢ØºØ±ÛŒ",
        "old_name": "KarakÃ¶se",
        "old_name:azb": "Ù‚Ø§Ø±Ø§Ú©Ù„ÛŒØ³",
        "old_name:de": "Karakilise",
        "old_name:es": "Karakilise",
        "old_name:fa": "Ù‚Ø±Ù‡â€ŒÚ©Ù„ÛŒØ³Ø§",
        "old_name:fr": "Karakilise",
        "old_name:grc": "ÎšÎ±ÏÎ±ÎºÎ¯Î»Î¹ÏƒÎµ",
        "old_name:hy": "Õ”Õ¡Ö€Õ¢Õ¥Ö€",
        "place": "city",
        "population": "120390",
        "population:date": "2021",
        "salb:name": "Agri",
        "source:population": "wikipedia",
        "wikidata": "Q199575",
        "wikimedia_commons": "Category:AÄŸrÄ±",
        "wikipedia": "tr:AÄŸrÄ±"
      },
      "geometry": {
        "type": "Point",
        "coordinates": [
          43.0504894,
          39.719125
        ]
      },
      "id": "node/26486334"
    },
    {
      "type": "Feature",
      "properties": {
        "@id": "node/26486338",
        "admin_level": "4",
        "alt_name": "Ardahan ilÃ§esi;Ardahan merkez",
        "alt_name:ku": "ErdÃªhan",
        "name": "Ardahan",
        "name:ar": "Ø£Ø±Ø¯Ø§Ù‡Ø§Ù†",
        "name:bg": "ĞÑ€Ğ´Ğ°Ñ…Ğ°Ğ½",
        "name:ce": "ĞÑ€Ğ´Ğ°Ñ…Ó€Ğ°Ğ½",
        "name:ckb": "Ø¦Û•Ø±Ø¯ÛØ®Ø§Ù†",
        "name:de": "Ardahan",
        "name:el": "Î‘ÏÎ½Ï„Î±Ï‡Î¬Î½",
        "name:en": "Ardahan",
        "name:es": "Ardahan",
        "name:fa": "Ø§Ø±Ø¯Ù‡Ø§Ù†",
        "name:fr": "Ardahan",
        "name:he": "××¨×“×”××Ÿ",
        "name:hy": "Ô±Ö€Õ¤Õ¡Õ°Õ¡Õ¶",
        "name:ja": "ã‚¢ãƒ«ãƒ€ãƒãƒ³",
        "name:ka": "áƒáƒ áƒ¢áƒáƒáƒœáƒ˜",
        "name:ko": "ì•„ë¥´ë‹¤í•œ",
        "name:ku": "ErdÃªxan",
        "name:ml": "à´…àµ¼à´¦à´¹à´¾àµ»",
        "name:ota": "Ø§Ø±Ø¯Ù‡Ø§Ù†",
        "name:pt": "ArdaÃ£",
        "name:ru": "ĞÑ€Ğ´Ğ°Ñ…Ğ°Ğ½",
        "name:sr": "ĞÑ€Ğ´Ğ°Ñ…Ğ°Ğ½",
        "name:tr:suffix": "Belediyesi",
        "name:tt": "ĞÑ€Ğ´Ğ°Ñ…Ğ°Ğ½",
        "name:uk": "ĞÑ€Ğ´Ğ°Ñ…Ğ°Ğ½",
        "name:ur": "Ø§Ø±Ø¯Ø§ÛØ§Ù†",
        "name:zh": "é˜¿çˆ¾é”æ¼¢",
        "place": "city",
        "population": "96161",
        "population:date": "2021",
        "salb:id": "TUR009",
        "salb:name": "Ardahan",
        "wikidata": "Q202188",
        "wikimedia_commons": "Category:Ardahan",
        "wikipedia": "tr:Ardahan"
      },
      "geometry": {
        "type": "Point",
        "coordinates": [
          42.7035585,
          41.1102966
        ]
      },
      "id": "node/26486338"
    },
    {
      "type": "Feature",
      "properties": {
        "@id": "node/26486414",
        "alt_name": "Ã‡evlik;Ã‡olik",
        "alt_name:hy": "ÕƒÕ¡ÕºÕ²Õ»Õ¸Ö‚Ö€;ÕƒÕ¡ÕºÕ¡Õ²;Ô¿Õ©Õ¡Õ¼Õ«Õ³;Ô½Õ¸Ö‚Õ¬Öƒ;Ô²Õ«Õ¶Õ£ÕµÕ¸Õ¬",
        "alt_name:ku": "Ã‡olÃ®g;Ã‡ebexÃ§Ã»r",
        "name": "BingÃ¶l",
        "name:ar": "Ø¨ÙŠÙ†ÙƒÙ„",
        "name:arz": "Ø¨ÙŠÙ†ÙƒÙ„",
        "name:ast": "BingÃ¶l",
        "name:az": "BingÃ¶l",
        "name:azb": "Ø¨ÛŒÙ†Ú¯Ø¤Ù„",
        "name:ba": "Ğ‘Ğ¸Ğ½Ğ³ÑŒĞ¾Ğ»",
        "name:bg": "Ğ‘Ğ¸Ğ½Ğ³ÑŒĞ¾Ğ»",
        "name:br": "BingÃ¶l",
        "name:ca": "Ã‡ewlÃ®k",
        "name:ce": "Ğ‘Ğ¸Ğ½Ğ³Ğ¾ÑŒĞ»",
        "name:ceb": "BingÃ¶l",
        "name:ckb": "Ú†Û•ÙˆÙ„ÛŒÚ¯",
        "name:crh": "BingÃ¶l",
        "name:cs": "BingÃ¶l",
        "name:da": "BingÃ¶l",
        "name:de": "BingÃ¶l",
        "name:diq": "Ã‡olig",
        "name:el": "ÎœÏ€Î¹Î½Î³ÎºÎ¹ÏŒÎ»",
        "name:en": "BingÃ¶l",
        "name:eo": "Bingol",
        "name:es": "BingÃ¶l",
        "name:et": "BingÃ¶l",
        "name:fa": "Ø¨ÛŒÙ†Ú¯ÙˆÙ„",
        "name:fi": "BingÃ¶l",
        "name:fr": "BingÃ¶l",
        "name:gag": "BingÃ¶l",
        "name:he": "×‘×™× ×’×œ",
        "name:hu": "BingÃ¶l",
        "name:hy": "ÕƒÕ¡ÕºÕ¡Õ²Õ»Õ¸Ö‚Ö€",
        "name:ie": "BingÃ¶l",
        "name:it": "BingÃ¶l",
        "name:ja": "ãƒ“ãƒ³ã‚®ãƒ§ãƒ«",
        "name:ka": "áƒ‘áƒ˜áƒœáƒ’áƒáƒšáƒ˜",
        "name:ko": "ë¹™ê´¼",
        "name:ku": "Ã‡ewlÃ®g",
        "name:min": "BingÃ¶l",
        "name:ml": "à´¬à´¿à´™àµà´•àµ‹àµ¾",
        "name:mrj": "Ğ‘Ğ¸Ğ½Ğ³Ó§Ğ»ÑŒ",
        "name:ms": "BingÃ¶l",
        "name:na": "BingÃ¶l",
        "name:nl": "BingÃ¶l",
        "name:no": "BingÃ¶l",
        "name:oc": "BingÃ¶l",
        "name:os": "Ğ‘Ğ¸Ğ½Ğ³Ñ‘Ğ»ÑŒ",
        "name:pa": "à¨¬à¨¿à©°à¨—à©‹à¨²",
        "name:pl": "BingÃ¶l",
        "name:pnb": "Ø¨Ù†Ú¯ÙˆÙ„",
        "name:pt": "BingÃ¶l",
        "name:ro": "BingÃ¶l",
        "name:ru": "Ğ‘Ğ¸Ğ½Ğ³Ñ‘Ğ»ÑŒ",
        "name:rw": "BingÃ¶l",
        "name:scn": "BingÃ¶l",
        "name:sco": "BingÃ¶l",
        "name:sh": "BingÃ¶l",
        "name:sr": "Ğ‘Ğ¸Ğ½Ğ³Ğ¾Ğ»",
        "name:sv": "BingÃ¶l",
        "name:sw": "BingÃ¶l",
        "name:szl": "BingÃ¶l",
        "name:tg": "Ğ‘Ğ¸Ğ½Ğ³Ñ‘Ğ»",
        "name:tr": "BingÃ¶l",
        "name:tr:suffix": "Belediyesi",
        "name:tt": "Ğ‘Ğ¸Ğ½Ğ³Ó©Ğ»",
        "name:tw": "BingÃ¶l",
        "name:udm": "Ğ‘Ğ¸Ğ½Ğ³Ñ‘Ğ»ÑŒ",
        "name:uk": "Ğ‘Ñ–Ğ½Ğ³ÑŒĞ¾Ğ»ÑŒ",
        "name:ur": "Ø¨ÛŒÙ†Ú¯ÙˆÙ„",
        "name:vi": "BingÃ¶l",
        "name:vo": "BingÃ¶l",
        "name:war": "BingÃ¶l",
        "name:zh": "è³“æ ¼çˆ¾",
        "name:zza": "Ã‡olig",
        "old_name": "Ã‡olik;Ã‡apakÃ§ur;Ã‡abakÃ§ur",
        "place": "city",
        "population": "269560",
        "salb:id": "TUR017",
        "salb:name": "Bingol",
        "source": "Wikipedia (tr)",
        "wikidata": "Q208472",
        "wikimedia_commons": "Category:BingÃ¶l",
        "wikipedia": "tr:BingÃ¶l"
      },
      "geometry": {
        "type": "Point",
        "coordinates": [
          40.4972333,
          38.8861265
        ]
      },
      "id": "node/26486414"
    },
    {
      "type": "Feature",
      "properties": {
        "@id": "node/26486498",
        "alt_name:ar": "Ø¨ÙŠØ·Ù„ÙŠØ³;Ø¨ØªÙ„ÙŠØ³",
        "alt_name:ml": "à´¬à´¿à´¦àµà´²àµ€à´¸àµ",
        "name": "Bitlis",
        "name:ab": "Ğ‘Ğ¸Ò­Ğ»Ğ¸Ñ",
        "name:ar": "Ø¨Ø¯Ù„ÙŠØ³",
        "name:arc": "Ü’ÜÜ¬ Ü•Ü ÜÜ£",
        "name:ast": "Bitlis",
        "name:az": "Bitlis",
        "name:azb": "Ø¨ØªÙ„ÛŒØ³",
        "name:bg": "Ğ‘Ğ¸Ñ‚Ğ»Ğ¸Ñ",
        "name:ca": "Bitlis",
        "name:ce": "Ğ‘Ğ¸Ñ‚Ğ»Ğ¸Ñ",
        "name:ckb": "Ø¨Ø¯Ù„ÛŒØ³",
        "name:cs": "Bitlis",
        "name:de": "Bitlis",
        "name:el": "ÎœÏ€Î¹Ï„Î»Î¯Ï‚",
        "name:en": "Bitlis",
        "name:eo": "Bitlis",
        "name:es": "Bitlis",
        "name:fa": "Ø¨ÛŒØªÙ„ÛŒØ³",
        "name:fr": "Bitlis",
        "name:gag": "Bitlis",
        "name:hy": "Ô²Õ¡Õ²Õ¥Õ·",
        "name:it": "Bitlis",
        "name:ja": "ãƒ“ãƒˆãƒªã‚¹",
        "name:ka": "áƒ‘áƒ˜áƒ—áƒšáƒ˜áƒ¡áƒ˜",
        "name:ko": "ë¹„í‹€ë¦¬ìŠ¤",
        "name:ku": "BidlÃ®s",
        "name:lt": "Bitlisas",
        "name:ml": "à´¬à´¿à´¤àµà´²àµ€à´¸àµ",
        "name:ms": "Bitlis",
        "name:na": "Bitlis",
        "name:nl": "Bitlis",
        "name:nn": "Bitlis",
        "name:no": "Bitlis",
        "name:os": "Ğ‘Ğ¸Ñ‚Ğ»Ğ¸Ñ",
        "name:ota": "Ø¨Ø¯Ù„ÙŠØ³",
        "name:pl": "Bitlis",
        "name:pt": "Bitlis",
        "name:ro": "Bitlis",
        "name:ru": "Ğ‘Ğ¸Ñ‚Ğ»Ğ¸Ñ",
        "name:rw": "Bitlis",
        "name:sh": "Bitlis",
        "name:sq": "Bitlis",
        "name:sr": "Ğ‘Ğ¸Ñ‚Ğ»Ğ¸Ñ",
        "name:sv": "Bitlis",
        "name:syc": "Ü’ÜÜ¬ Ü•Ü ÜÜ£",
        "name:th": "à¸šà¸´à¸•à¸¥à¸´à¸ª",
        "name:tr": "Bitlis",
        "name:tr:suffix": "Belediyesi",
        "name:tt": "Ğ‘Ğ¸Ñ‚Ğ»Ğ¸Ñ",
        "name:uk": "Ğ‘Ñ–Ñ‚Ğ»Ñ–Ñ",
        "name:ur": "Ø¨ØªÙ„ÛŒØ³",
        "name:vi": "Bitlis",
        "name:vo": "Bitlis",
        "name:war": "Bitlis",
        "name:wuu": "æ¯”ç‰¹åˆ©æ–¯",
        "name:zh": "æ¯”ç‰¹åˆ©æ–¯",
        "name:zza": "BÄ±dlis",
        "place": "city",
        "population": "352277",
        "population:date": "2021",
        "salb:id": "TUR018",
        "salb:name": "Bitlis",
        "wikidata": "Q83531",
        "wikimedia_commons": "File:BÃªdlis.jpg",
        "wikipedia": "tr:Bitlis",
        "wikipedia:ar": "Ø¨Ø¯Ù„ÙŠØ³"
      },
      "geometry": {
        "type": "Point",
        "coordinates": [
          42.1084568,
          38.4020539
        ]
      },
      "id": "node/26486498"
    },
    {
      "type": "Feature",
      "properties": {
        "@id": "node/26486523",
        "alt_name:el": "Î•Î»Î±Î¶Î¯Î³",
        "alt_name:ku": "XarpÃªt;Mezra",
        "name": "ElÃ¢zÄ±ÄŸ",
        "name:ar": "Ù…Ø¹Ù…ÙˆØ±Ø© Ø§Ù„Ø¹Ø²ÙŠØ²",
        "name:bg": "Ğ•Ğ»ÑĞ·ÑŠĞ³",
        "name:ckb": "Ø®Ø§Ø±Ù¾ÛØª",
        "name:el": "ÎˆÎ»Î±Î¶Î¹Î³",
        "name:en": "ElazÄ±ÄŸ",
        "name:fa": "Ø§Ù„Ø§Ø²ÛŒØº",
        "name:he": "××œ×–×™",
        "name:hi": "à¤à¤²à¤¾à¤œà¤¼à¤¿à¤—",
        "name:hy": "Ô½Õ¡Ö€Õ¢Õ¥Ö€Õ¤",
        "name:ja": "ã‚¨ãƒ©ã‚ºãƒ¼",
        "name:ka": "áƒ”áƒšáƒáƒ–áƒ˜áƒ¦áƒ˜",
        "name:ko": "ì—˜ë¼ì¦ˆìœ¼ì£¼",
        "name:ku": "XarpÃªt",
        "name:ml": "à´à´²à´¾à´¸à´¿à´—àµ",
        "name:ru": "Ğ­Ğ»ÑĞ·Ñ‹Ğ³",
        "name:sr": "Ğ•Ğ»Ğ°Ğ·Ğ¸Ğ³",
        "name:tr": "ElazÄ±ÄŸ",
        "name:tr:suffix": "Belediyesi",
        "name:uk": "Ğ•Ğ»ÑĞ·Ğ¸",
        "name:zh": "åŸƒæ‹‰æ³½çœ",
        "name:zza": "XarpÃªt",
        "place": "city",
        "population": "578789",
        "salb:id": "TUR029",
        "salb:name": "Elazig",
        "source": "Wikipedia (tr)",
        "wikidata": "Q174060",
        "wikimedia_commons": "Category:ElazÄ±ÄŸ",
        "wikipedia": "tr:ElazÄ±ÄŸ"
      },
      "geometry": {
        "type": "Point",
        "coordinates": [
          39.2227135,
          38.6747164
        ]
      },
      "id": "node/26486523"
    },
    {
      "type": "Feature",
      "properties": {
        "@id": "node/26486736",
        "name": "MuÅŸ",
        "name:ar": "Ù…ÙˆØ´",
        "name:ckb": "Ù…ÙˆÙˆØ´",
        "name:fa": "Ù…ÙˆØ´",
        "name:hi": "à¤®à¥‚à¤¶",
        "name:hy": "Õ„Õ¸Ö‚Õ·",
        "name:ku": "MÃ»ÅŸ",
        "name:ml": "à´®àµ‚à´·àµ",
        "name:ru": "ĞœÑƒÑˆ",
        "name:sr": "ĞœÑƒÑˆ",
        "name:tr": "MuÅŸ",
        "name:tr:suffix": "Belediyesi",
        "name:uk": "ĞœÑƒÑˆ",
        "place": "city",
        "population": "116707",
        "population:date": "2022",
        "wikidata": "Q118995",
        "wikimedia_commons": "Category:MuÅŸ",
        "wikipedia": "tr:MuÅŸ"
      },
      "geometry": {
        "type": "Point",
        "coordinates": [
          41.4898925,
          38.7322221
        ]
      },
      "id": "node/26486736"
    },
    {
      "type": "Feature",
      "properties": {
        "@id": "node/26486753",
        "alt_name:ku": "Ezirgan",
        "name": "Erzincan",
        "name:ar": "Ø£Ø±Ø²ÙŠÙ†Ø¬Ø§Ù†",
        "name:az": "Ærzincan",
        "name:ba": "Ó˜Ñ€Ğ·Ğ¸Ğ½Ğ¶Ğ°Ğ½",
        "name:be": "Ğ­Ñ€Ğ·Ñ–Ğ½Ğ´Ğ¶Ğ°Ğ½",
        "name:bg": "Ğ•Ñ€Ğ·Ğ¸Ğ½Ğ´Ğ¶Ğ°Ğ½",
        "name:br": "Erzincan",
        "name:bs": "Erzincan",
        "name:ceb": "Erzincan",
        "name:ckb": "Ø¦Û•Ø±Ø²Ù†Ú¯Ø§Ù†",
        "name:crh": "Erzincan",
        "name:cs": "Erzincan",
        "name:cv": "Ğ­Ñ€Ğ·Ğ¸Ğ½Ğ´Ğ¶Ğ°Ğ½",
        "name:cy": "Erzincan",
        "name:de": "Erzincan",
        "name:diq": "ErzÄ±ngan",
        "name:el": "Î•ÏÎ¶Î¹Î½Ï„Î¶Î¬Î½",
        "name:en": "Erzincan",
        "name:fa": "Ø§Ø±Ø²Ù†Ø¬Ø§Ù†",
        "name:fr": "Erzincan",
        "name:frr": "Erzincan",
        "name:hi": "à¤à¤°à¥à¤œà¤¼à¤¿à¤‚à¤•à¤¾à¤¨",
        "name:hr": "Erzincan",
        "name:hu": "Erzincan",
        "name:hy": "ÔµÖ€Õ¦Õ¶Õ¯Õ¡",
        "name:ik": "Erzincan",
        "name:ku": "Erzingan",
        "name:la": "Erzincan",
        "name:mk": "Ğ•Ñ€Ğ·Ğ¸Ğ½ÑŸĞ°Ğ½",
        "name:ml": "à´àµ¼à´¸à´¿à´àµà´œà´¾àµ»",
        "name:mrj": "Ğ­Ñ€Ğ·Ğ¸Ğ½Ğ´Ğ¶Ğ°Ğ½",
        "name:nl": "Erzincan",
        "name:no": "Erzincan",
        "name:os": "Ğ­Ñ€Ğ·Ğ¸Ğ½Ğ´Ğ¶Ğ°Ğ½",
        "name:pl": "Erzincan",
        "name:pt": "ErzincÃ£",
        "name:ru": "Ğ­Ñ€Ğ·Ğ¸Ğ½Ğ´Ğ¶Ğ°Ğ½",
        "name:sh": "Erzincan",
        "name:sr": "Ğ•Ñ€Ğ·Ğ¸Ğ½ÑŸĞ°Ğ½",
        "name:sv": "Erzincan",
        "name:tk": "Erzinjan",
        "name:tr": "Erzincan",
        "name:tr:suffix": "Belediyesi",
        "name:uk": "Ğ•Ñ€Ğ·Ñ–Ğ½Ğ´Ğ¶Ğ°Ğ½",
        "name:uz": "Erzincan",
        "name:vi": "Erzincan",
        "name:war": "Erzincan",
        "place": "city",
        "population": "226032",
        "salb:id": "TUR030",
        "salb:name": "Erzincan",
        "source": "Wikipedia (tr)",
        "wikidata": "Q136217",
        "wikimedia_commons": "Category:Erzincan",
        "wikipedia": "tr:Erzincan"
      },
      "geometry": {
        "type": "Point",
        "coordinates": [
          39.49103,
          39.7467552
        ]
      },
      "id": "node/26486753"
    },
    {
      "type": "Feature",
      "properties": {
        "@id": "node/26486754",
        "name": "Erzurum",
        "name:ar": "Ø£Ø±Ø¶Ø±ÙˆÙ…",
        "name:az": "Ærzurum",
        "name:azb": "Ø§Ø±Ø²Ø±ÙˆÙ…",
        "name:be": "Ğ­Ñ€Ğ·ÑƒÑ€ÑƒĞ¼",
        "name:be-tarask": "Ğ­Ñ€Ğ·ÑƒÑ€ÑƒĞ¼",
        "name:bg": "Ğ•Ñ€Ğ·ÑƒÑ€ÑƒĞ¼",
        "name:br": "Erzurum",
        "name:ce": "Ğ­Ñ€Ğ·ÑƒÑ€ÑƒĞ¼",
        "name:ceb": "Erzurum",
        "name:ckb": "Ø¦Û•Ø±Ø²ÛŒÚ•Û†Ù…",
        "name:cs": "Erzurum",
        "name:cy": "Erzurum",
        "name:da": "Erzurum",
        "name:de": "Erzurum",
        "name:diq": "Erzurum",
        "name:el": "Î˜ÎµÎ¿Î´Î¿ÏƒÎ¹Î¿ÏÏ€Î¿Î»Î·",
        "name:en": "Erzurum",
        "name:eo": "Erzurum",
        "name:es": "Erzurum",
        "name:et": "Erzurum",
        "name:eu": "Erzurum",
        "name:fa": "Ø§Ø±Ø²Ø±ÙˆÙ…",
        "name:fi": "Erzurum",
        "name:fr": "Erzurum",
        "name:gag": "Erzurum",
        "name:gd": "Erzurum",
        "name:grc": "Î˜ÎµÎ¿Î´Î¿ÏƒÎ¹Î¿ÏÏ€Î¿Î»Î¹Ï‚",
        "name:he": "××¨×–×•×¨×•×",
        "name:hi": "à¤à¤°à¥à¤œà¤¼à¥à¤°à¥à¤®",
        "name:hu": "Erzurum",
        "name:hy": "Ô¿Õ¡Ö€Õ«Õ¶",
        "name:hyw": "Ô¿Õ¡Ö€Õ«Õ¶",
        "name:id": "Erzurum",
        "name:it": "Erzurum",
        "name:ja": "ã‚¨ãƒ«ã‚ºãƒ«ãƒ ",
        "name:ka": "áƒ”áƒ áƒ–áƒ£áƒ áƒ£áƒ›áƒ˜",
        "name:kk": "Ğ•Ñ€Ğ·ÑƒÑ€ÑƒĞ¼",
        "name:ko": "ì—ë¥´ì£¼ë£¸",
        "name:ku": "Erzirom",
        "name:lbe": "Ğ­Ñ€Ğ·ÑƒÑ€ÑƒĞ¼",
        "name:lt": "Erzurumas",
        "name:lv": "Erzuruma",
        "name:min": "Erzurum",
        "name:mk": "Ğ•Ñ€Ğ·ÑƒÑ€ÑƒĞ¼",
        "name:ml": "à´àµ¼à´¸àµà´±àµ‚à´‚",
        "name:mrj": "Ğ­Ñ€Ğ·ÑƒÑ€ÑƒĞ¼",
        "name:ms": "Erzurum",
        "name:na": "Erzurum",
        "name:nl": "Erzurum",
        "name:no": "Erzurum",
        "name:os": "Ğ­Ñ€Ğ·ÑƒÑ€ÑƒĞ¼",
        "name:pa": "à¨…à¨°à¨œà¨¼à©à¨°à¨®",
        "name:pl": "Erzurum",
        "name:pnb": "Ø§Ø±Ø¶ Ø±ÙˆÙ…",
        "name:ps": "Ø§Ø±Ø² Ø±ÙˆÙ…",
        "name:pt": "Erzurum",
        "name:ro": "Erzurum",
        "name:ru": "Ğ­Ñ€Ğ·ÑƒÑ€ÑƒĞ¼",
        "name:rw": "Erzurum",
        "name:sco": "Erzurum",
        "name:sh": "Erzurum",
        "name:sk": "Erzurum",
        "name:sl": "Erzurum",
        "name:sq": "Erzurumi",
        "name:sr": "Ğ•Ñ€Ğ·ÑƒÑ€ÑƒĞ¼",
        "name:sv": "Erzurum",
        "name:sw": "Erzurum",
        "name:szi": "Erzurum",
        "name:tg": "Ğ­Ñ€Ğ·ÑƒÑ€ÑƒĞ¼",
        "name:th": "à¹à¸­à¸£à¹Œà¸‹à¸¹à¸£à¸¸à¸¡",
        "name:tk": "Arzyrum",
        "name:tr:suffix": "BÃ¼yÃ¼kÅŸehir Belediyesi",
        "name:tt": "Ó˜Ñ€Ğ·ĞµÑ€Ò¯Ğ¼",
        "name:tw": "Erzurum",
        "name:udm": "Ğ­Ñ€Ğ·ÑƒÑ€ÑƒĞ¼",
        "name:uk": "Ğ•Ñ€Ğ·ÑƒÑ€ÑƒĞ¼",
        "name:ur": "Ø§Ø±Ø¶ Ø±ÙˆÙ…",
        "name:uz": "Arzirum",
        "name:vi": "Erzurum",
        "name:war": "Erzurum",
        "name:wuu": "åŸƒå°”ç¥–é²å§†",
        "name:zh": "åŸƒå°”ç¥–é²å§†",
        "place": "city",
        "population": "762021",
        "salb:id": "TUR031",
        "salb:name": "Erzurum",
        "source": "Wikipedia (tr)",
        "wikidata": "Q122803",
        "wikimedia_commons": "Category:Erzurum",
        "wikipedia": "tr:Erzurum"
      },
      "geometry": {
        "type": "Point",
        "coordinates": [
          41.2727715,
          39.90632
        ]
      },
      "id": "node/26486754"
    },
    {
      "type": "Feature",
      "properties": {
        "@id": "node/26486777",
        "ele": "1768",
        "name": "Kars",
        "name:ar": "Ù‚Ø§Ø±Øµ",
        "name:bg": "ĞšĞ°Ñ€Ñ",
        "name:ce": "ĞšĞ°Ñ€Ñ",
        "name:ckb": "Ù‚Û•Ø±Ø³",
        "name:el": "ÎšÎ±ÏÏ‚",
        "name:fa": "Ù‚Ø§Ø±Øµ",
        "name:he": "×§××¨×¡",
        "name:hy": "Ô¿Õ¡Ö€Õ½",
        "name:ja": "ã‚«ãƒ«ã‚¹",
        "name:ka": "áƒ§áƒáƒ áƒ¡áƒ˜",
        "name:ko": "ì¹´ë¥´ìŠ¤",
        "name:ku": "Qers",
        "name:ml": "à´–à´¾àµ¼à´¸àµ",
        "name:pt": "Cars",
        "name:ru": "ĞšĞ°Ñ€Ñ",
        "name:sr": "ĞšĞ°Ñ€Ñ",
        "name:tr:suffix": "Belediyesi",
        "name:tt": "ĞšĞ°Ñ€Ñ",
        "name:uk": "ĞšĞ°Ñ€Ñ",
        "name:ur": "Ù‚Ø§Ø±Øµ",
        "name:zh": "å¡çˆ¾æ–¯",
        "name:zza": "Qers",
        "place": "city",
        "population": "289786",
        "salb:id": "TUR046",
        "salb:name": "Kars",
        "source": "Wikipedia (tr)",
        "wikidata": "Q127063",
        "wikimedia_commons": "Category:Kars",
        "wikipedia": "tr:Kars"
      },
      "geometry": {
        "type": "Point",
        "coordinates": [
          43.0947521,
          40.6070761
        ]
      },
      "id": "node/26486777"
    },
    {
      "type": "Feature",
      "properties": {
        "@id": "node/26486997",
        "name": "Malatya",
        "name:ar": "Ù…Ù„Ø·ÙŠØ©",
        "name:be": "ĞœĞ°Ğ»Ğ°Ñ‚â€™Ñ",
        "name:bg": "ĞœĞ°Ğ»Ğ°Ñ‚Ğ¸Ñ",
        "name:ce": "ĞœĞ°Ğ»Ğ°Ñ‚Ğ¸",
        "name:ckb": "Ù…Û•Ù„Û•ØªÛŒ",
        "name:el": "ÎœÎ±Î»Î¬Ï„ÎµÎ¹Î±",
        "name:fa": "Ù…Ù„Ø·ÛŒ",
        "name:he": "××œ×˜×™×”",
        "name:hi": "à¤®à¤²à¤¤à¥à¤¯à¤¾",
        "name:hu": "Malatya",
        "name:hy": "Õ„Õ¡Õ¬Õ¡Õ©Õ«Õ¡",
        "name:ja": "ãƒãƒ©ãƒ†ã‚£ãƒ¤",
        "name:ka": "áƒ›áƒáƒšáƒáƒ—áƒ˜áƒ",
        "name:kk": "ĞœĞ°Ğ»Ğ°Ñ‚Ğ¸Ğ°",
        "name:ko": "ë§ë¼í‹°ì•„",
        "name:ku": "MeletÃ®",
        "name:la": "Melitene",
        "name:lt": "Malatija",
        "name:lv": "Malatja",
        "name:mk": "ĞœĞ°Ğ»Ğ°Ñ‚Ğ¸Ñ˜Ğ°",
        "name:ml": "à´®à´²à´¤àµà´¤àµà´¯",
        "name:nl": "Malatya",
        "name:os": "ĞœĞ°Ğ»Ğ°Ñ‚ÑŒÑ",
        "name:pa": "à¨®à¨²à¨¾à¨¤à¨¿à¨†",
        "name:ps": "Ù…Ø§Ù„Ø§ØªÛŒÙ‡",
        "name:pt": "MalÃ¡tia",
        "name:ru": "ĞœĞ°Ğ»Ğ°Ñ‚ÑŒÑ",
        "name:sk": "Malatya",
        "name:sr": "ĞœĞ°Ğ»Ğ°Ñ‚Ğ¸Ñ˜Ğ°",
        "name:tg": "ĞœĞ°Ğ»Ğ°Ñ‚Ğ¸Ñ",
        "name:tr": "Malatya",
        "name:tr:suffix": "BÃ¼yÃ¼kÅŸehir Belediyesi",
        "name:tt": "ĞœĞ°Ğ»Ğ°Ñ‚ÑŒÑ",
        "name:uk": "ĞœĞ°Ğ»Ğ°Ñ‚ÑŒÑ",
        "name:ur": "Ù…Ø§Ù„Ø§Ø·ÛŒÛ",
        "name:zh": "é¦¬æ‹‰è’‚äº",
        "name:zza": "Meletiye",
        "old_name": "Melitene;Aspuzu",
        "old_name:el": "ÎœÎµÎ»Î¹Ï„Î·Î½Î®",
        "place": "city",
        "population": "781305",
        "salb:id": "TUR056",
        "salb:name": "Malatya",
        "wikidata": "Q165995",
        "wikimedia_commons": "Category:Malatya",
        "wikipedia": "en:Malatya"
      },
      "geometry": {
        "type": "Point",
        "coordinates": [
          38.3190674,
          38.3487153
        ]
      },
      "id": "node/26486997"
    },
    {
      "type": "Feature",
      "properties": {
        "@id": "node/26487261",
        "alt_name:ckb": "Ø¯ÛØ±Ø³Ù…Ø›Ú©Ø§Ù„Ø§Ù†",
        "alt_name:ku": "Kalan;DÃªrsim",
        "name": "Tunceli",
        "name:ar": "ØªÙˆÙ†Ø¬Ù„ÙŠ",
        "name:bg": "Ğ¢ÑƒĞ½Ğ´Ğ¶ĞµĞ»Ğ¸",
        "name:ce": "Ğ¢ÑƒĞ½Ğ´Ğ¶ĞµĞ»Ğ¸",
        "name:ckb": "Ù…Ø§Ù…Û•Ú©ÛŒ",
        "name:el": "Î¤Î¿ÏÎ½Ï„Î¶ÎµÎ»Î¹",
        "name:fa": "ØªÙˆÙ†Ø¬Ù„ÛŒ",
        "name:he": "×˜×•× ×’'×œ×™",
        "name:hy": "Ô¹Õ¸Ö‚Õ¶Õ»Õ¥Õ¬Õ«",
        "name:ja": "ãƒˆã‚¥ãƒ³ã‚¸ã‚§ãƒª",
        "name:ka": "áƒ—áƒ£áƒœáƒ¯áƒ”áƒšáƒ˜",
        "name:ko": "íˆ°ì ¤ë¦¬",
        "name:ku": "MamekÃ®",
        "name:ml": "à´¤àµà´àµà´šàµ†à´²à´¿",
        "name:ru": "Ğ¢ÑƒĞ½Ğ´Ğ¶ĞµĞ»Ğ¸",
        "name:sr": "Ğ¢ÑƒĞ½ÑŸĞµĞ»Ğ¸",
        "name:tg": "Ğ¢ÑƒĞ½Ñ‡ĞµĞ»Ğ¸",
        "name:tr:suffix": "Belediyesi",
        "name:tt": "Ğ¢ÑƒĞ½Ò—ĞµĞ»Ğ¸",
        "name:uk": "Ğ¢ÑƒĞ½Ğ´Ğ¶ĞµĞ»Ñ–",
        "name:ur": "ØªÙˆÙ†Ø¬ÛŒÙ„ÛŒ",
        "name:zh": "é€šå‚‘åˆ©",
        "name:zza": "Mamekiye",
        "old_name": "Mamiki;Mameki;Dersim;Kalan;Qalan",
        "place": "city",
        "population": "34461",
        "population:date": "2015-01-01",
        "postal_code": "62000",
        "salb:id": "TUR076",
        "salb:name": "Tunceli",
        "source_ref": "http://www.yerelnet.org.tr/ilceler/ilce.php?ilceid=2138932",
        "wikidata": "Q620742",
        "wikimedia_commons": "Category:Tunceli Province",
        "wikipedia": "tr:Tunceli (il)"
      },
      "geometry": {
        "type": "Point",
        "coordinates": [
          39.5482693,
          39.1060641
        ]
      },
      "id": "node/26487261"
    },
    {
      "type": "Feature",
      "properties": {
        "@id": "node/26487468",
        "admin_level": "4",
        "alt_name": "Adiyaman",
        "country": "TR",
        "name": "AdÄ±yaman",
        "name:ar": "Ø£Ø¯ÙŠØ§Ù…Ø§Ù†",
        "name:bg": "ĞĞ´ÑŠÑĞ¼Ğ°Ğ½",
        "name:bn": "à¦†à¦¦à¦¿à¦¯à¦¼à¦¾à¦®à¦¾à¦¨",
        "name:ce": "ĞĞ´Ğ¸Ğ¹Ğ°Ğ¼Ğ°Ğ½",
        "name:ckb": "Ø³Û•Ù…Ø³ÙˆÙˆØ±",
        "name:el": "Î‘Î½Ï„Î¹Î³Î¹Î±Î¼Î¬Î½",
        "name:en": "AdÄ±yaman",
        "name:fa": "Ø¢Ø¯ÛŒØ§Ù…Ø§Ù†",
        "name:he": "××“×™×××Ÿ",
        "name:hy": "Ô±Õ¤Õ«ÕµÕ¡Õ´Õ¡Õ¶",
        "name:ja": "ã‚¢ãƒ‰ã‚¥ãƒ¤ãƒãƒ³",
        "name:ka": "áƒáƒ“áƒ˜áƒáƒ›áƒáƒœáƒ˜",
        "name:ko": "ì•„ë””ì•¼ë§Œ",
        "name:ku": "SemsÃ»r",
        "name:lt": "Adijamanas",
        "name:lv": "Adijamana",
        "name:ml": "à´…à´¦à´¿à´¯à´¾à´®à´¾àµ»",
        "name:ota": "Ø­ØµÙ† Ù…Ù†ØµÙˆØ±",
        "name:ru": "ĞĞ´Ñ‹ÑĞ¼Ğ°Ğ½",
        "name:sr": "ĞĞ´Ğ¸Ñ˜Ğ°Ğ¼Ğ°Ğ½",
        "name:tg": "ĞĞ´Ğ¸Ñ‘Ğ¼Ğ¾Ğ½",
        "name:tr": "AdÄ±yaman",
        "name:tr:suffix": "Belediyesi",
        "name:tt": "ĞĞ´Ñ‹ÑĞ¼Ğ°Ğ½",
        "name:uk": "ĞĞ´Ğ¸ÑĞ¼Ğ°Ğ½",
        "name:ur": "Ø¢Ø¯ÛŒØ§Ù…Ø§Ù†",
        "name:zh": "é˜¿å¾·äºšæ›¼",
        "name:zza": "SemsÃ»r",
        "old_name": "HÄ±snÄ±mansur;HÄ±snÄ± MansÃ»r",
        "place": "city",
        "population": "632459",
        "population:date": "2021",
        "wikidata": "Q168197",
        "wikimedia_commons": "Category:AdÄ±yaman",
        "wikipedia": "tr:AdÄ±yaman"
      },
      "geometry": {
        "type": "Point",
        "coordinates": [
          38.2772986,
          37.7602985
        ]
      },
      "id": "node/26487468"
    },
    {
      "type": "Feature",
      "properties": {
        "@id": "node/26487469",
        "ele": "575",
        "name": "Batman",
        "name:ar": "Ø¨Ø·Ù…Ø§Ù†",
        "name:bg": "Ğ‘Ğ°Ñ‚Ğ¼Ğ°Ğ½",
        "name:ce": "Ğ‘Ğ°Ñ‚Ğ¼Ğ°Ğ½",
        "name:ckb": "Ø¦ÛÙ„Ø­",
        "name:el": "ÎœÏ€Î±Ï„Î¼Î¬Î½",
        "name:fa": "Ø¨Ø§ØªÙ…Ø§Ù†",
        "name:he": "×‘×˜××Ÿ",
        "name:hi": "à¤¬à¥ˆà¤Ÿà¤®à¥ˆà¤¨",
        "name:hy": "Ô²Õ¡Õ©Õ´Õ¡Õ¶",
        "name:ja": "ãƒãƒˆãƒãƒ³",
        "name:ka": "áƒ‘áƒáƒ—áƒ›áƒáƒœáƒ˜",
        "name:ko": "ë°”íŠ¸ë§Œ",
        "name:ku": "ÃŠlih",
        "name:ml": "à´¬à´¾à´¤àµà´®à´¾àµ»",
        "name:ru": "Ğ‘Ğ°Ñ‚Ğ¼Ğ°Ğ½",
        "name:sr": "Ğ‘Ğ°Ñ‚Ğ¼Ğ°Ğ½",
        "name:tr": "Batman",
        "name:tr:suffix": "Belediyesi",
        "name:tt": "Ğ‘Ğ°Ñ‚Ğ¼Ğ°Ğ½",
        "name:uk": "Ğ‘Ğ°Ñ‚Ğ¼Ğ°Ğ½",
        "name:ur": "Ø¨Ø§ØªÙ…Ø§Ù†",
        "name:zh": "å·´ç‰¹æ›¼",
        "place": "city",
        "population": "634491",
        "population:date": "2022",
        "salb:id": "TUR014",
        "salb:name": "Batman",
        "source": "Wikipedia (tr)",
        "wikidata": "Q159835",
        "wikimedia_commons": "Category:Batman, Turkey",
        "wikipedia": "tr:Batman"
      },
      "geometry": {
        "type": "Point",
        "coordinates": [
          41.1277565,
          37.8835738
        ]
      },
      "id": "node/26487469"
    },
    {
      "type": "Feature",
      "properties": {
        "@id": "node/26487666",
        "name": "DiyarbakÄ±r",
        "name:ar": "Ø¯ÙŠØ§Ø± Ø¨ÙƒØ±",
        "name:arc": "ÜÜ¡ÜÜ•",
        "name:azb": "Ø¯ÛŒØ§Ø±Ø¨Ú©Ø±",
        "name:be": "Ğ”Ñ‹ÑÑ€Ğ±Ğ°ĞºÑ‹Ñ€",
        "name:be-tarask": "Ğ”Ñ‹ÑÑ€Ğ±Ğ°ĞºÑ‹Ñ€",
        "name:bg": "Ğ”Ğ¸Ğ°Ñ€Ğ±ĞµĞºĞ¸Ñ€",
        "name:ckb": "Ø¦Ø§Ù…Û•Ø¯",
        "name:de": "Diyarbakir",
        "name:el": "ÎÏ„Î¹Î³Î¹Î¬ÏÎ¼Ï€Î±ÎºÎ¹Ï",
        "name:en": "DiyarbakÄ±r",
        "name:es": "Diyarbakir",
        "name:fa": "Ø¯ÛŒØ§Ø±Ø¨Ú©Ø±",
        "name:grc": "á¼ŒÎ¼Î¹Î´Î±",
        "name:hi": "à¤¡à¤¿à¤¯à¤¾à¤°à¤¬à¤•à¤¿à¤°",
        "name:hy": "Ô´Õ«Õ¡Ö€Õ¢Õ¥Ö„Õ«Ö€",
        "name:ja": "ãƒ‡ã‚£ãƒ¤ãƒ«ãƒã‚¯ãƒ«",
        "name:ka": "áƒ“áƒ˜áƒáƒ áƒ‘áƒáƒ¥áƒ˜áƒ áƒ˜",
        "name:ku": "Amed",
        "name:ml": "à´¦à´¿à´¯à´¾àµ¼à´¬à´•àµà´•à´¿àµ¼",
        "name:ps": "Ø¯ÛŒØ§Ø±Ø¨Ú©Ø±",
        "name:ru": "Ğ”Ğ¸ÑÑ€Ğ±Ğ°ĞºÑ‹Ñ€",
        "name:sr": "Ğ”Ğ¸Ñ˜Ğ°Ñ€Ğ±Ğ°ĞºĞ¸Ñ€",
        "name:syc": "ÜÜ¡ÜÜ•",
        "name:tr": "DiyarbakÄ±r",
        "name:tr:suffix": "BÃ¼yÃ¼kÅŸehir Belediyesi",
        "name:uk": "Ğ”Ñ–ÑÑ€Ğ±Ğ°ĞºĞ¸Ñ€",
        "name:ur": "Ø¯ÛŒØ§Ø± Ø¨Ú©Ø±",
        "name:zza": "Diyarbekir",
        "place": "city",
        "population": "1804880",
        "population:date": "2022",
        "wikidata": "Q83387",
        "wikimedia_commons": "Category:DiyarbakÄ±r",
        "wikipedia": "tr:DiyarbakÄ±r"
      },
      "geometry": {
        "type": "Point",
        "coordinates": [
          40.2363542,
          37.9162222
        ]
      },
      "id": "node/26487666"
    },
    {
      "type": "Feature",
      "properties": {
        "@id": "node/26487670",
        "alt_name": "Antep",
        "alt_name:ml": "à´…à´¨àµà´¤à´¾à´¬àµ;à´à´¨àµà´¤à´¾à´¬àµ",
        "loc_name": "Antep",
        "name": "Gaziantep",
        "name:ar": "Ø¹Ù†ØªØ§Ø¨",
        "name:az": "Qaziantep",
        "name:ba": "Ò’Ğ°Ğ·Ğ¸Ğ°Ğ½Ñ‚ĞµĞ¿",
        "name:be": "Ğ“Ğ°Ğ·Ñ–ÑĞ½Ñ‚ÑĞ¿",
        "name:bg": "Ğ“Ğ°Ğ·Ğ¸Ğ°Ğ½Ñ‚ĞµĞ¿",
        "name:bn": "à¦—à¦¾à¦œà¦¿à§Ÿà¦¾à¦¨à§à¦¤à§‡à¦ª",
        "name:ca": "Gaziantep",
        "name:ce": "Ğ“Ğ°Ğ·Ğ¸Ğ°Ğ½Ñ‚ĞµĞ¿",
        "name:ckb": "Ø¯ÛŒÙ„Û†Ú©",
        "name:cv": "Ğ“Ğ°Ğ·Ğ¸Ğ°Ğ½Ñ‚ĞµĞ¿",
        "name:de": "Gaziantep",
        "name:diq": "Qazianteb",
        "name:el": "Î“ÎºÎ±Î¶Î¹Î±Î½Ï„Î­Ï€",
        "name:en": "Gaziantep",
        "name:es": "Gaziantep",
        "name:fa": "ØºØ§Ø²ÛŒ Ø¹ÛŒÙ†ØªØ§Ø¨",
        "name:fr": "Gaziantep",
        "name:he": "×’×–×™×× ×˜×¤",
        "name:hi": "à¤—à¤¾à¤à¤¿à¤¯à¤¾à¤¨à¥à¤¤à¥‡à¤ª",
        "name:hu": "Gaziantep",
        "name:hy": "Ô±ÕµÕ¶Õ©Õ¡Õº",
        "name:ja": "ã‚¬ã‚¸ã‚¢ãƒ³ãƒ†ãƒ—",
        "name:ka": "áƒ’áƒáƒ–áƒ˜áƒáƒœáƒ—áƒ”áƒ¤áƒ˜",
        "name:kk": "Ğ“Ğ°Ğ·Ğ¸Ğ°Ğ½Ñ‚ĞµĞ¿",
        "name:kn": "à²—à²¾à²œà²¼à²¿ à²†à²‚à²Ÿà³†à²ªà³",
        "name:ko": "ê°€ì§€ì•ˆí…Œí”„",
        "name:ku": "DÃ®lok",
        "name:ky": "Ğ“Ğ°Ğ·Ğ¸Ğ°Ğ½Ñ‚ĞµĞ¿",
        "name:lt": "Gaziantepas",
        "name:lv": "Gaziantepa",
        "name:mk": "Ğ“Ğ°Ğ·Ğ¸Ğ°Ğ½Ñ‚ĞµĞ¿",
        "name:ml": "à´—à´¾à´¸à´¿à´¯à´¨àµà´¤àµ†à´ªàµà´ªàµ",
        "name:mr": "à¤—à¤¾à¤à¤¿à¤¯à¤¾à¤¨à¥à¤¤à¥‡à¤ª",
        "name:nl": "Gaziantep",
        "name:os": "Ğ“Ğ°Ğ·Ğ¸Ğ°Ğ½Ñ‚ĞµĞ¿",
        "name:pa": "à¨—à¨œà¨¿à¨†à¨‚à¨¤à©‡à¨ª",
        "name:ps": "ØºØ§Ø²ÛŒ Ø¢Ù†ØªÙ¾",
        "name:pt": "Gaziantep",
        "name:ru": "Ğ“Ğ°Ğ·Ğ¸Ğ°Ğ½Ñ‚ĞµĞ¿",
        "name:sq": "Gaziantepi",
        "name:sr": "Ğ“Ğ°Ğ·Ğ¸Ñ˜Ğ°Ğ½Ñ‚ĞµĞ¿",
        "name:tg": "Ò’Ğ¾Ğ·Ğ¸Ğ°Ğ¹Ğ½Ñ‚Ğ¾Ğ±",
        "name:th": "à¸à¸²à¸‹à¸µà¸­à¸±à¸™à¹€à¸—à¹‡à¸",
        "name:tr:suffix": "BÃ¼yÃ¼kÅŸehir Belediyesi",
        "name:tt": "Ğ“Ğ°Ğ·Ğ¸Ğ°Ğ½Ñ‚ĞµĞ¿",
        "name:uk": "ÒĞ°Ğ·Ñ–Ğ°Ğ½Ñ‚ĞµĞ¿",
        "name:ur": "ØºØ§Ø²ÛŒ Ø§Ù†ØªÛŒÙ¾",
        "name:zh": "åŠ æµå®‰æ³°æ™®",
        "name:zh-Hans": "åŠ æµå®‰æ³°æ™®",
        "name:zh-Hant": "åŠ æ¿Ÿå®‰æ³°æ™®",
        "place": "city",
        "population": "2164134",
        "population:date": "2023",
        "salb:id": "TUR033",
        "salb:name": "Gaziantep",
        "source": "Wikipedia (tr)",
        "source:population": "DBpedia",
        "wikidata": "Q93338",
        "wikimedia_commons": "Category:Gaziantep",
        "wikipedia": "en:Gaziantep"
      },
      "geometry": {
        "type": "Point",
        "coordinates": [
          37.3792617,
          37.0628317
        ]
      },
      "id": "node/26487670"
    },
    {
      "type": "Feature",
      "properties": {
        "@id": "node/26487717",
        "alt_name:ar": "ÙƒÙ„Ø²;ÙƒÙŠÙ„ÙŠØ³",
        "name": "Kilis",
        "name:ar": "ÙƒÙ„Ø³",
        "name:azb": "Ú©ÛŒÙ„ÛŒØ³",
        "name:bg": "ĞšĞ¸Ğ»Ğ¸Ñ",
        "name:ce": "ĞšĞ¸Ğ»Ğ¸Ñ",
        "name:ckb": "Ú©Ù„ÛŒØ³",
        "name:de": "Kilis",
        "name:el": "ÎšÎ¹Î»Î¯Ï‚",
        "name:en": "Kilis",
        "name:es": "Kilis",
        "name:fa": "Ú©ÛŒÙ„ÛŒØ³",
        "name:fr": "Kilis",
        "name:hy": "Õ”Õ«Õ¬Õ«Õ½",
        "name:it": "Kilis",
        "name:ja": "ã‚­ãƒªã‚¹",
        "name:ka": "áƒ¥áƒ˜áƒšáƒ˜áƒ¡áƒ˜",
        "name:ko": "í‚¬ë¦¬ìŠ¤",
        "name:ku": "KilÃ®s",
        "name:lrc": "Ú©ÛŒÙ„ÛŒØ³",
        "name:lt": "Kilisas",
        "name:lv": "Kilisa",
        "name:ml": "à´•à´¿à´²à´¿à´¸àµ",
        "name:nl": "Kilis",
        "name:no": "Kilis",
        "name:os": "ĞšĞ¸Ğ»Ğ¸Ñ",
        "name:pa": "à¨•à¨¿à¨²à¨¿à¨¸",
        "name:pl": "Kilis",
        "name:pnb": "Ú©ÛŒÙ„Ø³",
        "name:pt": "Kilis",
        "name:ru": "ĞšĞ¸Ğ»Ğ¸Ñ",
        "name:sr": "ĞšĞ¸Ğ»Ğ¸Ñ",
        "name:tg": "ĞšĞ¸Ğ»Ğ¸Ñ",
        "name:tr": "Kilis",
        "name:tr:suffix": "Belediyesi",
        "name:tt": "ĞšĞ¸Ğ»Ğ¸Ñ",
        "name:ug": "ÙƒÙ‰Ù„Ù‰Ø³",
        "name:uk": "ĞšÑ–Ğ»Ñ–Ñ",
        "name:ur": "Ú©ÛŒÙ„ÛŒØ³",
        "name:zh": "åŸºåˆ©æ–¯",
        "place": "city",
        "population": "130825",
        "salb:id": "TUR049",
        "salb:name": "Kilis",
        "wikidata": "Q206881",
        "wikimedia_commons": "Category:Kilis",
        "wikipedia": "tr:Kilis"
      },
      "geometry": {
        "type": "Point",
        "coordinates": [
          37.1146069,
          36.7165552
        ]
      },
      "id": "node/26487717"
    },
    {
      "type": "Feature",
      "properties": {
        "@id": "node/26487735",
        "name": "Mardin",
        "name:ar": "Ù…Ø§Ø±Ø¯ÙŠÙ†",
        "name:bg": "ĞœĞ°Ñ€Ğ´Ğ¸Ğ½",
        "name:ckb": "Ù…ÛØ±Ø¯ÛŒÙ†",
        "name:de": "Mardin",
        "name:el": "ÎœÎ±ÏÎ½Ï„Î¯Î½",
        "name:fa": "Ø§Ø³ØªØ§Ù† Ù…Ø§Ø±Ø¯ÛŒÙ†",
        "name:hi": "à¤®à¤¾à¤°à¥à¤¡à¤¿à¤¨",
        "name:hy": "Õ„Õ¡Ö€Õ¤Õ«Õ¶",
        "name:ku": "MÃªrdÃ®n",
        "name:ml": "à´®à´¾àµ¼à´¦àµ€àµ»",
        "name:ru": "ĞœĞ°Ñ€Ğ´Ğ¸Ğ½",
        "name:sr": "ĞœĞ°Ñ€Ğ´Ğ¸Ğ½",
        "name:tr": "Mardin",
        "name:tr:suffix": "BÃ¼yÃ¼kÅŸehir Belediyesi",
        "name:uk": "ĞœĞ°Ñ€Ğ´Ñ–Ğ½",
        "name:zza": "Mardin",
        "place": "city",
        "population": "133381",
        "population:date": "2022",
        "wikidata": "Q131293",
        "wikimedia_commons": "File:P1040528 Mardin pano.JPG",
        "wikipedia": "tr:Mardin (il)"
      },
      "geometry": {
        "type": "Point",
        "coordinates": [
          40.7354383,
          37.3132581
        ]
      },
      "id": "node/26487735"
    },
    {
      "type": "Feature",
      "properties": {
        "@id": "node/26487743",
        "alt_name": "Urfa;Edessa",
        "alt_name:ml": "à´Šàµ¼à´«",
        "name": "ÅanlÄ±urfa",
        "name:ar": "Ø£ÙˆØ±ÙØ©",
        "name:av": "Ğ£Ñ€Ñ„Ğ°",
        "name:azb": "Ø´Ø§Ù†Ù„ÛŒâ€ŒØ§ÙˆØ±ÙØ§",
        "name:ba": "Ğ¨Ğ°Ğ½Ğ»Ñ‹ÑƒÑ€Ñ„Ğ°",
        "name:be": "Ğ¨Ğ°Ğ½Ğ»Ñ‹ÑÑ€Ñ„Ğ°",
        "name:bg": "Ğ¨Ğ°Ğ½Ğ»ÑŠÑƒÑ€Ñ„Ğ°",
        "name:bn": "à¦‰à¦°à¦«à¦¾",
        "name:ce": "Ğ¨Ğ°Ğ½Ğ»Ğ¸ÑƒÑ€Ñ„Ğ°",
        "name:ckb": "Ú•Ø­Ø§",
        "name:de": "ÅanlÄ±urfa",
        "name:el": "Î£Î±Î½Î»Î¹Î¿ÏÏÏ†Î±",
        "name:en": "ÅanlÄ±urfa",
        "name:es": "Sanliurfa",
        "name:eu": "Urfa",
        "name:fa": "Ø´Ø§Ù†Ù„ÛŒâ€ŒØ§ÙˆØ±ÙÙ‡",
        "name:fr": "ÅanlÄ±urfa",
        "name:grc": "á¼œÎ´ÎµÏƒÏƒÎ±",
        "name:he": "××•×¨×¤×”",
        "name:hi": "à¤¶à¤¾à¤¨à¤²à¤¿à¤‰à¤°à¥à¤«à¤¾",
        "name:hu": "ÅanlÄ±urfa",
        "name:hy": "ÔµÕ¤Õ¥Õ½Õ«Õ¡",
        "name:id": "Sanli Urfa",
        "name:ja": "ã‚·ãƒ£ãƒ³ãƒ«ã‚¦ãƒ«ãƒ•ã‚¡",
        "name:jv": "Urfa",
        "name:ka": "áƒ¨áƒáƒœáƒšáƒ˜áƒ£áƒ áƒ¤áƒ",
        "name:kk": "Ğ¨Ğ°Ğ½Ğ»Ñ‹ÑƒÑ€Ñ„Ğ°",
        "name:ko": "ìƒ¨ë¥´ìš°ë¥´íŒŒ",
        "name:ku": "Riha",
        "name:la": "Edessa",
        "name:lt": "Urfa",
        "name:lv": "Å anliurfa",
        "name:ml": "à´·à´¾àµ»à´²à´¿à´¯àµ‚àµ¼à´«",
        "name:nl": "ÅanlÄ±urfa",
        "name:os": "Ğ¨Ğ°Ğ½Ğ»Ñ‹ÑƒÑ€Ñ„Ã¦",
        "name:ps": "Ø´Ø§Ù†Ù„ÙŠ Ø§ÙˆØ±ÙØ§",
        "name:pt": "Xanleurfa",
        "name:ru": "Ğ¨Ğ°Ğ½Ğ»Ñ‹ÑƒÑ€Ñ„Ğ°",
        "name:sq": "ShanllÃ«urfa",
        "name:sr": "Ğ¨Ğ°Ğ½Ğ»Ğ¸Ñ˜ÑƒÑ€Ñ„Ğ°",
        "name:tg": "Ğ¨Ğ°Ğ½Ğ»Ğ¸ÑƒÑ€Ñ„Ğ°",
        "name:th": "à¸Šà¸±à¸™à¸¥à¸·à¸­à¸­à¸¹à¸£à¹Œà¸Ÿà¸²",
        "name:tr": "ÅanlÄ±urfa",
        "name:tr:suffix": "BÃ¼yÃ¼kÅŸehir Belediyesi",
        "name:tt": "Ğ¨Ğ°Ğ½Ğ»Ñ‹ÑƒÑ€Ñ„Ğ°",
        "name:uk": "Ğ¨Ğ°Ğ½Ğ»Ğ¸ÑƒÑ€Ñ„Ğ°",
        "name:ur": "Ø´Ø§Ù†Ù„ÛŒ Ø§ÙˆØ±ÙÛ",
        "name:uz": "Shanliurfa",
        "name:vi": "Urfa",
        "name:zh": "å°šå‹’çƒçˆ¾æ³•",
        "name:zza": "RÄ±ha",
        "place": "city",
        "population": "2143020",
        "population:date": "2021",
        "wikidata": "Q133118",
        "wikimedia_commons": "File:ÅanlÄ±urfa skyline.jpg",
        "wikipedia": "tr:ÅanlÄ±urfa"
      },
      "geometry": {
        "type": "Point",
        "coordinates": [
          38.791929,
          37.1596239
        ]
      },
      "id": "node/26487743"
    },
    {
      "type": "Feature",
      "properties": {
        "@id": "node/26487823",
        "alt_name:ml": "à´¸àµ€àµ¼à´¦àµ",
        "name": "Siirt",
        "name:ar": "Ø³Ø¹Ø±Ø¯",
        "name:bg": "Ğ¡Ğ¸Ğ¸Ñ€Ñ‚",
        "name:ckb": "Ø³ÛØ±Øª",
        "name:el": "Î£ÏÏÏ„Î·",
        "name:fa": "Ø³Ø¹Ø±Ø¯",
        "name:hy": "ÕÕ²Õ¥Ö€Õ¤",
        "name:ja": "ã‚¹ã‚£ã‚¤ãƒ«ãƒˆ",
        "name:ka": "áƒ¡áƒ˜áƒ˜áƒ áƒ—áƒ˜",
        "name:ko": "ì‹œì´ë¥´íŠ¸",
        "name:ku": "SÃªrt",
        "name:ml": "à´¸àµ€àµ¼à´¤àµà´¤àµ",
        "name:ru": "Ğ¡Ğ¸Ğ¸Ñ€Ñ‚",
        "name:sr": "Ğ¡Ğ¸Ñ€Ñ‚",
        "name:tr:suffix": "Belediyesi",
        "name:uk": "Ğ¡Ñ–Ñ—Ñ€Ñ‚",
        "name:ur": "Ø³Ø¹Ø±Ø¯",
        "name:zh": "éŒ«çˆ¾ç‰¹",
        "name:zza": "SÃªrt",
        "place": "city",
        "population": "331980",
        "population:date": "2021",
        "source": "Wikipedia (tr)",
        "wikidata": "Q185084",
        "wikimedia_commons": "Category:Siirt",
        "wikipedia": "tr:Siirt"
      },
      "geometry": {
        "type": "Point",
        "coordinates": [
          41.94218,
          37.9273623
        ]
      },
      "id": "node/26487823"
    },
    {
      "type": "Feature",
      "properties": {
        "@id": "node/26487882",
        "name": "ÅÄ±rnak",
        "name:ar": "Ø´Ø±Ù†Ø§Ù‚",
        "name:arc": "Ü«ÜÜªÜ¢ÜÜŸ",
        "name:az": "ÅÄ±rnak",
        "name:azb": "Ø´ÛŒØ±Ù†Ø§Ù‚",
        "name:ce": "Ğ¨Ğ¸Ñ€Ğ½Ğ°Ğº",
        "name:ckb": "Ø´Ø±Ù†Û•Ø®",
        "name:crh": "ÅÄ±rnak",
        "name:cs": "ÅÄ±rnak",
        "name:de": "ÅÄ±rnak",
        "name:diq": "ÅÄ±rnaq",
        "name:el": "Î£Î¹ÏÎ½Î¬Îº",
        "name:en": "ÅÄ±rnak",
        "name:eo": "ÅÄ±rnak",
        "name:es": "ÅÄ±rnak",
        "name:fa": "Ø´Ø±Ù†Ø§Ù‚",
        "name:fi": "ÅÄ±rnak",
        "name:fr": "ÅÄ±rnak",
        "name:hy": "Õ‡Õ¥Ö€Õ¶Õ¡Õ¯",
        "name:it": "ÅÄ±rnak",
        "name:ja": "ã‚·ãƒ¥ãƒ«ãƒŠã‚¯",
        "name:ka": "áƒ¨áƒ˜áƒ áƒœáƒáƒ¥áƒ˜",
        "name:kaa": "ÅÄ±rnak",
        "name:ko": "ì‹œë¥´ë‚˜í¬",
        "name:ku": "Åirnex",
        "name:min": "ÅÄ±rnak",
        "name:ml": "à´·à´¿àµ¼à´¨à´¾à´•àµà´•àµ",
        "name:mrj": "Ğ¨Ñ‹Ñ€Ğ½Ğ°Ğº",
        "name:ms": "ÅÄ±rnak",
        "name:na": "ÅÄ±rnak",
        "name:nl": "ÅÄ±rnak",
        "name:no": "ÅÄ±rnak",
        "name:pa": "à¨¸à¨¿à¨°à¨¨à¨¾à¨•",
        "name:pl": "ÅÄ±rnak",
        "name:pnb": "Ø´Ø±Ù†Ø§Ú©",
        "name:pt": "ÅÄ±rnak",
        "name:ro": "ÅÄ±rnak",
        "name:ru": "Ğ¨Ñ‹Ñ€Ğ½Ğ°Ğº",
        "name:rw": "ÅÄ±rnak",
        "name:sco": "ÅÄ±rnak",
        "name:sh": "ÅÄ±rnak",
        "name:sr": "Ğ¨Ğ¸Ñ€Ğ½Ğ°Ğº",
        "name:sw": "ÅÄ±rnak",
        "name:tg": "Ğ¨Ğ¸Ñ€Ğ½Ğ°Ğº",
        "name:tr": "ÅÄ±rnak",
        "name:tr:suffix": "Belediyesi",
        "name:tt": "Ğ¨Ñ‹Ñ€Ğ½Ğ°Ğº",
        "name:udm": "Ğ¨Ñ‹Ñ€Ğ½Ğ°Ğº",
        "name:uk": "Ğ¨Ğ¸Ñ€Ğ½Ğ°Ğº",
        "name:ur": "Ø´Ø±Ù†Ø§Ù‚",
        "name:vi": "ÅÄ±rnak",
        "name:war": "ÅÄ±rnak",
        "name:zh": "èˆçˆ¾ç´å…‹",
        "name:zh-Hans": "èˆå°”çº³å…‹",
        "place": "city",
        "population": "69338",
        "population:date": "2021",
        "salb:id": "TUR071",
        "source": "Wikipedia (tr)",
        "wikidata": "Q131495",
        "wikimedia_commons": "Category:ÅÄ±rnak",
        "wikipedia": "tr:ÅÄ±rnak"
      },
      "geometry": {
        "type": "Point",
        "coordinates": [
          42.4570311,
          37.5219577
        ]
      },
      "id": "node/26487882"
    },
    {
      "type": "Feature",
      "properties": {
        "@id": "node/212488422",
        "alt_name:ur": "Ø§Ø³Ù¾Ø§Ø±ØªØ§",
        "name": "Isparta",
        "name:ar": "Ø¥Ø³Ø¨Ø±Ø·Ø©",
        "name:az": "Ä°sparta",
        "name:be": "Ğ«ÑĞ¿Ğ°Ñ€Ñ‚Ğ°",
        "name:bg": "ĞªÑĞ¿Ğ°Ñ€Ñ‚Ğ°",
        "name:ce": "Ğ˜ÑĞ¿Ğ°Ñ€Ñ‚Ğ°",
        "name:el": "Î™ÏƒÏ€Î¬ÏÏ„Î±",
        "name:en": "Isparta",
        "name:fa": "Ø§Ø³Ù¾Ø§Ø±ØªØ§",
        "name:he": "××¡×¤×¨×˜×”",
        "name:hi": "à¤‡à¤¸à¥à¤ªà¤¾à¤°à¥à¤Ÿà¤¾",
        "name:hu": "Isparta",
        "name:hy": "Ô¸Õ½ÖƒÕ¡Ö€Õ©Õ¡",
        "name:ja": "ã‚¦ã‚¹ãƒ‘ãƒ«ã‚¿",
        "name:ka": "áƒ˜áƒ¡áƒáƒáƒ áƒ¢áƒ",
        "name:kk": "Ğ«ÑĞ¿Ğ°Ñ€Ñ‚Ğ°",
        "name:ko": "ì´ìŠ¤íŒŒë¥´íƒ€",
        "name:ml": "à´‡à´¸àµà´ªà´¾àµ¼à´¤àµà´¤",
        "name:nl": "Isparta",
        "name:os": "Ğ«ÑĞ¿Ğ°Ñ€Ñ‚Ğ°",
        "name:pt": "Esparta",
        "name:ru": "Ğ«ÑĞ¿Ğ°Ñ€Ñ‚Ğ°",
        "name:sr": "Ğ˜ÑĞ¿Ğ°Ñ€Ñ‚Ğ°",
        "name:tg": "Ğ˜ÑĞ¿Ğ°Ñ€Ñ‚Ğ°",
        "name:tk": "Ysparta",
        "name:tr:suffix": "Belediyesi",
        "name:tt": "Ğ˜ÑĞ¿Ğ°Ñ€Ñ‚Ğ°",
        "name:uk": "Ğ˜ÑĞ¿Ğ°Ñ€Ñ‚Ğ°",
        "name:ur": "Ø§Ø³Ù¾Ø§Ø±Ø·Û",
        "name:zh": "å„æ–¯å¸•çˆ¾å¡”",
        "old_name": "Hamidabad;Isbarta;Sabarta;Baris;Î’Î¬ÏÎ¹Ï‚;Î£Ï€Î¬ÏÏ„Î· Ï„Î·Ï‚ Î Î¹ÏƒÎ¹Î´Î¯Î±Ï‚;Î’Î¬ÏÎ·",
        "old_name:el": "Î£Ï€Î¬ÏÏ„Î·",
        "place": "city",
        "population": "427324",
        "salb:adm1name": "Isparta",
        "salb:adm2name": "Isparta Merkez Ilcesi",
        "salb:id": "TUR040013",
        "salb:name": "Isparta",
        "source": "Wikipedia (tr)",
        "wikidata": "Q171031",
        "wikimedia_commons": "Category:Isparta",
        "wikipedia": "tr:Isparta"
      },
      "geometry": {
        "type": "Point",
        "coordinates": [
          30.5550569,
          37.7636722
        ]
      },
      "id": "node/212488422"
    },
    {
      "type": "Feature",
      "properties": {
        "@id": "node/289534897",
        "name": "Bursa",
        "name:ar": "Ø¨ÙˆØ±ØµØ©",
        "name:bg": "Ğ‘ÑƒÑ€ÑĞ°",
        "name:bn": "à¦¬à§à¦°à¦¸à¦¾",
        "name:ce": "Ğ‘ÑƒÑ€ÑĞ°",
        "name:ckb": "Ø¨ÙˆØ±Ø³Ø§",
        "name:de": "Bursa",
        "name:el": "Î ÏÎ¿ÏÏƒÎ±",
        "name:en": "Bursa",
        "name:es": "Bursa",
        "name:fa": "Ø¨ÙˆØ±Ø³Ø§",
        "name:fr": "Bursa",
        "name:he": "×‘×•×¨×¡×”",
        "name:hi": "à¤¬à¥à¤°à¥à¤¸à¤¾",
        "name:hu": "Bursa",
        "name:hy": "Ô²Õ¸Ö‚Ö€Õ½Õ¡",
        "name:it": "Bursa",
        "name:ja": "ãƒ–ãƒ«ã‚µ",
        "name:ka": "áƒ‘áƒ£áƒ áƒ¡áƒ",
        "name:kk": "Ğ‘ÑƒÑ€ÑĞ°",
        "name:kn": "à²¬à³à²°à³à²¸à²¾",
        "name:ko": "ë¶€ë¥´ì‚¬",
        "name:ku": "Bursa",
        "name:mk": "Ğ‘ÑƒÑ€ÑĞ°",
        "name:ml": "à´¬àµàµ¼à´¸",
        "name:mr": "à¤¬à¥à¤°à¥à¤¸à¤¾",
        "name:ne": "à¤¬à¥à¤°à¥à¤¸à¤¾",
        "name:nl": "Bursa",
        "name:no": "Bursa",
        "name:os": "Ğ‘ÑƒÑ€ÑÃ¦",
        "name:pl": "Bursa",
        "name:pnb": "Ø¨Ø±ØµÛ",
        "name:ps": "Ø¨ÙˆØ±ØµÙ‡",
        "name:pt": "Bursa",
        "name:ro": "Bursa",
        "name:ru": "Ğ‘ÑƒÑ€ÑĞ°",
        "name:sr": "Ğ‘ÑƒÑ€ÑĞ°",
        "name:sv": "Bursa",
        "name:ta": "à®ªà¯à®°à¯à®šà®¾",
        "name:tg": "Ğ‘ÑƒÑ€ÑĞ¾",
        "name:th": "à¸šà¸¹à¸£à¹Œà¸‹à¸²",
        "name:tr": "Bursa",
        "name:tr:suffix": "BÃ¼yÃ¼kÅŸehir Belediyesi",
        "name:ug": "Ø¨Û‡Ø±Ø³Ø§",
        "name:uk": "Ğ‘ÑƒÑ€ÑĞ°",
        "name:ur": "Ø¨ÙˆØ±ØµÛ",
        "name:zh": "å¸ƒå°”è¨",
        "place": "city",
        "population": "3238618",
        "population:date": "2025",
        "salb:id": "TUR016",
        "salb:name": "Bursa",
        "wikidata": "Q40738",
        "wikimedia_commons": "Category:Bursa",
        "wikipedia": "tr:Bursa"
      },
      "geometry": {
        "type": "Point",
        "coordinates": [
          29.0675039,
          40.1825734
        ]
      },
      "id": "node/289534897"
    },
    {
      "type": "Feature",
      "properties": {
        "@id": "node/428039507",
        "alt_name:ml": "à´¸àµà´®à´¿àµ¼à´£",
        "name": "Ä°zmir",
        "name:af": "Izmir",
        "name:am": "áŠ¢á‹áˆšáˆ­",
        "name:ar": "Ø¥Ø²Ù…ÙŠØ±",
        "name:ast": "Esmirna",
        "name:av": "Ğ˜Ğ·Ğ¼Ğ¸Ñ€",
        "name:az": "Ä°zmir",
        "name:ba": "Ğ˜Ğ·Ğ¼Ğ¸Ñ€",
        "name:be": "Ğ†Ğ·Ğ¼Ñ–Ñ€",
        "name:bg": "Ğ˜Ğ·Ğ¼Ğ¸Ñ€",
        "name:bm": "Ä°zmir",
        "name:bn": "à¦‡à¦œà¦®à¦¿à¦°",
        "name:br": "Ä°zmir",
        "name:bs": "Izmir",
        "name:ca": "Esmirna",
        "name:ce": "Ğ˜Ğ·Ğ¼Ğ¸Ñ€",
        "name:ceb": "Ä°zmir",
        "name:ckb": "Ø¦ÛŒØ²Ù…ÛŒØ±",
        "name:cs": "Smyrna",
        "name:cv": "Ğ˜Ğ·Ğ¼Ğ¸Ñ€",
        "name:cy": "Ä°zmir",
        "name:da": "Izmir",
        "name:de": "Izmir",
        "name:el": "Î£Î¼ÏÏÎ½Î·",
        "name:en": "Ä°zmir",
        "name:eo": "Izmiro",
        "name:es": "Esmirna",
        "name:et": "Ä°zmir",
        "name:eu": "Esmirna",
        "name:fa": "Ø§Ø²Ù…ÛŒØ±",
        "name:fi": "Smyrna",
        "name:fo": "Izmir",
        "name:fr": "Izmir",
        "name:fy": "Izmir",
        "name:gd": "Ä°zmir",
        "name:gl": "Esmirna",
        "name:ha": "Izmir",
        "name:he": "××™×–××™×¨",
        "name:hi": "à¤‡à¤œà¤¼à¤®à¤¿à¤°",
        "name:hr": "Ä°zmir",
        "name:hu": "Ä°zmir",
        "name:hy": "Ô»Õ¦Õ´Õ«Ö€",
        "name:ia": "Izmir",
        "name:id": "Ä°zmir",
        "name:ie": "Izmir",
        "name:io": "Ä°zmir",
        "name:it": "Smirne",
        "name:ja": "ã‚¤ã‚ºãƒŸãƒ«",
        "name:ka": "áƒ˜áƒ–áƒ›áƒ˜áƒ áƒ˜",
        "name:kaa": "Ä°zmir",
        "name:ki": "Ä°zmir",
        "name:kk": "Ğ˜Ğ·Ğ¼Ğ¸Ñ€",
        "name:kn": "à²ˆà²à³à²¨à³€à²°à³",
        "name:ko": "ì´ì¦ˆë¯¸ë¥´",
        "name:ku": "IzmÃ®r",
        "name:ky": "Ğ˜Ğ·Ğ¼Ğ¸Ñ€",
        "name:la": "Smyrna",
        "name:lad": "Izmir",
        "name:lad-Hebr": "××™×–××™×¨",
        "name:lb": "Izmir",
        "name:lfn": "Izmir",
        "name:li": "Ä°zmir",
        "name:lt": "Izmiras",
        "name:lv": "Izmira",
        "name:min": "Ä°zmir",
        "name:mk": "Ğ˜Ğ·Ğ¼Ğ¸Ñ€",
        "name:ml": "à´‡à´¸àµà´®àµ€àµ¼",
        "name:mrj": "à¤‡à¤à¥à¤®à¤¿à¤°",
        "name:ms": "Ä°zmir",
        "name:myv": "Ğ˜Ğ·Ğ¼Ğ¸Ñ€",
        "name:na": "Ä°zmir",
        "name:nl": "Ä°zmir",
        "name:no": "Izmir",
        "name:oc": "Esmirna",
        "name:os": "Ğ˜Ğ·Ğ¼Ğ¸Ñ€",
        "name:ota": "Ø§Ø²Ù…ÛŒØ±",
        "name:pa": "à¨‡à¨œà¨¼à¨®à¨¿à¨°",
        "name:pl": "Izmir",
        "name:ps": "Ø§Ø²Ù…ÙŠØ±",
        "name:pt": "Esmirna",
        "name:qu": "Ä°zmir",
        "name:ro": "Ä°zmir",
        "name:ru": "Ğ˜Ğ·Ğ¼Ğ¸Ñ€",
        "name:rw": "Ä°zmir",
        "name:sco": "Ä°zmir",
        "name:sk": "Izmir",
        "name:sl": "Ä°zmir",
        "name:so": "Ä°zmir",
        "name:sq": "Izmiri",
        "name:sr": "Ğ˜Ğ·Ğ¼Ğ¸Ñ€",
        "name:sv": "Izmir",
        "name:sw": "Ä°zmir",
        "name:szl": "Ä°zmir",
        "name:ta": "à®‡à®šà¯à®®à¯€à®°à¯",
        "name:tg": "Ğ˜Ğ·Ğ¼Ğ¸Ñ€",
        "name:th": "à¸­à¸´à¸‹à¸¡à¸µà¸£à¹Œ",
        "name:tl": "Ä°zmir",
        "name:tr": "Ä°zmir",
        "name:tr:suffix": "BÃ¼yÃ¼kÅŸehir Belediyesi",
        "name:tt": "Ğ˜Ğ·Ğ¼Ğ¸Ñ€",
        "name:tum": "Ä°zmir",
        "name:tw": "Izmir",
        "name:udm": "Ğ˜Ğ·Ğ¼Ğ¸Ñ€",
        "name:ug": "Izmir",
        "name:uk": "Ğ†Ğ·Ğ¼Ñ–Ñ€",
        "name:ur": "Ø§Ø²Ù…ÛŒØ±",
        "name:uz": "Izmir",
        "name:vec": "Smirne",
        "name:vep": "Izmir",
        "name:vi": "Ä°zmir",
        "name:war": "Izmir",
        "name:xmf": "áƒ˜áƒ–áƒ›áƒ˜áƒ áƒ˜",
        "name:yi": "××™×–××™×¨",
        "name:zh": "ä¼Šå…¹å¯†å°”",
        "old_name": "Smyrna",
        "old_name:sk": "Smyrna",
        "place": "city",
        "population": "4493242",
        "salb:id": "TUR042",
        "salb:name": "Izmir",
        "source": "Wikipedia",
        "source:name:oc": "Lo CongrÃ¨s",
        "wikidata": "Q35997",
        "wikimedia_commons": "Category:Ä°zmir",
        "wikipedia": "tr:Ä°zmir"
      },
      "geometry": {
        "type": "Point",
        "coordinates": [
          27.128469,
          38.4192537
        ]
      },
      "id": "node/428039507"
    },
    {
      "type": "Feature",
      "properties": {
        "@id": "node/428039517",
        "admin_level": "4",
        "capital": "4",
        "geonames:id": "323777",
        "name": "Antalya",
        "name:ab": "ĞĞ½Ò­Ğ°Ğ»Ğ¸Ğ°",
        "name:af": "Antalya",
        "name:ar": "Ø£Ù†Ø·Ø§Ù„ÙŠØ§",
        "name:arz": "Ø§Ù†Ø·Ø§Ù„ÙŠØ§",
        "name:av": "ĞĞ½Ñ‚Ğ°Ğ»Ğ¸Ñ",
        "name:az": "Antalya",
        "name:azb": "Ø¢Ù†ØªØ§Ù„ÛŒØ§",
        "name:ba": "ĞĞ½Ñ‚Ğ°Ğ»ÑŒÑ",
        "name:be": "ĞĞ½Ñ‚Ğ°Ğ»ÑŒÑ",
        "name:be-tarask": "ĞĞ½Ñ‚Ğ°Ğ»ÑŒÑ",
        "name:bg": "ĞĞ½Ñ‚Ğ°Ğ»Ğ¸Ñ",
        "name:bn": "à¦†à¦¨à¦¤à¦¾à¦²à¦¿à§Ÿà¦¾",
        "name:br": "Antalya",
        "name:bs": "Antalya",
        "name:ca": "Antalya",
        "name:ce": "ĞĞ½Ñ‚Ğ°Ğ»Ğ¸",
        "name:ceb": "Antalya",
        "name:ckb": "Ø¦Ø§Ù†ØªØ§Ù„ÛŒØ§",
        "name:cs": "Antalya",
        "name:cv": "ĞĞ½Ñ‚Ğ°Ğ»ÑŒÑ",
        "name:cy": "Antalya",
        "name:da": "Antalya",
        "name:de": "Antalya",
        "name:diq": "Antalya",
        "name:el": "Î‘Ï„Ï„Î¬Î»ÎµÎ¹Î±",
        "name:en": "Antalya",
        "name:eo": "Antalya",
        "name:es": "Antalya",
        "name:et": "Antalya",
        "name:eu": "Antalya",
        "name:fa": "Ø¢Ù†ØªØ§Ù„ÛŒØ§",
        "name:fi": "Antalya",
        "name:fr": "Antalya",
        "name:gag": "Antalya",
        "name:gd": "Antalya",
        "name:gl": "Antalya",
        "name:ha": "Antalya",
        "name:he": "×× ×˜×œ×™×”",
        "name:hi": "à¤…à¤‚à¤¤à¤¾à¤²à¥à¤¯à¤¾",
        "name:hr": "Antalya",
        "name:hu": "Antalya",
        "name:hy": "Ô±Õ¶Õ©Õ¡Õ¬Õ«Õ¡",
        "name:id": "Antalya",
        "name:io": "Antalya",
        "name:it": "Adalia",
        "name:ja": "ã‚¢ãƒ³ã‚¿ãƒ«ãƒ¤",
        "name:ka": "áƒáƒœáƒ—áƒáƒšáƒ˜áƒ",
        "name:kaa": "Antalya",
        "name:kk": "ĞĞ½Ñ‚Ğ°Ğ»Ğ¸Ğ°",
        "name:ko": "ì•ˆíƒˆë¦¬ì•„",
        "name:ku": "Antalya",
        "name:ky": "ĞĞ½Ñ‚Ğ°Ğ»ÑŒÑ",
        "name:la": "Attalea",
        "name:lbe": "ĞĞ½Ñ‚Ğ°Ğ»ÑŒÑ",
        "name:lt": "Antalija",
        "name:lv": "Antalja",
        "name:mhr": "ĞĞ½Ñ‚Ğ°Ğ»ÑŒÑ",
        "name:min": "Antalya",
        "name:mk": "ĞĞ½Ñ‚Ğ°Ğ»Ğ¸Ñ˜Ğ°",
        "name:ml": "à´…à´¨àµà´¤à´¾à´²àµà´¯",
        "name:mr": "à¤…à¤‚à¤¤à¤¾à¤²à¥à¤¯à¤¾",
        "name:mrj": "ĞĞ½Ñ‚Ğ°Ğ»ÑŒÑ",
        "name:ms": "Antalya",
        "name:myv": "ĞĞ½Ñ‚Ğ°Ğ»ÑŒÑ",
        "name:na": "Antalya",
        "name:nl": "Antalya",
        "name:nn": "Antalya",
        "name:no": "Antalya",
        "name:os": "ĞĞ½Ñ‚Ğ°Ğ»ÑŒÑ",
        "name:pl": "Antalya",
        "name:pnb": "Ø¢Ù†ØªØ§Ù„ÛŒØ§",
        "name:ps": "Ø§Ù†ØªØ§Ù„ÛŒØ§",
        "name:pt": "AntÃ¡lia",
        "name:ro": "Antalya",
        "name:ru": "ĞĞ½Ñ‚Ğ°Ğ»ÑŒÑ",
        "name:rw": "Antalya",
        "name:sco": "Antalya",
        "name:sd": "Ø§Ù†ØªØ§Ù„ÙŠØ§",
        "name:sh": "Antalya",
        "name:simple": "Antalya",
        "name:sk": "Antalya",
        "name:sl": "Antalya",
        "name:so": "Antalya",
        "name:sq": "Antalia",
        "name:sr": "ĞĞ½Ñ‚Ğ°Ğ»Ğ¸Ñ˜Ğ°",
        "name:sv": "Antalya",
        "name:sw": "Antalya",
        "name:szl": "Alanya",
        "name:ta": "à®†à®¨à¯à®¤à®¾à®²à®¿à®¯à®¾",
        "name:tg": "ĞĞ½Ñ‚Ğ°Ğ»Ğ¸Ñ‘",
        "name:th": "à¸­à¸±à¸™à¸—à¸±à¸¥à¸¢à¸²",
        "name:tr": "Antalya",
        "name:tr:suffix": "BÃ¼yÃ¼kÅŸehir Belediyesi",
        "name:tt": "ĞĞ½Ñ‚Ğ°Ğ»Ğ¸Ñ",
        "name:tum": "Antalya",
        "name:tw": "Antalya",
        "name:udm": "ĞĞ½Ñ‚Ğ°Ğ»ÑŒÑ",
        "name:uk": "ĞĞ½Ñ‚Ğ°Ğ»Ñ–Ñ",
        "name:ur": "Ø§Ù†Ø·Ø§Ù„ÛŒÛ",
        "name:uz": "Antaliya",
        "name:vep": "Antal'j",
        "name:vi": "Antalya",
        "name:war": "Antalya",
        "name:wo": "Atali",
        "name:wuu": "å®‰å¡”åˆ©äºš",
        "name:yue": "å®‰å¡”åˆ©äº",
        "name:zh": "å®‰å¡”åˆ©äºš",
        "old_name": "Adalia;Attaleia",
        "place": "city",
        "population": "2722103",
        "population:date": "2025",
        "salb:adm1name": "Antalya",
        "salb:id": "TUR008015",
        "salb:name": "Antalya",
        "source": "Wikipedia (tr)",
        "wikidata": "Q6487",
        "wikimedia_commons": "Category:Antalya",
        "wikipedia": "tr:Antalya"
      },
      "geometry": {
        "type": "Point",
        "coordinates": [
          30.7030242,
          36.8865728
        ]
      },
      "id": "node/428039517"
    },
    {
      "type": "Feature",
      "properties": {
        "@id": "node/512552945",
        "alt_name:azb": "Ø·Ø±Ø¨Ø²ÙˆÙ†",
        "alt_name:grc": "Î¤ÏÎ±Ï€ÎµÎ¶Î¿ÏÎ½Ï„Î±",
        "name": "Trabzon",
        "name:af": "Trabzon",
        "name:an": "Trapesonda",
        "name:ar": "Ø·Ø±Ø§Ø¨Ø²ÙˆÙ†",
        "name:ast": "Trebisonda",
        "name:az": "Trabzon",
        "name:azb": "ØªØ±Ø§Ø¨Ø²ÙˆÙ†",
        "name:ba": "Ğ¢Ñ€Ğ°Ğ±Ğ·Ğ¾Ğ½",
        "name:be": "Ğ¢Ñ€Ğ°Ğ±Ğ·Ğ¾Ğ½",
        "name:be-tarask": "Ğ¢Ñ€Ğ°Ğ±Ğ·Ğ¾Ğ½",
        "name:bg": "Ğ¢Ñ€Ğ°Ğ±Ğ·Ğ¾Ğ½",
        "name:br": "Trabzon",
        "name:ca": "Trebisonda",
        "name:ce": "Ğ¢Ñ€Ğ°Ğ±Ğ·Ğ¾Ğ½",
        "name:ceb": "Trabzon",
        "name:ckb": "ØªØ±Ø§Ø¨Ø²Û†Ù†",
        "name:cs": "Trabzon",
        "name:cy": "Trabzon",
        "name:da": "Trabzon",
        "name:de": "Trabzon",
        "name:diq": "Trabzon",
        "name:dsb": "Trabzon",
        "name:el": "Î¤ÏÎ±Ï€ÎµÎ¶Î¿ÏÎ½Ï„Î±",
        "name:en": "Trabzon",
        "name:eo": "Trabzon",
        "name:es": "Trebisonda",
        "name:et": "Trabzon",
        "name:eu": "Trabzon",
        "name:fa": "Ø·Ø±Ø¨Ø²ÙˆÙ†",
        "name:fi": "Trabzon",
        "name:fr": "Trabzon",
        "name:gag": "Trabzon",
        "name:gl": "Trabzon",
        "name:grc": "TÏÎ±Ï€ÎµÎ¶Î¿á¿¦Ï‚",
        "name:he": "×˜×¨×‘×–×•×Ÿ",
        "name:hi": "à¤Ÿà¥à¤°à¤¾à¤¬à¥à¤œà¤¼à¤¨",
        "name:hr": "Trabzon",
        "name:hu": "Trabzon",
        "name:hy": "ÕÖ€Õ¡ÕºÕ«Õ¦Õ¸Õ¶",
        "name:hyw": "ÕÖ€Õ¡ÕºÕ«Õ¦Õ¸Õ¶",
        "name:id": "Trabzon",
        "name:ie": "Trabzon",
        "name:it": "Trebisonda",
        "name:ja": "ãƒˆãƒ©ãƒ–ã‚¾ãƒ³",
        "name:ka": "áƒ¢áƒáƒ›áƒ¢áƒ áƒ",
        "name:kaa": "Trabzon",
        "name:kk": "Ğ¢Ñ€Ğ°Ğ±Ğ·Ğ¾Ğ½",
        "name:ko": "íŠ¸ë¼ë¸Œì¡´",
        "name:ku": "Trebzon",
        "name:la": "Trapezus",
        "name:lij": "Trabizonda",
        "name:lmo": "Trabisonda",
        "name:lt": "Trabzonas",
        "name:lv": "Trabzona",
        "name:lzz": "Å¤rabuzeni",
        "name:lzz-Geor": "áƒ¢áƒ áƒáƒ‘áƒ£áƒ–áƒ”áƒœáƒ˜",
        "name:mhr": "Ğ¢Ñ€Ğ°Ğ±Ğ·Ğ¾Ğ½",
        "name:min": "Trabzon",
        "name:mk": "Ğ¢Ñ€Ğ°Ğ±Ğ·Ğ¾Ğ½",
        "name:ml": "à´¤àµà´°à´¬àµà´¸àµ‹àµº",
        "name:mrj": "Ğ¢Ñ€Ğ°Ğ±Ğ·Ğ¾Ğ½",
        "name:ms": "Trabzon",
        "name:na": "Trabzon",
        "name:nap": "Trebisonda",
        "name:nl": "Trabzon",
        "name:no": "Trabzon",
        "name:os": "Ğ¢Ñ€Ğ°Ğ±Ğ·Ğ¾Ğ½",
        "name:ota": "Ø·Ø±Ø¨Ø²ÙˆÙ†",
        "name:pa": "à¨¤à¨°à¨¾à¨¬à¨œà¨¼à©‹à¨¨",
        "name:pl": "Trabzon",
        "name:pnb": "ØªØ±Ø§Ø¨Ø²ÙˆÙ†",
        "name:pnt": "Î¤ÏÎ±Ï€ÎµÎ¶Î¿ÏÎ½Ï„Î±",
        "name:pt": "Trebizonda",
        "name:ro": "Trabzon",
        "name:ru": "Ğ¢Ñ€Ğ°Ğ±Ğ·Ğ¾Ğ½",
        "name:rw": "Trabzon",
        "name:sco": "Trabzon",
        "name:sh": "Trabzon",
        "name:sk": "Trabzon",
        "name:so": "Trabzon",
        "name:sq": "Trabzoni",
        "name:sr": "Ğ¢Ñ€Ğ°Ğ±Ğ·Ğ¾Ğ½",
        "name:sv": "Trabzon",
        "name:sw": "Trabzon",
        "name:tg": "Ğ¢Ñ€Ğ°Ğ±Ğ·Ğ¾Ğ½",
        "name:th": "à¸—à¸£à¸±à¸šà¸‹à¸­à¸™",
        "name:tr": "Trabzon",
        "name:tr:suffix": "BÃ¼yÃ¼kÅŸehir Belediyesi",
        "name:tt": "Ğ¢Ñ€Ğ°Ğ±Ğ·ÑƒĞ½",
        "name:tw": "Trabzon",
        "name:udm": "Ğ¢Ñ€Ğ°Ğ±Ğ·Ğ¾Ğ½",
        "name:uk": "Ğ¢Ñ€Ğ°Ğ±Ğ·Ğ¾Ğ½",
        "name:ur": "Ø·Ø±Ø§Ø¨Ø²ÙˆÙ†",
        "name:uz": "Trabzon",
        "name:vep": "Trabzon",
        "name:vi": "Trabzon",
        "name:vo": "Trabzon",
        "name:war": "Trabzon",
        "name:wuu": "ç‰¹æ‹‰å¸ƒå®—",
        "name:xmf": "áƒ¢áƒ áƒáƒáƒ˜áƒ–áƒáƒœáƒ˜",
        "name:zh": "ç‰¹æ‹‰å¸ƒå®—",
        "old_name": "TrÃ©bizonde;Trapesuz",
        "old_name:de": "Trapezunt",
        "old_name:es": "Trebisonda",
        "old_name:fr": "Trebizonde",
        "old_name:it": "Trapesunta",
        "old_name:nl": "Trebizonde",
        "place": "city",
        "population": "816684",
        "population:date": "31-12-2021",
        "wikidata": "Q45301",
        "wikimedia_commons": "Category:Trabzon",
        "wikipedia": "tr:Trabzon"
      },
      "geometry": {
        "type": "Point",
        "coordinates": [
          39.7301463,
          41.0054605
        ]
      },
      "id": "node/512552945"
    },
    {
      "type": "Feature",
      "properties": {
        "@id": "node/1846826471",
        "alt_name:ml": "à´±àµˆà´¡àµ†à´¸àµà´±àµà´±àµ‹à´¸àµ",
        "capital": "4",
        "name": "TekirdaÄŸ",
        "name:ar": "ØªÙƒÙŠØ±Ø¯Ø§Øº",
        "name:bg": "Ğ Ğ¾Ğ´Ğ¾ÑÑ‚Ğ¾",
        "name:el": "Î¡Î±Î¹Î´ÎµÏƒÏ„ÏŒÏ‚",
        "name:hu": "RodostÃ³",
        "name:la": "Rhaedestus",
        "name:ml": "à´¤à´•àµ€àµ¼à´¦à´¾à´—àµ",
        "name:ru": "Ğ¢ĞµĞºĞ¸Ñ€Ğ´Ğ°Ğ³",
        "name:sr": "Ğ¢ĞµĞºĞ¸Ñ€Ğ´Ğ°Ğ³",
        "name:tr": "TekirdaÄŸ",
        "name:tr:suffix": "BÃ¼yÃ¼kÅŸehir Belediyesi",
        "name:uk": "Ğ¢ĞµĞºÑ–Ñ€Ğ´Ğ°Ğ³",
        "place": "city",
        "population": "215558",
        "population:date": "2022",
        "salb:id": "TUR073",
        "salb:name": "Tekirdag",
        "source:population": "https://tr.wikipedia.org/wiki/Tekirda%C4%9F",
        "wikidata": "Q182009",
        "wikimedia_commons": "Category:TekirdaÄŸ",
        "wikipedia": "tr:TekirdaÄŸ"
      },
      "geometry": {
        "type": "Point",
        "coordinates": [
          27.5107799,
          40.9781214
        ]
      },
      "id": "node/1846826471"
    },
    {
      "type": "Feature",
      "properties": {
        "@id": "node/1882099475",
        "admin_level": "4",
        "alt_name:ar": "Ø¨ÙŠØ²Ù†Ø·Ø©",
        "alt_name:mk": "Ğ¦Ğ°Ñ€Ğ¸Ğ³Ñ€Ğ°Ğ´",
        "alt_name:ml": "à´•àµ‹àµºà´¸àµà´±àµà´±à´¾àµ»àµà´±à´¿à´¨àµ‹à´ªàµà´ªà´¿àµ¾",
        "capital": "4",
        "name": "Ä°stanbul",
        "name:ab": "ĞÑÒ­Ğ°Ğ¼Ğ¿Ñ‹Ğ»",
        "name:af": "Istanboel",
        "name:ak": "Istanbul",
        "name:am": "áŠ¢áˆµá‰³áŠ•á‰¡áˆ",
        "name:an": "Istambul",
        "name:ar": "Ø¥Ø³Ø·Ù†Ø¨ÙˆÙ„",
        "name:as": "à¦‡à¦·à§à¦Ÿà¦¾à¦¨à¦¬à§à¦²",
        "name:av": "Ğ˜ÑÑ‚Ğ°Ğ½Ğ±ÑƒĞ»",
        "name:ba": "Ğ˜ÑÑ‚Ğ°Ğ½Ğ±ÑƒĞ»",
        "name:be": "Ğ¡Ñ‚Ğ°Ğ¼Ğ±ÑƒĞ»",
        "name:bg": "Ğ˜ÑÑ‚Ğ°Ğ½Ğ±ÑƒĞ»",
        "name:bh": "à¤‡à¤¸à¥à¤¤à¤¾à¤‚à¤¬à¥à¤²",
        "name:bm": "Istanbul",
        "name:bn": "à¦‡à¦¸à§à¦¤à¦¾à¦®à§à¦¬à§à¦²",
        "name:br": "Istanbul",
        "name:bs": "Istanbul",
        "name:ca": "Istanbul",
        "name:ce": "Ğ˜ÑÑ‚Ğ¼Ğ°Ğ»Ğ°",
        "name:ckb": "Ø¦Û•Ø³ØªÛ•Ù…Ø¨ÙˆÚµ",
        "name:cnr": "Istanbul",
        "name:cs": "Istanbul",
        "name:csb": "SztambÃ¹l",
        "name:cu": "Ğ¦Ñ£ÑĞ°Ñ€Ò„ÑŒ Ğ“Ñ€Ğ°Ğ´ÑŠ",
        "name:cv": "Ğ¡Ñ‚Ğ°Ğ¼Ğ±ÑƒĞ»",
        "name:cy": "Istanbul",
        "name:da": "Istanbul",
        "name:de": "Istanbul",
        "name:dsb": "Istanbul",
        "name:el": "ÎšÏ‰Î½ÏƒÏ„Î±Î½Ï„Î¹Î½Î¿ÏÏ€Î¿Î»Î·",
        "name:en": "Istanbul",
        "name:eo": "Istanbulo",
        "name:es": "Estambul",
        "name:eu": "Istanbul",
        "name:fa": "Ø§Ø³ØªØ§Ù†Ø¨ÙˆÙ„",
        "name:fi": "Istanbul",
        "name:fj": "Istanbul",
        "name:fo": "Istanbul",
        "name:fr": "Istanbul",
        "name:fy": "IstanbÃ»l",
        "name:ga": "IostanbÃºl",
        "name:gd": "Istanbul",
        "name:gl": "Istambul",
        "name:gn": "Estambul",
        "name:ha": "Istanbul",
        "name:he": "××™×¡×˜× ×‘×•×œ",
        "name:hi": "à¤‡à¤¸à¥à¤¤à¤¾à¤‚à¤¬à¥à¤²",
        "name:hr": "Istanbul",
        "name:hsb": "Istanbul",
        "name:ht": "Istanboul",
        "name:hu": "Isztambul",
        "name:hy": "ÕÕ¿Õ¡Õ´Õ¢Õ¸Ö‚Õ¬",
        "name:ia": "Istanbul",
        "name:id": "Istanbul",
        "name:ie": "Istanbul",
        "name:io": "Istanbul",
        "name:is": "MikligarÃ°ur",
        "name:it": "Istanbul",
        "name:ja": "ã‚¤ã‚¹ã‚¿ãƒ³ãƒ–ãƒ¼ãƒ«",
        "name:jv": "Istanbul",
        "name:ka": "áƒ¡áƒ¢áƒáƒ›áƒ‘áƒ£áƒšáƒ˜",
        "name:kk": "Ğ«ÑÑ‚Ğ°Ğ½Ğ±Ò±Ğ»",
        "name:kn": "à²‡à²¸à³à²¤à²¾à²‚à²¬à³à²²à³",
        "name:ko": "ì´ìŠ¤íƒ„ë¶ˆ",
        "name:ks": "Ø§ÙØ³ØªØ§Ù†Ø¨ÙÙ„",
        "name:ku": "Stembol",
        "name:kw": "Istanbul",
        "name:ky": "Ğ¡Ñ‚Ğ°Ğ¼Ğ±ÑƒĞ»",
        "name:la": "Constantinopolis",
        "name:lb": "Istanbul",
        "name:li": "Istanboel",
        "name:ln": "Istanbul",
        "name:lo": "àº­àº´àºªàº°àº•àº±àº™àºšàº¹àº™",
        "name:lt": "Stambulas",
        "name:lv": "Stambula",
        "name:mg": "Istanbul",
        "name:mi": "ItÄnipuru",
        "name:mk": "Ğ˜ÑÑ‚Ğ°Ğ½Ğ±ÑƒĞ»",
        "name:ml": "à´‡à´¸àµà´¤à´¾à´‚à´¬àµàµ¾",
        "name:mn": "Ğ¡Ñ‚Ğ°Ğ¼Ğ±ÑƒĞ»",
        "name:mr": "à¤‡à¤¸à¥à¤¤à¤‚à¤¬à¥‚à¤²",
        "name:ms": "Istanbul",
        "name:mt": "Istanbul",
        "name:my": "á€¡á€…á€ºá€…á€á€”á€ºá€˜á€°á€œá€ºá€™á€¼á€­á€¯á€·",
        "name:na": "Istanbul",
        "name:nb": "Istanbul",
        "name:ne": "à¤‡à¤¸à¥à¤¤à¤¾à¤¨à¤¬à¥à¤²",
        "name:nl": "Istanboel",
        "name:nn": "Istanbul",
        "name:nv": "AÅ‚chÊ¼Ä¯Ê¼ NÃ¡Ã¡Ê¼Ã¡hÃ¡",
        "name:ny": "Istanbul",
        "name:oc": "Istambol",
        "name:os": "Ğ¡Ñ‚Ğ°Ğ¼Ğ±ÑƒĞ»",
        "name:ota": "Ù‚Ø³Ø·Ù†Ø·ÙŠÙ†ÙŠÙ‡",
        "name:pa": "à¨‡à¨¸à¨¤à¨¾à¨¨à¨¬à©à¨²",
        "name:pl": "StambuÅ‚",
        "name:ps": "Ø§Ø³ØªÙ†Ø¨ÙˆÙ„",
        "name:pt": "Istambul",
        "name:qu": "Istanbul",
        "name:rm": "Istanbul",
        "name:ro": "Istanbul",
        "name:ru": "Ğ¡Ñ‚Ğ°Ğ¼Ğ±ÑƒĞ»",
        "name:rw": "Istanbul",
        "name:sc": "Istanbul",
        "name:sd": "Ø§Ø³ØªÙ†Ø¨ÙˆÙ„",
        "name:se": "Istanbul",
        "name:si": "à¶‰à·ƒà·Šà¶­à·à¶±à·Šà¶¶à·”à¶½à·Š",
        "name:sk": "Istanbul",
        "name:sl": "Carigrad",
        "name:so": "Istanbuul",
        "name:sq": "Stambolli",
        "name:sr": "Ğ˜ÑÑ‚Ğ°Ğ½Ğ±ÑƒĞ»",
        "name:sv": "Istanbul",
        "name:sw": "Istanbul",
        "name:ta": "à®‡à®šà¯à®¤à®¾à®©à¯à®ªà¯à®²à¯",
        "name:te": "à°‡à°¸à±à°¤à°¾à°‚à°¬à±à°²à±",
        "name:tg": "Ğ˜ÑÑ‚Ğ°Ğ½Ğ±ÑƒĞ»",
        "name:th": "à¸­à¸´à¸ªà¸•à¸±à¸™à¸šà¸¹à¸¥",
        "name:tk": "Stambul",
        "name:tl": "Istanbul",
        "name:tr": "Ä°stanbul",
        "name:tr:suffix": "BÃ¼yÃ¼kÅŸehir Belediyesi",
        "name:tt": "Ğ˜ÑÑ‚Ğ°Ğ½Ğ±ÑƒĞ»",
        "name:tw": "Istanbul",
        "name:ug": "Istanbul",
        "name:uk": "Ğ¡Ñ‚Ğ°Ğ¼Ğ±ÑƒĞ»",
        "name:ur": "Ø§Ø³ØªÙ†Ø¨ÙˆÙ„",
        "name:uz": "Istanbul",
        "name:vi": "Istanbul",
        "name:yi": "×¡×˜×××‘×•×œ",
        "name:yo": "Istanbul",
        "name:zh": "ä¼Šæ–¯å¦å¸ƒå°” / ä¼Šæ–¯å¦å ¡",
        "name:zh-Hans": "ä¼Šæ–¯å¦å¸ƒå°”",
        "name:zh-Hant": "ä¼Šæ–¯å¦å ¡",
        "name:zu": "Istanbul",
        "old_name": "Konstantiniyye",
        "old_name:ar": "Ø§Ù„Ù‚Ø³Ø·Ù†Ø·ÙŠÙ†ÙŠØ©",
        "old_name:bg": "Ğ¦Ğ°Ñ€Ğ¸Ğ³Ñ€Ğ°Ğ´",
        "old_name:ca": "Constantinoble",
        "old_name:cs": "Konstantinopol",
        "old_name:de": "Konstantinopel",
        "old_name:el": "ÎšÏ‰Î½ÏƒÏ„Î±Î½Ï„Î¹Î½Î¿ÏÏ€Î¿Î»Î·",
        "old_name:en": "Constantinople",
        "old_name:eo": "Stambulo;Konstantinopolo;Bizanco",
        "old_name:hr": "Konstantinopol;Carigrad",
        "old_name:la": "Byzantium",
        "old_name:pl": "Bizancjum;Konstantynopol",
        "old_name:sk": "KonÅ¡tantÃ­nopol;Carihrad",
        "old_name:zh": "å›å£«å¦ä¸å ¡",
        "place": "city",
        "population": "15701602",
        "population:date": "2025",
        "source:name:oc": "Lo CongrÃ¨s",
        "website": "http://istanbul.gov.tr",
        "wikidata": "Q406",
        "wikimedia_commons": "Category:Istanbul",
        "wikipedia": "tr:Ä°stanbul"
      },
      "geometry": {
        "type": "Point",
        "coordinates": [
          28.9758715,
          41.006381
        ]
      },
      "id": "node/1882099475"
    },
    {
      "type": "Feature",
      "properties": {
        "@id": "node/3479054194",
        "alt_name:el": "ÎœÏ€Î¿Î»Î¿Ï",
        "alt_name:la": "Bithynium",
        "name": "Bolu",
        "name:ar": "Ø¨ÙˆÙ„Ùˆ",
        "name:de": "Bolu",
        "name:el": "Î’Î¹Î¸ÏÎ½Î¹Î¿Î½",
        "name:en": "Bolu",
        "name:es": "Bolu",
        "name:fr": "Bolu",
        "name:grc": "Î’Î¹Î¸ÏÎ½Î¹Î¿Î½",
        "name:it": "Bolu",
        "name:ko": "ë³¼ë£¨",
        "name:la": "Claudiopolis",
        "name:ml": "à´¬àµ‹à´²àµ",
        "name:nl": "Bolu",
        "name:no": "Bolu",
        "name:pl": "Bolu",
        "name:pt": "Bolu",
        "name:ru": "Ğ‘Ğ¾Ğ»Ñƒ",
        "name:sr": "Ğ‘Ğ¾Ğ»Ñƒ",
        "name:sv": "Bolu",
        "name:tr": "Bolu",
        "name:tr:suffix": "Belediyesi",
        "name:uk": "Ğ‘Ğ¾Ğ»Ñƒ",
        "name:zh": "åšç›§",
        "place": "city",
        "population": "184682",
        "population:date": "31-12-2021",
        "wikidata": "Q200951",
        "wikimedia_commons": "Category:Bolu",
        "wikipedia": "tr:Bolu"
      },
      "geometry": {
        "type": "Point",
        "coordinates": [
          31.6110479,
          40.7332953
        ]
      },
      "id": "node/3479054194"
    },
    {
      "type": "Feature",
      "properties": {
        "@id": "node/5798692759",
        "capital": "4",
        "name": "Ã‡ankÄ±rÄ±",
        "name:ar": "Ø¬Ø§Ù†Ù‚Ø±ÙŠ",
        "name:arz": "Ø¬Ø§Ù†Ù‚Ø±Ù‰",
        "name:az": "Ã‡anqÄ±rÄ±",
        "name:azb": "Ú†Ø§Ù†Ù‚Ø±ÛŒ",
        "name:bg": "Ğ§Ğ°Ğ½ĞºÑŠÑ€ÑŠ",
        "name:ca": "Ã‡ankÄ±rÄ±",
        "name:ce": "Ğ§Ğ°Ğ½ĞºĞ¸Ñ€Ğ¸",
        "name:ceb": "Khanjarah",
        "name:crh": "Ã‡ankÄ±rÄ±",
        "name:cs": "Ã‡ankÄ±rÄ±",
        "name:de": "Ã‡ankÄ±rÄ±",
        "name:el": "Î“Î¬Î³Î³ÏÎ±",
        "name:en": "Ã‡ankÄ±rÄ±",
        "name:eo": "Ã‡ankÄ±rÄ±",
        "name:es": "Ã‡ankÄ±rÄ±",
        "name:fa": "Ú†Ø§Ù†Ù‚Ø±ÛŒ",
        "name:fr": "Ã‡ankÄ±rÄ±",
        "name:frr": "Ã‡ankÄ±rÄ±",
        "name:gag": "Ã‡ankÄ±rÄ±",
        "name:hi": "à¤šà¤¾à¤¨à¤•à¤¿à¤°à¥€",
        "name:hy": "Õ‰Õ¡Õ¶Õ¯Õ«Ö€Õ«",
        "name:it": "Ã‡ankÄ±rÄ±",
        "name:ja": "ãƒãƒ£ãƒ³ã‚¯ãƒ«",
        "name:ka": "áƒ©áƒáƒœáƒ¥áƒ˜áƒ áƒ˜",
        "name:ko": "ì°½í‚¤ë¦¬",
        "name:la": "Gangra",
        "name:min": "Ã‡ankÄ±rÄ±",
        "name:ml": "à´šà´¾à´™àµà´•à´¿à´±à´¿",
        "name:mrj": "Ğ§Ğ°Ğ½ĞºÑ‹Ñ€Ñ‹",
        "name:ms": "Ã‡ankÄ±rÄ±",
        "name:na": "Ã‡ankÄ±rÄ±",
        "name:nl": "Ã‡ankÄ±rÄ±",
        "name:no": "Ã‡ankÄ±rÄ±",
        "name:pl": "Ã‡ankÄ±rÄ±",
        "name:pnb": "Ú†Ù†Ú©ÛŒØ±ÛŒ",
        "name:pt": "Ã‡ankÄ±rÄ±",
        "name:ro": "Ã‡ankÄ±rÄ±",
        "name:ru": "Ğ§Ğ°Ğ½ĞºÑ‹Ñ€Ñ‹",
        "name:rw": "Ã‡ankÄ±rÄ±",
        "name:sh": "Ã‡ankÄ±rÄ±",
        "name:sr": "Ğ§Ğ°Ğ½ĞºĞ¸Ñ€Ğ¸",
        "name:sw": "Ã‡ankÄ±rÄ±",
        "name:tg": "Ğ§Ğ¾Ğ½Ò›Ğ¸Ñ€Ğ¸",
        "name:tr": "Ã‡ankÄ±rÄ±",
        "name:tr:suffix": "Belediyesi",
        "name:tt": "Ğ§Ğ°Ğ½ĞºÑ‹Ñ€Ñ‹",
        "name:udm": "Ğ§Ğ°Ğ½ĞºÑ‹Ñ€Ñ‹",
        "name:uk": "Ğ§Ğ°Ğ½ĞºĞ¸Ñ€Ğ¸",
        "name:ur": "Ú†Ø§Ù†Ù‚Ø±ÛŒ",
        "name:vi": "Ã‡ankÄ±rÄ±",
        "name:vo": "Ã‡ankÄ±rÄ±",
        "name:war": "Ã‡ankÄ±rÄ±",
        "name:zh": "æ˜Œå…‹å‹’",
        "name:zza": "Ã‡anqÄ±riye",
        "official_name": "Ã‡ankÄ±rÄ±",
        "old_name": "Germanicopolis;Gangra;Î“Î¬Î³Î³ÏÎ±;Î“ÎµÏÎ¼Î±Î½Î¹ÎºÏŒÏ€Î¿Î»Î¹Ï‚;Changra;Kandari;Kanghari",
        "place": "city",
        "population": "186074",
        "population:date": "2017",
        "wikidata": "Q209925",
        "wikimedia_commons": "Category:Ã‡ankÄ±rÄ±",
        "wikipedia": "tr:Ã‡ankÄ±rÄ±"
      },
      "geometry": {
        "type": "Point",
        "coordinates": [
          33.6212704,
          40.5971947
        ]
      },
      "id": "node/5798692759"
    },
    {
      "type": "Feature",
      "properties": {
        "@id": "node/6196594141",
        "alt_name:ar": "Ø¯ÙŠÙ†Ø²Ù„ÙŠ",
        "ele": "354",
        "name": "Denizli",
        "name:ar": "Ø¯Ù†ÙŠØ²Ù„ÙŠ",
        "name:az": "DÉ™nizli",
        "name:be": "Ğ”ÑĞ½Ñ–Ğ·Ğ»Ñ–",
        "name:bg": "Ğ”ĞµĞ½Ğ¸Ğ·Ğ»Ğ¸",
        "name:ce": "Ğ”ĞµĞ½Ğ¸Ğ·Ğ»Ğ¸",
        "name:ckb": "Ø¯Û•Ù†ÛŒØ²Ù„ÛŒ",
        "name:cv": "Ğ”ĞµĞ½Ğ¸Ğ·Ğ»Ğ¸",
        "name:el": "ÎÏ„ÎµÎ½Î¹Î¶Î»Î¯",
        "name:en": "Denizli",
        "name:fa": "Ø¯Ù†ÛŒØ²Ù„ÛŒ",
        "name:hi": "à¤¡à¥‡à¤¨à¤¿à¤œà¤¼à¤²à¥€",
        "name:hu": "Denizli",
        "name:ja": "ãƒ‡ãƒ‹ã‚ºãƒª",
        "name:ku": "DenizlÃ®",
        "name:ml": "à´¦àµ†à´¨àµ€à´¸àµà´²à´¿",
        "name:pt": "Denizli",
        "name:ru": "Ğ”ĞµĞ½Ğ¸Ğ·Ğ»Ğ¸",
        "name:sr": "Ğ”ĞµĞ½Ğ¸Ğ·Ğ»Ğ¸",
        "name:tr:suffix": "BÃ¼yÃ¼kÅŸehir Belediyesi",
        "name:uk": "Ğ”ĞµĞ½Ñ–Ğ·Ğ»Ñ–",
        "name:ur": "Ø¯Ù†ÛŒØ²Ù„ÛŒ",
        "place": "city",
        "population": "1051056",
        "population:date": "31-12-2021",
        "salb:adm1name": "Denizli",
        "salb:adm2name": "Denizli Merkez Ilcesi",
        "wikidata": "Q170967",
        "wikimedia_commons": "Category:Denizli",
        "wikipedia": "tr:Denizli"
      },
      "geometry": {
        "type": "Point",
        "coordinates": [
          29.0966476,
          37.7827875
        ]
      },
      "id": "node/6196594141"
    },
    {
      "type": "Feature",
      "properties": {
        "@id": "node/8603453649",
        "admin_level": "4",
        "name": "AydÄ±n",
        "name:ar": "Ø£ÙŠØ¯ÙŠÙ†",
        "name:av": "ĞĞ¹Ğ´Ñ‹Ğ½",
        "name:az": "AydÄ±n",
        "name:ba": "ĞĞ¹Ğ´Ñ‹Ğ½",
        "name:be": "ĞĞ¹Ğ´Ñ‹Ğ½",
        "name:bg": "ĞĞ¹Ğ´ÑŠĞ½",
        "name:ce": "ĞĞ¹Ğ´Ğ¸Ğ½",
        "name:da": "Aydin",
        "name:el": "Î‘ÏŠÎ´Î¯Î½Î¹Î¿",
        "name:en": "Aydin",
        "name:fa": "Ø¢ÛŒØ¯ÛŒÙ†",
        "name:fy": "AydÄ±n",
        "name:he": "××™×™×“×Ÿ",
        "name:hi": "à¤à¤¦à¤¿à¤¨",
        "name:hu": "AydÄ±n",
        "name:hy": "Ô±ÕµÕ¤Õ¨Õ¶",
        "name:ja": "ã‚¢ã‚¤ãƒ‰ã‚¥ãƒ³",
        "name:ka": "áƒáƒ˜áƒ“áƒ˜áƒœáƒ˜",
        "name:ko": "ì•„ì´ë“ ",
        "name:ku": "AydÃ®n",
        "name:la": "Tralles",
        "name:lt": "Aidinas",
        "name:lv": "Ajdina",
        "name:ml": "à´à´¦àµ€àµ»",
        "name:nl": "AydÄ±n",
        "name:os": "ĞĞ¹Ğ´Ñ‹Ğ½",
        "name:pa": "à¨à¨¦à¨¿à¨¨",
        "name:pt": "Aidim",
        "name:ru": "ĞĞ¹Ğ´Ñ‹Ğ½",
        "name:sq": "AjdÃ«n",
        "name:sr": "ĞÑ˜Ğ´Ğ¸Ğ½",
        "name:tg": "ĞĞ¹Ğ´Ğ¸Ğ½",
        "name:tr": "AydÄ±n",
        "name:tr:suffix": "BÃ¼yÃ¼kÅŸehir Belediyesi",
        "name:uk": "ĞĞ¹Ğ´Ğ¸Ğ½",
        "name:ur": "Ø¢ÛŒØ¯ÛŒÙ†",
        "name:zh": "è‰¾ç™» (åœŸè€³å…¶)",
        "old_name": "Tralles;GÃ¼zelhisar;Guzel Hissar;Î¤ÏÎ±Î»Î»Îµá¿–Ï‚;Anthea;Euanthia;Erynina;Seleucia ad Maeandrum",
        "place": "city",
        "population": "1119084",
        "population:date": "2021",
        "salb:id": "TUR011017",
        "source": "Wikipedia;osm notes",
        "wikidata": "Q170457",
        "wikimedia_commons": "Category:AydÄ±n",
        "wikipedia": "en:AydÄ±n"
      },
      "geometry": {
        "type": "Point",
        "coordinates": [
          27.8435878,
          37.8483767
        ]
      },
      "id": "node/8603453649"
    },
    {
      "type": "Feature",
      "properties": {
        "@id": "node/11212606075",
        "name": "Kocaeli",
        "name:en": "Kocaeli",
        "name:ml": "à´•àµ‹à´œàµ‡à´²à´¿",
        "name:sr": "ĞšĞ¾ÑŸĞ°ĞµĞ»Ğ¸",
        "name:tr:suffix": "BÃ¼yÃ¼kÅŸehir Belediyesi",
        "name:uk": "ĞšĞ¾Ğ´Ğ¶Ğ°ĞµĞ»Ñ–",
        "old_name:el": "ÎÎ¹ÎºÎ¿Î¼Î®Î´ÎµÎ¹Î±",
        "place": "city",
        "population": "2079072",
        "population:date": "2022",
        "source:population": "wikipedia",
        "wikidata": "Q83965",
        "wikimedia_commons": "Category:Kocaeli Province",
        "wikipedia": "tr:Kocaeli"
      },
      "geometry": {
        "type": "Point",
        "coordinates": [
          29.9407361,
          40.7653892
        ]
      },
      "id": "node/11212606075"
    },
    {
      "type": "Feature",
      "properties": {
        "@id": "node/11212641962",
        "name": "Sakarya",
        "name:el": "Î£Î±ÎºÎ¬ÏÎ¹Î±",
        "name:ml": "à´¸à´•àµà´•à´±à´¿à´¯",
        "name:sr": "Ğ¡Ğ°ĞºĞ°Ñ€Ğ¸Ñ˜Ğ°",
        "name:tr:suffix": "BÃ¼yÃ¼kÅŸehir Belediyesi",
        "name:uk": "Ğ¡Ğ°ĞºĞ°Ñ€'Ñ",
        "place": "city",
        "population": "1094481",
        "population:date": "2022",
        "wikidata": "Q83069",
        "wikimedia_commons": "Category:Sakarya Province",
        "wikipedia": "tr:Sakarya"
      },
      "geometry": {
        "type": "Point",
        "coordinates": [
          30.4038575,
          40.7726291
        ]
      },
      "id": "node/11212641962"
    },
    {
      "type": "Feature",
      "properties": {
        "@id": "node/12110587584",
        "name": "Hatay",
        "name:ar": "Ø­Ø·Ø§ÙŠ",
        "name:en": "Hatay",
        "name:fa": "Ø®ØªØ§ÛŒ",
        "name:ml": "à´¹à´¤àµà´¤à´¾à´¯àµ",
        "name:tr:suffix": "BÃ¼yÃ¼kÅŸehir Belediyesi",
        "place": "city",
        "population": "1544640",
        "population:date": "2023-12-31",
        "wikidata": "Q83274",
        "wikimedia_commons": "Category:Hatay Province",
        "wikipedia": "tr:Hatay"
      },
      "geometry": {
        "type": "Point",
        "coordinates": [
          36.1602908,
          36.2025471
        ]
      },
      "id": "node/12110587584"
    }
  ]
}